201605312352 METAR KBDR 312352Z 21008KT 10SM CLR 23/17 A2993 RMK AO2 SLP134
                        T02330172 10283 20233 53008=
201605312252 METAR KBDR 312252Z 20011KT 10SM CLR 25/18 A2991 RMK AO2 SLP129
                        T02500178=
201605312152 METAR KBDR 312152Z 20012KT 10SM CLR 27/18 A2990 RMK AO2 SLP124
                        T02720178=
201605312052 METAR KBDR 312052Z 21009KT 10SM CLR 28/13 A2990 RMK AO2 SLP125
                        T02830133 57010=
201605311952 METAR KBDR 311952Z 21009KT 10SM CLR 28/12 A2991 RMK AO2 SLP129
                        T02780122=
201605311852 METAR KBDR 311852Z 20009KT 10SM CLR 27/14 A2992 RMK AO2 SLP131
                        T02720144=
201605311752 METAR KBDR 311752Z 20010KT 10SM CLR 27/16 A2993 RMK AO2 SLP135
                        T02670156 10267 20217 58011=
201605311652 METAR KBDR 311652Z 17010KT 10SM CLR 26/16 A2995 RMK AO2 SLP142
                        T02560161=
201605311552 METAR KBDR 311552Z 19009KT 10SM BKN065 24/18 A2996 RMK AO2
                        SLP146 T02440178=
201605311452 METAR KBDR 311452Z 21007KT 10SM FEW055 24/19 A2996 RMK AO2
                        SLP146 T02390194 50001=
201605311352 METAR KBDR 311352Z 22007KT 10SM OVC060 23/19 A2997 RMK AO2
                        SLP149 T02330194=
201605311252 METAR KBDR 311252Z 21005KT 8SM BKN070 22/19 A2997 RMK AO2
                        SLP148 T02220194=
201605311152 METAR KBDR 311152Z 00000KT 9SM CLR 22/19 A2996 RMK AO2 SLP145
                        70003 T02170194 10217 20194 51011=
201605311052 METAR KBDR 311052Z 22003KT 10SM FEW007 21/19 A2995 RMK AO2
                        SLP142 T02060189=
201605311007 SPECI KBDR 311007Z AUTO 21003KT 10SM SCT008 20/18 A2994 RMK
                        AO2 T02000183=
201605310952 METAR KBDR 310952Z AUTO 22003KT 10SM BKN008 21/19 A2994 RMK
                        AO2 CIG 006V011 SLP138 T02060189=
201605310912 SPECI KBDR 310912Z AUTO 00000KT 10SM BKN007 19/18 A2993 RMK
                        AO2 CIG 005V009 T01940183=
201605310852 METAR KBDR 310852Z AUTO 00000KT 10SM SCT005 20/18 A2993 RMK
                        AO2 SLP134 T02000183 51001=
201605310844 SPECI KBDR 310844Z AUTO 00000KT 10SM SCT005 20/18 A2993 RMK
                        AO2 T02000183=
201605310803 SPECI KBDR 310803Z AUTO 00000KT 10SM SCT015 20/18 A2992 RMK
                        AO2 T02000183=
201605310752 METAR KBDR 310752Z AUTO 24003KT 10SM BKN014 20/18 A2992 RMK
                        AO2 SLP133 T02000183=
201605310652 METAR KBDR 310652Z AUTO 24004KT 10SM OVC011 20/18 A2993 RMK
                        AO2 SLP135 T02000183=
201605310610 SPECI KBDR 310610Z AUTO 24003KT 10SM BKN011 20/18 A2992 RMK
                        AO2 T02000183=
201605310552 METAR KBDR 310552Z AUTO 23004KT 10SM SCT011 20/18 A2992 RMK
                        AO2 SLP132 T02000183 10206 20200
                        58008=
201605310524 SPECI KBDR 310524Z AUTO 23006KT 10SM FEW015 21/18 A2993 RMK
                        AO2 T02060183=
201605310452 METAR KBDR 310452Z AUTO 23004KT 10SM BKN015 21/19 A2994 RMK
                        AO2 SLP138 T02060189 402670183=
201605310450 SPECI KBDR 310450Z AUTO 25004KT 10SM BKN015 21/19 A2994 RMK
                        AO2=
201605310400 METAR KBDR NIL=
201605310352 METAR KBDR 310352Z AUTO 23005KT 10SM CLR 21/18 A2995 RMK
                        AO2 SLP141 T02060183=
201605310257 SPECI KBDR 310257Z AUTO 23005KT 10SM SCT010 21/19 A2995 RMK
                        AO2 T02060189=
201605310252 METAR KBDR 310252Z AUTO 22005KT 10SM BKN009 21/18 A2995 RMK
                        AO2 SLP143 T02060183 50001=
201605310152 METAR KBDR 310152Z 23005KT 10SM OVC009 21/18 A2996 RMK AO2
                        SLP146 T02060183=
201605310147 SPECI KBDR 310147Z 24003KT 10SM OVC009 21/18 A2996 RMK AO2=
201605310129 SPECI KBDR 310129Z 23004KT 10SM OVC010 21/19 A2996 RMK AO2
                        T02060189=
201605310052 METAR KBDR 310052Z 23005KT 10SM OVC008 21/19 A2995 RMK AO2
                        SLP142 T02060189=
201605302352 METAR KBDR 302352Z 22008KT 10SM BKN009 21/18 A2994 RMK AO2
                        SLP137 T02060183 10267 20206 56001=
201605302349 SPECI KBDR 302349Z 22007KT 10SM BKN009 21/18 A2994 RMK AO2=
201605302341 SPECI KBDR 302341Z 22007KT 10SM SCT009 21/18 A2993 RMK AO2
                        T02060183=
201605302252 METAR KBDR 302252Z 21007KT 10SM CLR 22/19 A2993 RMK AO2 SLP136
                        T02170189=
201605302152 METAR KBDR 302152Z 20010KT 10SM CLR 22/19 A2994 RMK AO2 SLP138
                        T02220194=
201605302052 METAR KBDR 302052Z 18009KT 10SM CLR 23/20 A2993 RMK AO2 SLP135
                        T02280200 56008=
201605301952 METAR KBDR 301952Z 18007KT 160V260 10SM CLR 23/20 A2994 RMK
                        AO2 SLP137 T02330200=
201605301852 METAR KBDR 301852Z 22009KT 10SM CLR 26/19 A2995 RMK AO2 SLP141
                        T02610189=
201605301752 METAR KBDR 301752Z 23008KT 10SM FEW024 24/19 A2996 RMK AO2
                        SLP144 60003 T02440194 10244 20183
                        56006=
201605301749 SPECI KBDR 301749Z 22008KT 10SM FEW024 24/19 A2996 RMK AO2=
201605301652 METAR KBDR 301652Z 21008KT 10SM BKN022 23/20 A2997 RMK AO2
                        SLP147 T02330200=
201605301612 SPECI KBDR 301612Z 20007KT 10SM SCT017 23/20 A2997 RMK AO2
                        T02280200=
201605301552 METAR KBDR 301552Z 20008KT 10SM OVC017 22/20 A2997 RMK AO2
                        SLP150 T02170200=
201605301547 SPECI KBDR 301547Z 20007KT 10SM OVC017 22/20 A2998 RMK AO2=
201605301515 SPECI KBDR 301515Z 21007KT 10SM FEW008 BKN013 OVC019 22/20
                        A2998 RMK AO2 T02170200=
201605301452 METAR KBDR 301452Z 22005KT 8SM BKN005 OVC012 22/20 A2999
                        RMK AO2 RAE06 SLP154 P0001 60003
                        T02170200 58001=
201605301437 SPECI KBDR 301437Z 23005KT 6SM BR OVC003 21/20 A2999 RMK
                        AO2 RAE06 P0001 T02110200=
201605301422 SPECI KBDR 301422Z 25004KT 2SM BR OVC003 21/21 A2999 RMK
                        AO2 RAE06 P0001 T02110206=
201605301404 SPECI KBDR 301404Z 26005KT 6SM -RA BR OVC003 21/19 A2999
                        RMK AO2 P0001 T02060194=
201605301352 METAR KBDR 301352Z 26005KT 5SM -RA BR OVC002 21/19 A3000
                        RMK AO2 RAB13E36B50 SLP157 P0001
                        T02060194=
201605301344 SPECI KBDR 301344Z 25003KT 4SM BR OVC002 21/19 A3000 RMK
                        AO2 RAB13E36 P0001 T02060194=
201605301337 SPECI KBDR 301337Z 23005KT 2 1/2SM BR OVC002 21/19 A3000
                        RMK AO2 RAB13E36 P0001 T02060194=
201605301302 SPECI KBDR 301302Z 00000KT 1 1/4SM BR OVC002 19/18 A3000
                        RMK AO2 T01890183=
201605301252 METAR KBDR 301252Z 09003KT 3/4SM BR OVC002 19/18 A2999 RMK
                        AO2 RAE23 SLP155 P0001 T01890178=
201605301248 SPECI KBDR 301248Z 09003KT 1SM BR OVC002 18/18 A2999 RMK
                        AO2 RAE23 P0001=
201605301208 SPECI KBDR 301208Z 07004KT 1SM -RA BR VV003 19/18 A2998 RMK
                        AO2 P0001 T01890178=
201605301152 METAR KBDR 301152Z 07004KT 1 1/2SM -RA BR OVC002 19/18 A2998
                        RMK AO2 SLP153 P0002 60120 70121
                        T01890178 10194 20183 58005=
201605301139 SPECI KBDR 301139Z 07004KT 2SM -RA BR OVC002 19/18 A2998
                        RMK AO2 P0001 T01890178=
201605301052 METAR KBDR 301052Z 08004KT 10SM -RA OVC003 19/18 A2999 RMK
                        AO2 SLP156 P0005 T01890178=
201605300952 METAR KBDR 300952Z AUTO 07004KT 4SM -RA BR BKN004 OVC008
                        18/18 A3000 RMK AO2 SLP159 P0021
                        T01830178=
201605300941 SPECI KBDR 300941Z AUTO 10004KT 4SM -RA BR FEW002 BKN007
                        OVC021 18/18 A3000 RMK AO2 P0020
                        T01830178=
201605300933 SPECI KBDR 300933Z AUTO 11004KT 3SM RA BR FEW002 BKN019 OVC027
                        18/18 A3001 RMK AO2 P0019 T01830178=
201605300925 SPECI KBDR 300925Z AUTO 10005KT 2 1/2SM +RA BR FEW009 BKN021
                        OVC028 18/17 A3000 RMK AO2 P0016
                        T01830172=
201605300916 SPECI KBDR 300916Z AUTO 09007KT 3SM RA BR SCT014 BKN023 OVC029
                        18/17 A3000 RMK AO2 P0011 T01830172=
201605300905 SPECI KBDR 300905Z AUTO 08007KT 3SM +RA BR FEW007 BKN014
                        OVC029 18/17 A3000 RMK AO2 LTG DSNT
                        S P0005 T01830172=
201605300852 METAR KBDR 300852Z AUTO 09007KT 3SM RA BR BKN015 OVC025 18/17
                        A3000 RMK AO2 SLP158 P0017 60092
                        T01830172 56014=
201605300808 SPECI KBDR 300808Z AUTO 07006KT 3SM +RA BR FEW007 BKN017
                        OVC041 19/18 A3000 RMK AO2 P0011
                        T01890178=
201605300755 SPECI KBDR 300755Z AUTO 09005KT 2 1/2SM +RA BR SCT007 BKN014
                        OVC019 19/18 A3001 RMK AO2 P0004
                        T01890183=
201605300752 METAR KBDR 300752Z AUTO 08003KT 3SM +RA BR SCT007 BKN016
                        OVC027 19/18 A3001 RMK AO2 SLP162
                        P0075 T01890183=
201605300743 SPECI KBDR 300743Z AUTO 07005KT 4SM RA BR SCT007 BKN015 OVC027
                        19/18 A3001 RMK AO2 P0072 T01940183=
201605300730 SPECI KBDR 300730Z AUTO 06005KT 3SM RA BR FEW006 BKN009 OVC038
                        19/18 A3001 RMK AO2 P0067 T01940183=
201605300724 SPECI KBDR 300724Z AUTO 04006KT 1 1/4SM +RA BR BKN006 19/18
                        A3001 RMK AO2 P0064 T01890183=
201605300702 SPECI KBDR 300702Z AUTO 06006KT 1SM +RA BR VV003 19/18 A3002
                        RMK AO2 P0010 T01890178=
201605300652 METAR KBDR 300652Z AUTO 07007KT 1/2SM -RA FG VV002 19/18
                        A3002 RMK AO2 RAB08E30B52 SLP165
                        P0000 T01890178=
201605300641 SPECI KBDR 300641Z AUTO 07007KT 3/4SM BR VV002 19/18 A3002
                        RMK AO2 RAB08E30 P0000 T01890183=
201605300609 SPECI KBDR 300609Z AUTO 07004KT 1SM -RA BR VV003 19/18 A3003
                        RMK AO2 RAB08 P0000 T01940183=
201605300600 METAR KBDR NIL=
201605300548 METAR KBDR 300548Z AUTO 09004KT 1 1/2SM BR OVC002 19/19 A3004=
201605300547 SPECI KBDR 300547Z AUTO 09004KT 1 3/4SM BR OVC002 19/19 A3004
                        RMK AO2 RAE0456 P0000=
201605300538 SPECI KBDR 300538Z AUTO 11004KT 2SM BR OVC003 19/18 A3004
                        RMK AO2 RAE0456 P0000 T01940183=
201605300524 SPECI KBDR 300524Z AUTO 10003KT 3SM BR OVC003 19/19 A3005
                        RMK AO2 RAE0456 P0000 T01940189=
201605300506 SPECI KBDR 300506Z AUTO 14003KT 3SM BR OVC002 19/19 A3006
                        RMK AO2 RAE0456 P0000 T01940189=
201605300459 SPECI KBDR 300459Z AUTO 12004KT 2 1/2SM BR OVC003 19/18 A3006
                        RMK AO2 RAE56 P0000 T01940183=
201605300452 METAR KBDR 300452Z AUTO 12005KT 1 3/4SM -RA BR OVC003 19/18
                        A3006 RMK AO2 RAB00E23B45 SLP179
                        P0001 T01940183 402830194=
201605300414 SPECI KBDR 300414Z AUTO 14004KT 1 1/4SM -RA BR OVC003 19/19
                        A3007 RMK AO2 RAB00 P0001 T01940189=
201605300359 SPECI KBDR 300359Z AUTO 14006KT 1 1/4SM BR OVC002 19/19 A3007
                        RMK AO2 T01940189=
201605300352 METAR KBDR 300352Z AUTO 14006KT 3/4SM BR VV002 19/19 A3008
                        RMK AO2 SLP184 T01940189=
201605300308 SPECI KBDR 300308Z AUTO 12007KT 3/4SM BR VV002 20/19 A3008
                        RMK AO2 T02000189=
201605300302 SPECI KBDR 300302Z AUTO 12006KT 1 3/4SM BR BKN004 OVC009
                        20/19 A3008 RMK AO2 VIS 3/4V5 T02000189=
201605300252 METAR KBDR 300252Z AUTO 14008KT 8SM BKN004 OVC007 20/19 A3009
                        RMK AO2 CIG 002V007 SLP187 T02000189
                        58003=
201605300214 SPECI KBDR 300214Z AUTO 13005KT 10SM OVC009 21/19 A3009 RMK
                        AO2 CIG 009V012 T02060189=
201605300152 METAR KBDR 300152Z 10005KT 10SM OVC010 21/19 A3009 RMK AO2
                        SLP191 T02060189=
201605300119 SPECI KBDR 300119Z 11004KT 10SM BKN011 21/19 A3009 RMK AO2
                        CIG 007V013 T02110189=
201605300052 METAR KBDR 300052Z 17004KT 10SM SCT009 22/19 A3009 RMK AO2
                        SLP190 T02170194=
201605300049 SPECI KBDR 300049Z 17004KT 10SM SCT009 22/19 A3009 RMK AO2=
201605300042 SPECI KBDR 300042Z 17005KT 10SM BKN010 21/19 A3009 RMK AO2
                        T02110194=
201605292352 METAR KBDR 292352Z 17006KT 10SM CLR 22/19 A3009 RMK AO2 SLP190
                        T02170189 10283 20217 55000=
201605292252 METAR KBDR 292252Z 19009KT 10SM CLR 23/19 A3008 RMK AO2 SLP186
                        T02280189=
201605292152 METAR KBDR 292152Z 19011KT 10SM CLR 24/19 A3009 RMK AO2 SLP188
                        T02390194=
201605292052 METAR KBDR 292052Z 19011KT 10SM CLR 26/17 A3009 RMK AO2 SLP190
                        T02610172 56010=
201605291952 METAR KBDR 291952Z 18011KT 10SM CLR 28/12 A3009 RMK AO2 SLP191
                        T02780117=
201605291852 METAR KBDR 291852Z 12006KT 10SM CLR 26/17 A3011 RMK AO2 SLP196
                        T02560172=
201605291752 METAR KBDR 291752Z 10010KT 10SM CLR 26/17 A3012 RMK AO2 SLP200
                        T02560167 10272 20217 58003=
201605291652 METAR KBDR 291652Z 11008KT 10SM CLR 24/17 A3013 RMK AO2 SLP203
                        T02390167=
201605291552 METAR KBDR 291552Z VRB04KT 10SM CLR 27/17 A3013 RMK AO2 SLP203
                        T02670167=
201605291452 METAR KBDR 291452Z 23006KT 10SM CLR 26/14 A3013 RMK AO2 SLP203
                        T02610144 58002=
201605291352 METAR KBDR 291352Z 21007KT 10SM CLR 24/14 A3014 RMK AO2 SLP206
                        T02440139=
201605291252 METAR KBDR 291252Z 22006KT 10SM CLR 22/13 A3014 RMK AO2 SLP207
                        T02220133=
201605291152 METAR KBDR 291152Z 23006KT 10SM CLR 22/13 A3014 RMK AO2 SLP206
                        T02170133 10217 20194 51008=
201605291052 METAR KBDR 291052Z 22005KT 10SM CLR 21/14 A3013 RMK AO2 SLP203
                        T02060139=
201605290952 METAR KBDR 290952Z AUTO 22007KT 10SM CLR 20/13 A3013 RMK
                        AO2 SLP201 T02000133=
201605290852 METAR KBDR 290852Z AUTO 22007KT 10SM CLR 20/13 A3011 RMK
                        AO2 SLP197 T02000133 56004=
201605290752 METAR KBDR 290752Z AUTO 23007KT 10SM CLR 21/14 A3011 RMK
                        AO2 SLP197 T02060144=
201605290652 METAR KBDR 290652Z AUTO 23004KT 10SM CLR 21/16 A3012 RMK
                        AO2 SLP199 T02060156=
201605290552 METAR KBDR 290552Z AUTO 22004KT 10SM CLR 21/16 A3013 RMK
                        AO2 SLP202 T02110161 10244 20206
                        53001=
201605290452 METAR KBDR 290452Z AUTO 23003KT 10SM CLR 21/16 A3012 RMK
                        AO2 SLP201 T02110156 403000183=
201605290352 METAR KBDR 290352Z AUTO 23005KT 10SM CLR 22/14 A3012 RMK
                        AO2 SLP200 T02220144=
201605290252 METAR KBDR 290252Z AUTO 21006KT 10SM CLR 23/14 A3012 RMK
                        AO2 SLP201 T02280139 51010=
201605290152 METAR KBDR 290152Z 20007KT 10SM CLR 23/14 A3012 RMK AO2 SLP199
                        T02280144=
201605290052 METAR KBDR 290052Z 20008KT 10SM CLR 23/15 A3011 RMK AO2 SLP195
                        T02330150=
201605282352 METAR KBDR 282352Z 21006KT 10SM CLR 24/17 A3010 RMK AO2 SLP191
                        T02440172 10294 20244 53005=
201605282252 METAR KBDR 282252Z 23008KT 10SM CLR 26/17 A3009 RMK AO2 SLP190
                        T02560172=
201605282152 METAR KBDR 282152Z 23010KT 10SM CLR 26/18 A3008 RMK AO2 SLP186
                        T02610178=
201605282052 METAR KBDR 282052Z 20013KT 10SM CLR 27/18 A3008 RMK AO2 SLP186
                        T02720183 55004=
201605281952 METAR KBDR 281952Z 19014KT 10SM CLR 28/19 A3007 RMK AO2 SLP183
                        T02830189=
201605281852 METAR KBDR 281852Z 17010KT 10SM CLR 28/19 A3008 RMK AO2 SLP187
                        T02830189=
201605281752 METAR KBDR 281752Z 18011KT 10SM CLR 29/19 A3009 RMK AO2 SLP190
                        T02940189 10300 20217 58007=
201605281652 METAR KBDR 281652Z 23009KT 10SM CLR 28/18 A3010 RMK AO2 SLP193
                        T02830183=
201605281552 METAR KBDR 281552Z 22009KT 10SM CLR 27/18 A3012 RMK AO2 SLP198
                        T02720178=
201605281452 METAR KBDR 281452Z 22009KT 10SM CLR 26/17 A3012 RMK AO2 SLP198
                        T02610167 50002=
201605281352 METAR KBDR 281352Z 22008KT 10SM CLR 23/16 A3012 RMK AO2 SLP199
                        T02330156=
201605281252 METAR KBDR 281252Z 24007KT 10SM CLR 23/15 A3011 RMK AO2 SLP196
                        T02280150=
201605281152 METAR KBDR 281152Z 23006KT 10SM CLR 22/15 A3011 RMK AO2 SLP195
                        T02170150 10217 20183 51009=
201605281052 METAR KBDR 281052Z 23006KT 10SM CLR 20/15 A3011 RMK AO2 SLP195
                        T02000150=
201605280952 METAR KBDR 280952Z AUTO 24003KT 10SM CLR 19/15 A3010 RMK
                        AO2 SLP191 T01940150=
201605280852 METAR KBDR 280852Z AUTO 23005KT 10SM CLR 19/16 A3008 RMK
                        AO2 SLP186 T01890156 53003=
201605280752 METAR KBDR 280752Z AUTO 24004KT 10SM CLR 19/15 A3007 RMK
                        AO2 SLP183 T01890150=
201605280652 METAR KBDR 280652Z AUTO 21003KT 10SM FEW085 18/15 A3007 RMK
                        AO2 SLP183 T01830150=
201605280552 METAR KBDR 280552Z AUTO 23005KT 10SM FEW090 19/15 A3007 RMK
                        AO2 SLP183 T01940150 10222 20189
                        50005=
201605280452 METAR KBDR 280452Z AUTO 23005KT 10SM FEW070 19/15 A3008 RMK
                        AO2 SLP184 T01940150 402560167=
201605280352 METAR KBDR 280352Z AUTO 22006KT 10SM FEW070 21/16 A3007 RMK
                        AO2 SLP181 T02110156=
201605280252 METAR KBDR 280252Z AUTO 20005KT 10SM CLR 21/15 A3006 RMK
                        AO2 SLP178 T02060150 50008=
201605280152 METAR KBDR 280152Z 19003KT 10SM CLR 21/16 A3006 RMK AO2 SLP179
                        T02110156=
201605280052 METAR KBDR 280052Z 16004KT 10SM CLR 21/16 A3005 RMK AO2 SLP174
                        T02110156=
201605272352 METAR KBDR 272352Z 20007KT 10SM CLR 22/16 A3003 RMK AO2 SLP170
                        T02220161 10256 20211 58002=
201605272252 METAR KBDR 272252Z 21006KT 10SM CLR 23/17 A3005 RMK AO2 SLP175
                        T02330167=
201605272152 METAR KBDR 272152Z 19008KT 10SM CLR 25/17 A3004 RMK AO2 SLP173
                        T02500172=
201605272052 METAR KBDR 272052Z 13005KT 10SM CLR 25/18 A3004 RMK AO2 SLP171
                        T02500178 56008=
201605271952 METAR KBDR 271952Z 07007KT 10SM CLR 22/17 A3004 RMK AO2 SLP174
                        T02170167=
201605271852 METAR KBDR 271852Z 08009KT 10SM CLR 21/16 A3005 RMK AO2 SLP175
                        T02110161=
201605271752 METAR KBDR 271752Z 08010KT 10SM CLR 22/16 A3006 RMK AO2 SLP180
                        T02170161 10228 20178 58006=
201605271652 METAR KBDR 271652Z 09009KT 10SM CLR 23/17 A3007 RMK AO2 SLP183
                        T02280167=
201605271552 METAR KBDR 271552Z 08006KT 10SM CLR 23/17 A3008 RMK AO2 SLP185
                        T02280167=
201605271452 METAR KBDR 271452Z 08006KT 10SM SCT110 20/16 A3008 RMK AO2
                        SLP185 T02000156 56001=
201605271352 METAR KBDR 271352Z 07005KT 9SM CLR 19/16 A3008 RMK AO2 SLP186
                        T01940156=
201605271252 METAR KBDR 271252Z 08006KT 8SM FEW100 18/16 A3007 RMK AO2
                        SLP183 T01830156=
201605271152 METAR KBDR 271152Z 07006KT 7SM CLR 18/15 A3008 RMK AO2 SLP187
                        T01780150 10189 20167 53002=
201605271052 METAR KBDR 271052Z 08005KT 7SM SCT070 SCT080 18/15 A3008
                        RMK AO2 SLP185 T01780150=
201605270952 METAR KBDR 270952Z AUTO 06005KT 7SM CLR 17/14 A3008 RMK AO2
                        SLP184 T01720144=
201605270852 METAR KBDR 270852Z AUTO 07003KT 9SM CLR 17/14 A3008 RMK AO2
                        SLP184 T01720144 53004=
201605270752 METAR KBDR 270752Z AUTO 09003KT 10SM CLR 17/14 A3007 RMK
                        AO2 SLP183 T01720139=
201605270652 METAR KBDR 270652Z AUTO 06003KT 10SM CLR 18/14 A3007 RMK
                        AO2 SLP181 T01830139=
201605270552 METAR KBDR 270552Z AUTO 06004KT 10SM CLR 19/14 A3006 RMK
                        AO2 SLP180 T01890139 10233 20189
                        57003=
201605270452 METAR KBDR 270452Z AUTO 00000KT 10SM CLR 19/13 A3006 RMK
                        AO2 SLP179 T01940133 403000167=
201605270352 METAR KBDR 270352Z AUTO 19005KT 10SM CLR 21/13 A3007 RMK
                        AO2 SLP184 T02060128=
201605270252 METAR KBDR 270252Z AUTO 17003KT 10SM CLR 21/12 A3007 RMK
                        AO2 SLP183 T02110117 51010=
201605270152 METAR KBDR 270152Z 18004KT 10SM CLR 21/13 A3006 RMK AO2 SLP180
                        T02110128=
201605270052 METAR KBDR 270052Z 25003KT 10SM CLR 22/13 A3005 RMK AO2 SLP176
                        T02220128=
201605262352 METAR KBDR 262352Z 23005KT 10SM CLR 23/13 A3004 RMK AO2 SLP173
                        T02280128 10278 20228 53001=
201605262252 METAR KBDR 262252Z 22006KT 10SM CLR 25/13 A3004 RMK AO2 SLP172
                        T02500128=
201605262152 METAR KBDR 262152Z VRB04KT 10SM CLR 26/17 A3003 RMK AO2 SLP169
                        T02560167=
201605262052 METAR KBDR 262052Z 10006KT 10SM CLR 26/16 A3004 RMK AO2 SLP172
                        T02610156 56006=
201605261952 METAR KBDR 261952Z 11006KT 10SM CLR 28/14 A3004 RMK AO2 SLP172
                        T02780144=
201605261852 METAR KBDR 261852Z 11006KT 10SM CLR 27/14 A3005 RMK AO2 SLP176
                        T02720144=
201605261752 METAR KBDR 261752Z 10008KT 10SM CLR 27/14 A3006 RMK AO2 SLP178
                        T02670139 10300 20211 58013=
201605261652 METAR KBDR 261652Z VRB03KT 10SM CLR 30/14 A3007 RMK AO2 SLP182
                        T03000144=
201605261552 METAR KBDR 261552Z 19003KT 10SM CLR 28/13 A3009 RMK AO2 SLP187
                        T02780133=
201605261452 METAR KBDR 261452Z 22006KT 10SM CLR 25/13 A3010 RMK AO2 SLP191
                        T02500133 55006=
201605261352 METAR KBDR 261352Z 21006KT 10SM CLR 24/14 A3010 RMK AO2 SLP191
                        T02390144=
201605261252 METAR KBDR 261252Z 00000KT 10SM CLR 24/14 A3011 RMK AO2 SLP195
                        T02440144=
201605261152 METAR KBDR 261152Z 00000KT 9SM CLR 21/14 A3011 RMK AO2 SLP197
                        T02110139 10211 20167 53015=
201605261052 METAR KBDR 261052Z 00000KT 9SM CLR 19/13 A3010 RMK AO2 SLP192
                        T01890133=
201605260952 METAR KBDR 260952Z 00000KT 9SM CLR 17/13 A3008 RMK AO2 SLP186
                        T01720128=
201605260852 METAR KBDR 260852Z 00000KT 10SM CLR 18/12 A3007 RMK AO2 SLP182
                        T01830122 53008=
201605260752 METAR KBDR 260752Z 00000KT 10SM CLR 19/12 A3006 RMK AO2 SLP178
                        T01890117=
201605260652 METAR KBDR 260652Z 18004KT 10SM CLR 17/13 A3005 RMK AO2 SLP175
                        T01720128=
201605260552 METAR KBDR 260552Z 00000KT 9SM CLR 17/13 A3004 RMK AO2 SLP174
                        T01720133 10228 20172 53000=
201605260452 METAR KBDR 260452Z 24004KT 10SM CLR 18/13 A3004 RMK AO2 SLP172
                        T01780128 402940122=
201605260352 METAR KBDR 260352Z 00000KT 10SM CLR 21/12 A3004 RMK AO2 SLP172
                        T02060117=
201605260252 METAR KBDR 260252Z 00000KT 10SM CLR 20/12 A3004 RMK AO2 SLP173
                        T02000117 51010=
201605260152 METAR KBDR 260152Z 23003KT 10SM CLR 21/12 A3004 RMK AO2 SLP172
                        T02110122=
201605260052 METAR KBDR 260052Z 30006KT 10SM CLR 22/12 A3003 RMK AO2 SLP169
                        T02170117=
201605252352 METAR KBDR 252352Z 24006KT 10SM CLR 23/12 A3001 RMK AO2 SLP163
                        T02280122 10294 20222 53002=
201605252252 METAR KBDR 252252Z 24006KT 10SM CLR 25/11 A3000 RMK AO2 SLP158
                        T02500106=
201605252152 METAR KBDR 252152Z 23005KT 10SM CLR 26/10 A3001 RMK AO2 SLP161
                        T02610100=
201605252052 METAR KBDR 252052Z 21011KT 10SM CLR 29/09 A3001 RMK AO2 SLP161
                        T02940089 58005=
201605251952 METAR KBDR 251952Z 22012KT 10SM CLR 27/11 A3001 RMK AO2 SLP161
                        T02720106=
201605251852 METAR KBDR 251852Z 22012KT 10SM CLR 27/11 A3002 RMK AO2 SLP166
                        T02670111=
201605251752 METAR KBDR 251752Z 23011KT 10SM CLR 25/12 A3002 RMK AO2 SLP166
                        T02500122 10256 20167 58008=
201605251652 METAR KBDR 251652Z 22011KT 10SM CLR 24/12 A3004 RMK AO2 SLP170
                        T02390117=
201605251552 METAR KBDR 251552Z 22009KT 10SM CLR 24/12 A3004 RMK AO2 SLP173
                        T02390122=
201605251452 METAR KBDR 251452Z 22010KT 10SM CLR 21/12 A3005 RMK AO2 SLP174
                        T02110122 51002=
201605251352 METAR KBDR 251352Z 23007KT 10SM CLR 21/13 A3004 RMK AO2 SLP173
                        T02060133=
201605251252 METAR KBDR 251252Z 23007KT 10SM CLR 18/13 A3005 RMK AO2 SLP175
                        T01830133=
201605251152 METAR KBDR 251152Z 23006KT 10SM CLR 17/13 A3004 RMK AO2 SLP172
                        70006 T01670133 10167 20122 53009=
201605251052 METAR KBDR 251052Z 26003KT 9SM CLR 15/14 A3003 RMK AO2 SLP169
                        T01500139=
201605251030 SPECI KBDR 251030Z AUTO 00000KT 3SM BR SCT001 14/13 A3002
                        RMK AO2 T01390133=
201605251026 SPECI KBDR 251026Z AUTO 00000KT 1SM BR VV001 14/13 A3002
                        RMK AO2 T01390128=
201605250952 METAR KBDR 250952Z AUTO 00000KT 1/4SM FG VV001 13/12 A3001
                        RMK AO2 SLP163 T01280117=
201605250928 SPECI KBDR 250928Z AUTO 00000KT 1/4SM FG VV002 13/12 A3001
                        RMK AO2 T01280122=
201605250918 SPECI KBDR 250918Z AUTO 00000KT 3/4SM BR VV002 13/12 A3001
                        RMK AO2 T01330122=
201605250852 METAR KBDR 250852Z AUTO 00000KT 1/4SM FG VV001 13/12 A3001
                        RMK AO2 SLP162 T01330122 53004=
201605250839 SPECI KBDR 250839Z AUTO 00000KT 1/4SM FG VV001 13/13 A3001
                        RMK AO2 T01330128=
201605250819 SPECI KBDR 250819Z AUTO 00000KT 3/4SM BR VV002 13/12 A3000
                        RMK AO2 T01330122=
201605250816 SPECI KBDR 250816Z AUTO 00000KT 1 1/2SM BR FEW002 13/13 A3000
                        RMK AO2 T01330128=
201605250813 SPECI KBDR 250813Z AUTO 00000KT 3SM BR FEW002 14/13 A3000
                        RMK AO2 T01390133=
201605250805 SPECI KBDR 250805Z AUTO 00000KT 1 1/4SM BR CLR 14/13 A3000
                        RMK AO2 T01390133=
201605250752 METAR KBDR 250752Z AUTO 00000KT 7SM CLR 14/14 A3000 RMK AO2
                        SLP158 T01440139=
201605250741 SPECI KBDR 250741Z AUTO 25003KT 3SM BR SCT002 14/13 A3000
                        RMK AO2 T01440133=
201605250730 SPECI KBDR 250730Z AUTO 00000KT 3SM BR BKN002 14/14 A3000
                        RMK AO2 T01440139=
201605250725 SPECI KBDR 250725Z AUTO 00000KT 1SM BR VV002 14/13 A3000
                        RMK AO2 T01440133=
201605250652 METAR KBDR 250652Z AUTO 00000KT 1/4SM FG VV002 14/13 A3000
                        RMK AO2 SLP158 T01390128=
201605250644 SPECI KBDR 250644Z AUTO 00000KT 3/4SM BR VV002 14/13 A3000
                        RMK AO2 VIS 1/4V2 1/2 T01440133=
201605250631 SPECI KBDR 250631Z AUTO 00000KT 1 1/2SM BR CLR 14/13 A3000
                        RMK AO2 T01440133=
201605250552 METAR KBDR 250552Z AUTO 00000KT 7SM SCT120 15/14 A3000 RMK
                        AO2 SLP157 60000 T01500139 10172
                        20150 53003=
201605250452 METAR KBDR 250452Z AUTO 00000KT 8SM FEW002 16/14 A2999 RMK
                        AO2 SLP154 T01560144 402060144=
201605250440 SPECI KBDR 250440Z AUTO 00000KT 5SM BR SCT003 16/14 A2999
                        RMK AO2 T01560139=
201605250352 METAR KBDR 250352Z AUTO 00000KT 8SM OVC110 16/15 A2998 RMK
                        AO2 SLP152 T01610150=
201605250252 METAR KBDR 250252Z AUTO 24003KT 10SM SCT110 16/14 A2998 RMK
                        AO2 SLP153 60000 T01560144 51021=
201605250152 METAR KBDR 250152Z 22003KT 10SM FEW100 16/14 A2997 RMK AO2
                        SLP148 T01560144=
201605250052 METAR KBDR 250052Z 13003KT 10SM BKN100 BKN110 16/14 A2994
                        RMK AO2 RAB2353E04 SLP139 P0000 T01610144=
201605242352 METAR KBDR 242352Z 10003KT 10SM FEW070 SCT095 BKN110 17/15
                        A2992 RMK AO2 RAB19E37 SLP133 P0000
                        60006 T01720150 10194 20161 50005=
201605242252 METAR KBDR 242252Z 00000KT 10SM SCT110 17/15 A2994 RMK AO2
                        RAB05E39 SLP138 P0000 T01670150=
201605242152 METAR KBDR 242152Z 00000KT 10SM CLR 18/15 A2992 RMK AO2 RAE02
                        SLP130 P0000 T01830150=
201605242052 METAR KBDR 242052Z 19005KT 8SM -RA SCT018 BKN060 OVC090 17/16
                        A2991 RMK AO2 RAB05 SLP127 P0006
                        60006 T01720156 50002=
201605242050 SPECI KBDR 242050Z 20005KT 7SM -RA FEW011 BKN065 OVC090 17/16
                        A2991 RMK AO2 RAB05 P0006=
201605242028 SPECI KBDR 242028Z 23005KT 8SM -RA SCT012 BKN028 OVC048 17/15
                        A2991 RMK AO2 RAB05 P0001 T01720150=
201605241952 METAR KBDR 241952Z 21005KT 10SM SCT030 SCT037 OVC050 17/14
                        A2990 RMK AO2 RAB37E52 SLP126 P0000
                        T01720144=
201605241852 METAR KBDR 241852Z 21006KT 10SM SCT029 BKN038 BKN055 19/14
                        A2990 RMK AO2 RAB05E24 SLP125 P0000
                        T01890139=
201605241829 SPECI KBDR 241829Z 22008KT 10SM FEW021 BKN031 OVC037 18/15
                        A2990 RMK AO2 RAB05E24 P0000 T01830150=
201605241820 SPECI KBDR 241820Z 22005KT 9SM -RA FEW021 BKN028 OVC036 18/14
                        A2990 RMK AO2 RAB05 P0000 T01780144=
201605241752 METAR KBDR 241752Z 18007KT 10SM BKN041 BKN050 OVC060 19/14
                        A2989 RMK AO2 SLP120 60000 T01940144
                        10206 20150 56003=
201605241652 METAR KBDR 241652Z 01005KT 10SM FEW024 BKN031 OVC090 20/14
                        A2989 RMK AO2 SLP122 T02000139=
201605241612 SPECI KBDR 241612Z 35008KT 10SM FEW020 FEW026 OVC035 20/14
                        A2989 RMK AO2 T02000139=
201605241552 METAR KBDR 241552Z 36006KT 10SM BKN021 BKN028 OVC036 19/13
                        A2989 RMK AO2 RAB39E48 SLP121 P0000
                        T01890133=
201605241452 METAR KBDR 241452Z 36009KT 10SM OVC021 18/13 A2990 RMK AO2
                        SLP123 60000 T01780133 51007=
201605241352 METAR KBDR 241352Z 35004KT 10SM OVC022 17/14 A2989 RMK AO2
                        RAE00 SLP122 P0000 T01720139=
201605241330 SPECI KBDR 241330Z 35005KT 10SM FEW017 BKN023 OVC039 17/13
                        A2989 RMK AO2 RAE00 P0000 T01670133=
201605241252 METAR KBDR 241252Z 33006KT 10SM -RA SCT021 SCT041 BKN065
                        16/13 A2989 RMK AO2 SLP122 P0000
                        T01610133=
201605241152 METAR KBDR 241152Z 34007KT 9SM -RA OVC055 15/13 A2988 RMK
                        AO2 SLP116 P0008 60024 70032 T01500133
                        10150 20144 51008=
201605241052 METAR KBDR 241052Z 02011KT 3SM +RA BR FEW044 BKN070 OVC090
                        14/13 A2988 RMK AO2 RAB02 SLP116
                        P0006 T01440128=
201605241000 METAR KBDR NIL=
201605240952 METAR KBDR 240952Z AUTO 06004KT 10SM SCT045 BKN060 OVC080
                        14/12 A2986 RMK AO2 RAE52 SLP113
                        P0009 T01440122=
201605240852 METAR KBDR 240852Z AUTO 19003KT 7SM -RA FEW050 OVC090 15/12
                        A2985 RMK AO2 RAB01 SLP108 P0001
                        60001 T01500122 55004=
201605240752 METAR KBDR 240752Z AUTO 33004KT 10SM BKN055 BKN100 15/12
                        A2984 RMK AO2 SLP105 T01500117=
201605240652 METAR KBDR 240652Z AUTO 34003KT 10SM OVC055 15/11 A2986 RMK
                        AO2 RAE0555 SLP110 P0000 T01500111=
201605240552 METAR KBDR 240552Z AUTO 31011KT 10SM -RA OVC070 15/11 A2986
                        RMK AO2 SLP112 P0005 60008 T01500111
                        10194 20150 58017=
201605240452 METAR KBDR 240452Z AUTO 28006KT 5SM -RA OVC075 16/12 A2991
                        RMK AO2 SLP127 P0003 T01560117 402330117=
201605240352 METAR KBDR 240352Z AUTO 23005KT 10SM -RA OVC090 17/11 A2992
                        RMK AO2 RAB41 SLP132 P0000 T01670111=
201605240252 METAR KBDR 240252Z AUTO 20003KT 10SM OVC100 18/09 A2991 RMK
                        AO2 SLP129 T01780089 51011=
201605240152 METAR KBDR 240152Z 21004KT 10SM SCT110 18/11 A2991 RMK AO2
                        SLP128 T01780106=
201605240052 METAR KBDR 240052Z 22005KT 10SM OVC110 18/10 A2989 RMK AO2
                        SLP121 T01830100=
201605232352 METAR KBDR 232352Z 21006KT 10SM BKN110 19/10 A2988 RMK AO2
                        SLP118 T01890100 10233 20189 53009=
201605232252 METAR KBDR 232252Z 21008KT 10SM CLR 21/09 A2987 RMK AO2 SLP113
                        T02060094=
201605232152 METAR KBDR 232152Z 20004KT 10SM FEW090 21/10 A2985 RMK AO2
                        SLP109 T02060100=
201605232052 METAR KBDR 232052Z 11005KT 10SM CLR 22/09 A2985 RMK AO2 SLP109
                        T02220094 56014=
201605231952 METAR KBDR 231952Z VRB04KT 10SM SCT100 SCT110 23/08 A2986
                        RMK AO2 SLP110 T02280083=
201605231852 METAR KBDR 231852Z 21003KT 10SM FEW100 22/10 A2988 RMK AO2
                        SLP117 T02170100=
201605231752 METAR KBDR 231752Z 17006KT 10SM CLR 21/10 A2990 RMK AO2 SLP123
                        T02110100 10211 20144 58008=
201605231652 METAR KBDR 231652Z 17009KT 10SM CLR 19/11 A2991 RMK AO2 SLP128
                        T01940111=
201605231552 METAR KBDR 231552Z 14008KT 10SM CLR 19/12 A2992 RMK AO2 SLP131
                        T01940117=
201605231452 METAR KBDR 231452Z 11008KT 10SM CLR 17/12 A2992 RMK AO2 SLP131
                        T01720122 58006=
201605231352 METAR KBDR 231352Z 11010KT 10SM CLR 16/12 A2993 RMK AO2 SLP135
                        T01610122=
201605231252 METAR KBDR 231252Z 02004KT 10SM CLR 17/12 A2994 RMK AO2 SLP137
                        T01670117=
201605231152 METAR KBDR 231152Z 09004KT 10SM CLR 15/12 A2994 RMK AO2 SLP137
                        T01500117 10156 20117 53010=
201605231052 METAR KBDR 231052Z 00000KT 10SM CLR 14/11 A2991 RMK AO2 SLP130
                        T01390111=
201605230952 METAR KBDR 230952Z AUTO 35003KT 10SM CLR 12/10 A2991 RMK
                        AO2 SLP127 T01170100=
201605230852 METAR KBDR 230852Z AUTO 01004KT 10SM CLR 12/10 A2990 RMK
                        AO2 SLP126 T01220100 53002=
201605230752 METAR KBDR 230752Z AUTO 06003KT 10SM CLR 12/10 A2990 RMK
                        AO2 SLP123 T01170100=
201605230652 METAR KBDR 230652Z AUTO 00000KT 10SM CLR 12/10 A2988 RMK
                        AO2 SLP119 T01220100=
201605230552 METAR KBDR 230552Z AUTO 00000KT 10SM CLR 13/11 A2990 RMK
                        AO2 SLP125 T01280111 10189 20128
                        50001=
201605230452 METAR KBDR 230452Z AUTO 00000KT 10SM FEW075 14/11 A2991 RMK
                        AO2 SLP127 T01390111 402060122=
201605230352 METAR KBDR 230352Z AUTO 34003KT 10SM FEW080 14/11 A2991 RMK
                        AO2 SLP127 T01390111=
201605230252 METAR KBDR 230252Z AUTO 18008KT 10SM CLR 14/12 A2990 RMK
                        AO2 SLP124 T01440117 51019=
201605230152 METAR KBDR 230152Z 21007KT 10SM CLR 16/12 A2989 RMK AO2 SLP120
                        T01610122=
201605230052 METAR KBDR 230052Z 16004KT 10SM FEW110 17/10 A2987 RMK AO2
                        SLP114 T01670100=
201605222352 METAR KBDR 222352Z 00000KT 10SM CLR 19/09 A2984 RMK AO2 SLP105
                        T01890094 10206 20172 53009=
201605222252 METAR KBDR 222252Z 00000KT 10SM BKN110 20/09 A2982 RMK AO2
                        SLP098 T02000094=
201605222152 METAR KBDR 222152Z VRB03KT 10SM BKN090 21/09 A2981 RMK AO2
                        SLP094 T02060089=
201605222052 METAR KBDR 222052Z 23006KT 10SM BKN080 OVC110 18/10 A2981
                        RMK AO2 SLP095 T01830100 53001=
201605221952 METAR KBDR 221952Z 21006KT 10SM SCT075 OVC110 18/10 A2981
                        RMK AO2 SLP093 T01830100=
201605221852 METAR KBDR 221852Z 23007KT 10SM SCT065 OVC110 18/11 A2981
                        RMK AO2 SLP093 T01830106=
201605221752 METAR KBDR 221752Z 17007KT 10SM FEW060 SCT090 SCT100 19/09
                        A2981 RMK AO2 SLP094 60000 T01940094
                        10206 20128 56010=
201605221652 METAR KBDR 221652Z VRB03KT 10SM BKN085 20/10 A2981 RMK AO2
                        SLP094 T02000100=
201605221552 METAR KBDR 221552Z 02007KT 10SM OVC080 19/09 A2982 RMK AO2
                        SLP099 T01890089=
201605221452 METAR KBDR 221452Z 00000KT 10SM OVC075 16/11 A2984 RMK AO2
                        RAB16E44 SLP104 P0000 60000 T01560106
                        53007=
201605221352 METAR KBDR 221352Z 00000KT 10SM OVC050 14/11 A2983 RMK AO2
                        SLP102 T01390106=
201605221252 METAR KBDR 221252Z 07004KT 10SM OVC055 13/09 A2982 RMK AO2
                        RAE51 SLP096 P0000 T01330094=
201605221152 METAR KBDR 221152Z 01004KT 10SM -RA OVC060 13/09 A2982 RMK
                        AO2 SLP097 P0002 60002 70002 T01280089
                        10133 20122 51003=
201605221052 METAR KBDR 221052Z 01006KT 10SM -RA OVC070 13/09 A2981 RMK
                        AO2 RAE11B42 SLP095 P0000 T01280089=
201605220952 METAR KBDR 220952Z AUTO 36009KT 10SM -RA BKN050 OVC055 12/09
                        A2982 RMK AO2 RAB07 SLP096 P0000
                        T01220089=
201605220852 METAR KBDR 220852Z AUTO 01008KT 10SM OVC055 13/08 A2981 RMK
                        AO2 RAB23E42 SLP093 P0000 60000 T01330083
                        56002=
201605220808 SPECI KBDR 220808Z AUTO 36011KT 10SM SCT027 BKN034 OVC060
                        13/08 A2980 RMK AO2 T01330078=
201605220752 METAR KBDR 220752Z AUTO 35005KT 10SM BKN027 BKN032 OVC060
                        13/08 A2981 RMK AO2 SLP093 T01330083=
201605220652 METAR KBDR 220652Z AUTO 03006KT 10SM FEW049 SCT065 OVC090
                        13/08 A2981 RMK AO2 SLP095 T01330083=
201605220552 METAR KBDR 220552Z AUTO 04005KT 10SM FEW043 BKN075 OVC090
                        13/09 A2984 RMK AO2 RAE06 SLP103
                        P0000 60000 T01330089 10156 20133
                        58027=
201605220452 METAR KBDR 220452Z AUTO 01006KT 10SM -RA OVC055 14/09 A2986
                        RMK AO2 RAB02 SLP112 P0000 T01390089
                        401720106=
201605220352 METAR KBDR 220352Z AUTO 02005KT 10SM OVC060 14/09 A2990 RMK
                        AO2 SLP123 T01440094=
201605220252 METAR KBDR 220252Z AUTO 07005KT 10SM OVC065 14/11 A2992 RMK
                        AO2 RAB15E51 SLP130 P0000 60000 T01390111
                        56018=
201605220152 METAR KBDR 220152Z 03006KT 10SM BKN070 OVC090 14/10 A2993
                        RMK AO2 SLP136 T01440100=
201605220052 METAR KBDR 220052Z 07006KT 10SM OVC085 14/10 A2995 RMK AO2
                        SLP141 T01440100=
201605212352 METAR KBDR 212352Z 04005KT 10SM SCT085 SCT100 16/08 A2997
                        RMK AO2 SLP148 T01560083 10172 20150
                        58018=
201605212252 METAR KBDR 212252Z 06007KT 10SM OVC095 16/08 A2999 RMK AO2
                        SLP155 T01560083=
201605212152 METAR KBDR 212152Z 09005KT 10SM OVC095 16/09 A3001 RMK AO2
                        SLP161 T01560089=
201605212052 METAR KBDR 212052Z 07006KT 10SM OVC095 16/08 A3002 RMK AO2
                        SLP166 T01560083 56021=
201605211952 METAR KBDR 211952Z 11007KT 10SM SCT110 17/08 A3002 RMK AO2
                        SLP167 T01670078=
201605211852 METAR KBDR 211852Z 14007KT 10SM CLR 17/08 A3005 RMK AO2 SLP177
                        T01670083=
201605211752 METAR KBDR 211752Z 13006KT 10SM CLR 16/11 A3008 RMK AO2 SLP186
                        T01610106 10161 20133 58018=
201605211652 METAR KBDR 211652Z 09006KT 10SM FEW110 16/09 A3010 RMK AO2
                        SLP191 T01560094=
201605211552 METAR KBDR 211552Z 08004KT 10SM BKN110 14/11 A3012 RMK AO2
                        SLP200 T01440106=
201605211452 METAR KBDR 211452Z 09004KT 10SM CLR 14/10 A3014 RMK AO2 SLP204
                        T01440100 58007=
201605211352 METAR KBDR 211352Z 10006KT 10SM CLR 14/11 A3014 RMK AO2 SLP207
                        T01390106=
201605211252 METAR KBDR 211252Z 11005KT 10SM CLR 15/11 A3016 RMK AO2 SLP212
                        T01500106=
201605211152 METAR KBDR 211152Z 08005KT 10SM CLR 13/09 A3016 RMK AO2 SLP212
                        T01330094 10139 20106 58005=
201605211052 METAR KBDR 211052Z 03003KT 10SM CLR 13/09 A3017 RMK AO2 SLP216
                        T01280089=
201605210952 METAR KBDR 210952Z AUTO 35003KT 10SM CLR 11/08 A3017 RMK
                        AO2 SLP215 T01110083=
201605210852 METAR KBDR 210852Z AUTO 00000KT 10SM CLR 12/09 A3017 RMK
                        AO2 SLP217 T01170094 55007=
201605210752 METAR KBDR 210752Z AUTO 00000KT 10SM CLR 12/09 A3017 RMK
                        AO2 SLP216 T01220089=
201605210652 METAR KBDR 210652Z AUTO 00000KT 10SM CLR 13/09 A3018 RMK
                        AO2 SLP220 T01280089=
201605210552 METAR KBDR 210552Z AUTO 20003KT 10SM CLR 14/09 A3019 RMK
                        AO2 SLP224 T01390094 10189 20128
                        56008=
201605210452 METAR KBDR 210452Z AUTO 00000KT 10SM CLR 14/09 A3020 RMK
                        AO2 SLP226 T01440094 402330089=
201605210352 METAR KBDR 210352Z AUTO 00000KT 10SM CLR 15/10 A3021 RMK
                        AO2 SLP229 T01500100=
201605210252 METAR KBDR 210252Z AUTO 22005KT 10SM CLR 16/09 A3022 RMK
                        AO2 SLP233 T01560094 53011=
201605210152 METAR KBDR 210152Z 21006KT 10SM CLR 16/10 A3022 RMK AO2 SLP231
                        T01560100=
201605210052 METAR KBDR 210052Z 19007KT 10SM CLR 17/09 A3019 RMK AO2 SLP222
                        T01670089=
201605202352 METAR KBDR 202352Z 19009KT 10SM CLR 19/07 A3019 RMK AO2 SLP221
                        T01890067 10233 20183 55001=
201605202252 METAR KBDR 202252Z 18011KT 10SM CLR 20/08 A3018 RMK AO2 SLP219
                        T02000078=
201605202152 METAR KBDR 202152Z 15006KT 10SM CLR 22/06 A3018 RMK AO2 SLP219
                        T02170061=
201605202052 METAR KBDR 202052Z 19009KT 10SM CLR 23/05 A3019 RMK AO2 SLP222
                        T02280050 57008=
201605201952 METAR KBDR 201952Z 20009KT 10SM CLR 22/06 A3020 RMK AO2 SLP225
                        T02220061=
201605201852 METAR KBDR 201852Z 17008KT 10SM CLR 21/07 A3020 RMK AO2 SLP228
                        T02110072=
201605201752 METAR KBDR 201752Z 18009KT 10SM CLR 21/07 A3021 RMK AO2 SLP231
                        T02060067 10222 20150 56013=
201605201652 METAR KBDR 201652Z 19008KT 10SM CLR 20/07 A3021 RMK AO2 SLP231
                        T02000072=
201605201552 METAR KBDR 201552Z VRB05KT 10SM CLR 22/05 A3024 RMK AO2 SLP238
                        T02170050=
201605201452 METAR KBDR 201452Z 02010KT 10SM CLR 21/06 A3025 RMK AO2 SLP243
                        T02060061 50011=
201605201352 METAR KBDR 201352Z 33009KT 10SM CLR 19/07 A3025 RMK AO2 SLP244
                        T01890067=
201605201252 METAR KBDR 201252Z 35009KT 10SM CLR 17/06 A3024 RMK AO2 SLP239
                        T01720061=
201605201152 METAR KBDR 201152Z 35008KT 10SM CLR 15/07 A3022 RMK AO2 SLP232
                        T01500067 10150 20089 51014=
201605201052 METAR KBDR 201052Z 00000KT 10SM CLR 11/07 A3021 RMK AO2 SLP230
                        T01110072=
201605200952 METAR KBDR 200952Z AUTO 27003KT 10SM CLR 09/07 A3020 RMK
                        AO2 SLP226 T00940067=
201605200852 METAR KBDR 200852Z AUTO 00000KT 10SM CLR 09/07 A3018 RMK
                        AO2 SLP218 T00940067 53007=
201605200752 METAR KBDR 200752Z AUTO 35003KT 10SM CLR 10/07 A3015 RMK
                        AO2 SLP210 T01000072=
201605200652 METAR KBDR 200652Z AUTO 36004KT 10SM CLR 11/08 A3015 RMK
                        AO2 SLP209 T01060078=
201605200552 METAR KBDR 200552Z AUTO 03006KT 10SM CLR 11/08 A3015 RMK
                        AO2 SLP211 T01110078 10161 20111
                        53004=
201605200452 METAR KBDR 200452Z AUTO 00000KT 10SM CLR 12/08 A3015 RMK
                        AO2 SLP209 T01220078 401940122=
201605200400 METAR KBDR NIL=
201605200352 METAR KBDR 200352Z AUTO 00000KT 10SM CLR 12/08 A3014 RMK
                        AO2 SLP206 T01220078=
201605200252 METAR KBDR 200252Z AUTO 00000KT 10SM BKN100 13/08 A3014 RMK
                        AO2 SLP206 T01330083 51016=
201605200152 METAR KBDR 200152Z 19005KT 10SM OVC100 14/08 A3014 RMK AO2
                        SLP204 T01390078=
201605200052 METAR KBDR 200052Z 19009KT 10SM FEW100 14/08 A3011 RMK AO2
                        SLP195 T01390078=
201605192352 METAR KBDR 192352Z 21012KT 10SM OVC110 16/07 A3009 RMK AO2
                        SLP190 T01610067 10194 20161 53012=
201605192252 METAR KBDR 192252Z 17008KT 10SM SCT110 17/08 A3008 RMK AO2
                        SLP185 T01720083=
201605192152 METAR KBDR 192152Z 19010KT 10SM CLR 19/07 A3006 RMK AO2 SLP177
                        T01890072=
201605192052 METAR KBDR 192052Z 16006KT 10SM BKN120 17/08 A3006 RMK AO2
                        SLP178 T01720083 56011=
201605191952 METAR KBDR 191952Z 17008KT 10SM CLR 18/08 A3006 RMK AO2 SLP180
                        T01830078=
201605191852 METAR KBDR 191852Z 16006KT 10SM BKN110 18/06 A3008 RMK AO2
                        SLP185 T01830061=
201605191752 METAR KBDR 191752Z 17006KT 10SM BKN090 OVC110 17/05 A3009
                        RMK AO2 SLP189 T01720050 10178 20133
                        58005=
201605191652 METAR KBDR 191652Z 17008KT 10SM BKN080 OVC100 16/06 A3010
                        RMK AO2 SLP192 T01610061=
201605191552 METAR KBDR 191552Z 16005KT 10SM BKN090 BKN110 16/07 A3010
                        RMK AO2 SLP193 T01560067=
201605191452 METAR KBDR 191452Z 15007KT 10SM OVC085 14/07 A3011 RMK AO2
                        SLP194 T01440067 50001=
201605191352 METAR KBDR 191352Z 16005KT 10SM OVC085 14/08 A3011 RMK AO2
                        SLP196 T01390078=
201605191252 METAR KBDR 191252Z 00000KT 10SM OVC080 14/08 A3011 RMK AO2
                        SLP196 T01390078=
201605191152 METAR KBDR 191152Z 00000KT 10SM OVC080 14/06 A3010 RMK AO2
                        SLP194 60000 T01390061 10139 20128
                        52005=
201605191052 METAR KBDR 191052Z 00000KT 10SM OVC080 13/07 A3010 RMK AO2
                        SLP192 T01330067=
201605190952 METAR KBDR 190952Z 00000KT 10SM OVC080 13/07 A3009 RMK AO2
                        SLP190 T01280067=
201605190852 METAR KBDR 190852Z 00000KT 10SM OVC080 13/06 A3009 RMK AO2
                        SLP188 60000 T01280061 56007=
201605190752 METAR KBDR 190752Z 00000KT 10SM OVC075 13/05 A3009 RMK AO2
                        SLP189 T01330050=
201605190652 METAR KBDR 190652Z 00000KT 10SM OVC085 13/06 A3009 RMK AO2
                        RAB38E49 SLP190 P0000 T01280061=
201605190552 METAR KBDR 190552Z 25003KT 10SM OVC085 13/07 A3011 RMK AO2
                        SLP195 T01330067 10150 20128 55002=
201605190452 METAR KBDR 190452Z 00000KT 10SM OVC090 13/04 A3011 RMK AO2
                        SLP195 T01330044 401890089=
201605190352 METAR KBDR 190352Z 00000KT 10SM OVC090 13/06 A3011 RMK AO2
                        SLP196 T01330056=
201605190252 METAR KBDR 190252Z 15004KT 10SM OVC085 13/06 A3012 RMK AO2
                        SLP198 T01330056 50006=
201605190152 METAR KBDR 190152Z 20004KT 10SM OVC085 14/06 A3012 RMK AO2
                        SLP198 T01390056=
201605190052 METAR KBDR 190052Z 18004KT 10SM OVC085 14/07 A3011 RMK AO2
                        SLP195 T01440067=
201605182352 METAR KBDR 182352Z 19006KT 10SM OVC090 14/07 A3010 RMK AO2
                        SLP192 T01440067 10189 20144 53005=
201605182252 METAR KBDR 182252Z 16007KT 10SM OVC100 16/08 A3008 RMK AO2
                        SLP186 T01610078=
201605182152 METAR KBDR 182152Z 13005KT 10SM SCT110 18/03 A3008 RMK AO2
                        SLP187 T01780028=
201605182052 METAR KBDR 182052Z 17006KT 10SM FEW100 19/02 A3008 RMK AO2
                        SLP187 T01890022 56013=
201605181952 METAR KBDR 181952Z 16008KT 10SM OVC100 19/02 A3010 RMK AO2
                        SLP191 T01890017=
201605181852 METAR KBDR 181852Z 17010KT 10SM CLR 18/03 A3011 RMK AO2 SLP195
                        T01830033=
201605181752 METAR KBDR 181752Z 16009KT 10SM BKN100 17/06 A3012 RMK AO2
                        SLP200 T01720056 10178 20139 58012=
201605181652 METAR KBDR 181652Z 16010KT 10SM CLR 17/06 A3014 RMK AO2 SLP206
                        T01670056=
201605181552 METAR KBDR 181552Z 16009KT 10SM FEW100 17/05 A3015 RMK AO2
                        SLP208 T01720050 $=
201605181452 METAR KBDR 181452Z 10006KT 10SM FEW110 16/04 A3016 RMK AO2
                        SLP212 T01610039 52002 $=
201605181352 METAR KBDR 181352Z 04008KT 10SM CLR 17/04 A3016 RMK AO2 SLP211
                        T01670039 $=
201605181252 METAR KBDR 181252Z 04006KT 10SM FEW120 16/05 A3015 RMK AO2
                        SLP209 T01560050 $=
201605181152 METAR KBDR 181152Z 01010KT 10SM FEW120 14/04 A3015 RMK AO2
                        SLP209 T01390039 10139 20089 51016
                        $=
201605181052 METAR KBDR 181052Z 01009KT 10SM CLR 13/03 A3014 RMK AO2 SLP206
                        T01280033 $=
201605180952 METAR KBDR 180952Z AUTO 36008KT 10SM CLR 12/03 A3012 RMK
                        AO2 SLP199 T01220033 $=
201605180852 METAR KBDR 180852Z AUTO 03003KT 10SM CLR 12/04 A3010 RMK
                        AO2 SLP193 T01170039 55001 $=
201605180752 METAR KBDR 180752Z AUTO 30004KT 10SM CLR 10/07 A3009 RMK
                        AO2 SLP190 T01000067 $=
201605180652 METAR KBDR 180652Z AUTO 00000KT 10SM CLR 11/08 A3010 RMK
                        AO2 SLP192 T01060078 $=
201605180552 METAR KBDR 180552Z AUTO 32003KT 10SM CLR 11/08 A3010 RMK
                        AO2 SLP194 T01110083 10156 20111
                        58003 $=
201605180452 METAR KBDR 180452Z AUTO 00000KT 10SM CLR 12/09 A3011 RMK
                        AO2 SLP197 T01170089 402000111 $=
201605180352 METAR KBDR 180352Z AUTO 23004KT 10SM CLR 12/09 A3011 RMK
                        AO2 SLP197 T01220094 $=
201605180252 METAR KBDR 180252Z AUTO 23008KT 10SM CLR 13/09 A3011 RMK
                        AO2 SLP197 T01280094 50002 $=
201605180152 METAR KBDR 180152Z 23007KT 10SM CLR 13/09 A3012 RMK AO2 SLP200
                        T01280094 $=
201605180052 METAR KBDR 180052Z 23009KT 10SM BKN120 13/09 A3011 RMK AO2
                        SLP195 T01330089 $=
201605172352 METAR KBDR 172352Z 23009KT 10SM BKN120 14/09 A3011 RMK AO2
                        SLP195 T01390094 10183 20139 58001=
201605172252 METAR KBDR 172252Z 22011KT 10SM OVC110 15/10 A3011 RMK AO2
                        SLP195 T01500100=
201605172152 METAR KBDR 172152Z 22012KT 10SM OVC120 16/09 A3011 RMK AO2
                        SLP197 T01560089=
201605172052 METAR KBDR 172052Z 22013KT 10SM CLR 17/07 A3011 RMK AO2 SLP196
                        T01670072 58007=
201605171952 METAR KBDR 171952Z 23011KT 10SM SCT120 18/07 A3012 RMK AO2
                        SLP199 T01780072 $=
201605171852 METAR KBDR 171852Z 22012KT 10SM OVC120 18/07 A3013 RMK AO2
                        SLP204 T01780072 $=
201605171752 METAR KBDR 171752Z 22012KT 10SM CLR 18/06 A3013 RMK AO2 SLP202
                        T01830061 10200 20133 58020 $=
201605171652 METAR KBDR 171652Z 22013KT 10SM CLR 19/05 A3015 RMK AO2 SLP208
                        T01940050 $=
201605171552 METAR KBDR 171552Z 22013KT 10SM CLR 18/06 A3017 RMK AO2 SLP217
                        T01780056 $=
201605171452 METAR KBDR 171452Z 23009KT 10SM CLR 16/06 A3019 RMK AO2 SLP222
                        T01610056 50006 $=
201605171352 METAR KBDR 171352Z 25007KT 10SM BKN120 15/06 A3019 RMK AO2
                        SLP224 T01500056 $=
201605171252 METAR KBDR 171252Z 25006KT 10SM CLR 14/04 A3018 RMK AO2 SLP220
                        T01440044 $=
201605171152 METAR KBDR 171152Z 26007KT 10SM CLR 13/04 A3017 RMK AO2 SLP216
                        T01330039 10133 20111 53010 $=
201605171052 METAR KBDR 171052Z 25007KT 10SM CLR 12/04 A3016 RMK AO2 SLP213
                        T01220044 $=
201605171000 METAR KBDR NIL=
201605170952 METAR KBDR 170952Z AUTO 24005KT 10SM CLR 12/05 A3014 RMK
                        AO2 SLP207 T01170050 $=
201605170852 METAR KBDR 170852Z AUTO 25005KT 10SM CLR 12/04 A3014 RMK
                        AO2 SLP205 T01170039 53006 $=
201605170752 METAR KBDR 170752Z AUTO 28007KT 10SM CLR 12/03 A3012 RMK
                        AO2 SLP200 T01220028 $=
201605170652 METAR KBDR 170652Z AUTO 27005KT 10SM CLR 11/03 A3012 RMK
                        AO2 SLP199 T01110028 $=
201605170552 METAR KBDR 170552Z AUTO 29004KT 10SM CLR 12/02 A3012 RMK
                        AO2 SLP199 T01170022 10178 20100
                        53004 $=
201605170452 METAR KBDR 170452Z AUTO 25004KT 10SM CLR 12/04 A3012 RMK
                        AO2 SLP198 T01220039 401940061 $=
201605170352 METAR KBDR 170352Z AUTO 00000KT 10SM CLR 11/05 A3011 RMK
                        AO2 SLP195 T01110050 $=
201605170252 METAR KBDR 170252Z AUTO 00000KT 10SM CLR 13/05 A3011 RMK
                        AO2 SLP195 T01280050 51022 $=
201605170152 METAR KBDR 170152Z AUTO 24005KT 10SM CLR 14/02 A3010 RMK
                        AO2 SLP191 T01440022 $=
201605170052 METAR KBDR 170052Z 26004KT 10SM CLR 16/00 A3007 RMK AO2 SLP183
                        T01560000 $=
201605162352 METAR KBDR 162352Z 29009G18KT 10SM CLR 17/M01 A3004 RMK AO2
                        PK WND 30028/2259 SLP173 T01721011
                        10194 20161 53028 $=
201605162252 METAR KBDR 162252Z 31021G29KT 10SM CLR 19/M02 A3001 RMK AO2
                        PK WND 30040/2215 SLP161 T01891022
                        $=
201605162152 METAR KBDR 162152Z 29022G33KT 10SM CLR 19/M03 A2997 RMK AO2
                        PK WND 32038/2120 SLP150 T01941033
                        $=
201605162052 METAR KBDR 162052Z 29015G33KT 10SM CLR 19/M04 A2996 RMK AO2
                        PK WND 30038/2003 SLP145 T01941039
                        55005 $=
201605161952 METAR KBDR 161952Z 30017G28KT 10SM CLR 19/M06 A2995 RMK AO2
                        PK WND 27035/1928 SLP140 T01891061
                        $=
201605161852 METAR KBDR 161852Z 29019G33KT 10SM CLR 17/M06 A2996 RMK AO2
                        PK WND 28033/1846 SLP145 T01721061
                        $=
201605161752 METAR KBDR 161752Z 28018G34KT 10SM FEW075 16/M04 A2998 RMK
                        AO2 PK WND 30034/1743 SLP150 T01611039
                        10161 20078 58011 $=
201605161652 METAR KBDR 161652Z 27019G24KT 10SM BKN070 14/M03 A2999 RMK
                        AO2 PK WND 29029/1618 SLP157 T01391033
                        $=
201605161552 METAR KBDR 161552Z 29020G27KT 10SM BKN070 13/M04 A3001 RMK
                        AO2 PK WND 30029/1541 SLP161 T01281039
                        $=
201605161452 METAR KBDR 161452Z 29019G27KT 10SM BKN060 11/M04 A3001 RMK
                        AO2 PK WND 30030/1410 SLP162 T01111044
                        50000 $=
201605161352 METAR KBDR 161352Z 29018G29KT 10SM BKN060 09/M04 A3002 RMK
                        AO2 PK WND 29029/1350 SLP164 T00941044
                        $=
201605161252 METAR KBDR 161252Z 29011G21KT 10SM OVC060 08/M04 A3003 RMK
                        AO2 PK WND 29027/1218 SLP168 T00831039
                        $=
201605161152 METAR KBDR 161152Z 26015G28KT 10SM BKN060 08/M03 A3001 RMK
                        AO2 PK WND 27028/1144 SLP161 T00831028
                        10083 20061 51014 $=
201605161052 METAR KBDR 161052Z 25013G21KT 10SM CLR 07/M02 A3000 RMK AO2
                        SLP159 T00671022 $=
201605160952 METAR KBDR 160952Z AUTO 24012G19KT 10SM CLR 06/M03 A2998
                        RMK AO2 SLP153 T00611028 $=
201605160852 METAR KBDR 160852Z AUTO 26011G17KT 10SM CLR 06/M03 A2997
                        RMK AO2 SLP147 T00611028 52009 $=
201605160752 METAR KBDR 160752Z AUTO 25007KT 10SM CLR 06/M03 A2996 RMK
                        AO2 SLP144 T00611028 $=
201605160652 METAR KBDR 160652Z AUTO 27009G17KT 10SM CLR 07/M02 A2995
                        RMK AO2 SLP142 T00671017 $=
201605160552 METAR KBDR 160552Z AUTO 28009G19KT 10SM BKN065 08/M02 A2994
                        RMK AO2 SLP138 60000 T00781022 10128
                        20072 50010 $=
201605160452 METAR KBDR 160452Z AUTO 28008KT 10SM CLR 08/M02 A2994 RMK
                        AO2 SLP139 T00781017 401560078 $=
201605160352 METAR KBDR 160352Z AUTO 29012G17KT 10SM CLR 08/M03 A2993
                        RMK AO2 SLP134 T00831028 $=
201605160252 METAR KBDR 160252Z AUTO 29011G19KT 10SM FEW070 SCT100 09/M01
                        A2991 RMK AO2 SLP128 60000 T00941011
                        51033 $=
201605160152 METAR KBDR 160152Z 28009KT 10SM FEW090 11/M03 A2989 RMK AO2
                        RAB14E28 SLP120 P0000 T01061028 $=
201605160052 METAR KBDR 160052Z 29010KT 10SM FEW046 BKN070 BKN085 12/M03
                        A2984 RMK AO2 RAB13E41 SLP105 P0000
                        T01171033 $=
201605152352 METAR KBDR 152352Z 28010G19KT 10SM OVC090 13/M04 A2981 RMK
                        AO2 SLP096 T01281039 10150 20128
                        53025 $=
201605152252 METAR KBDR 152252Z 28013G19KT 10SM FEW080 BKN100 13/M04 A2978
                        RMK AO2 PK WND 32026/2202 SLP084
                        T01331044 $=
201605152152 METAR KBDR 152152Z 30016G25KT 10SM FEW110 14/M04 A2977 RMK
                        AO2 PK WND 31027/2121 SLP080 T01391044
                        $=
201605152052 METAR KBDR 152052Z 27015G26KT 10SM OVC095 14/M05 A2974 RMK
                        AO2 PK WND 26033/1956 SLP070 T01391050
                        51001 $=
201605151952 METAR KBDR 151952Z 27014G27KT 10SM FEW070 OVC100 14/M03 A2974
                        RMK AO2 PK WND 29031/1935 SLP069
                        T01441033 $=
201605151852 METAR KBDR 151852Z 27018G28KT 10SM BKN070 OVC090 13/M02 A2974
                        RMK AO2 PK WND 26028/1843 SLP072
                        T01281017 $=
201605151752 METAR KBDR 151752Z 29014G21KT 10SM OVC070 13/01 A2974 RMK
                        AO2 SLP069 T01330006 10156 20111
                        56000 $=
201605151652 METAR KBDR 151652Z 28012G24KT 10SM BKN060 OVC075 13/00 A2974
                        RMK AO2 SLP069 T01280000 $=
201605151552 METAR KBDR 151552Z 29014G25KT 10SM BKN065 14/M01 A2973 RMK
                        AO2 PK WND 27027/1522 SLP069 T01441011
                        $=
201605151452 METAR KBDR 151452Z 27011G24KT 10SM BKN055 14/01 A2974 RMK
                        AO2 SLP070 T01440006 58001 $=
201605151352 METAR KBDR 151352Z 29016G25KT 10SM CLR 13/01 A2974 RMK AO2
                        SLP071 T01330006 $=
201605151252 METAR KBDR 151252Z 27015G24KT 10SM CLR 12/01 A2974 RMK AO2
                        SLP072 T01220006 $=
201605151152 METAR KBDR 151152Z 28013G24KT 10SM CLR 11/02 A2974 RMK AO2
                        SLP071 70004 T01110017 10133 20094
                        51026 $=
201605151052 METAR KBDR 151052Z 27014G20KT 10SM CLR 10/03 A2972 RMK AO2
                        SLP065 T01000028 $=
201605150952 METAR KBDR 150952Z AUTO 28009KT 10SM BKN075 10/02 A2969 RMK
                        AO2 SLP054 T01000022 $=
201605150852 METAR KBDR 150852Z AUTO 29008KT 10SM BKN049 11/03 A2966 RMK
                        AO2 SLP045 T01060033 53015 $=
201605150752 METAR KBDR 150752Z AUTO 28012G17KT 10SM SCT033 BKN090 11/04
                        A2965 RMK AO2 SLP040 T01110044 $=
201605150652 METAR KBDR 150652Z AUTO 28011G17KT 10SM FEW085 12/05 A2963
                        RMK AO2 SLP034 T01220050 $=
201605150552 METAR KBDR 150552Z AUTO 27007KT 10SM FEW075 BKN100 13/07
                        A2962 RMK AO2 SLP030 60004 T01330067
                        10178 20133 53002 $=
201605150452 METAR KBDR 150452Z AUTO 29011G21KT 10SM SCT080 BKN095 OVC110
                        14/07 A2961 RMK AO2 SLP026 T01390072
                        402220106 $=
201605150352 METAR KBDR 150352Z AUTO 26009KT 10SM FEW060 15/11 A2960 RMK
                        AO2 SLP025 T01500106 $=
201605150252 METAR KBDR 150252Z AUTO 23010KT 10SM SCT110 15/12 A2961 RMK
                        AO2 RAE03 SLP028 P0000 60004 T01500117
                        50001=
201605150152 METAR KBDR 150152Z 22009KT 10SM -RA BKN070 OVC090 16/12 A2962
                        RMK AO2 RAB45 SLP030 P0000 T01560122=
201605150052 METAR KBDR 150052Z 22010KT 10SM FEW070 SCT090 OVC110 16/12
                        A2962 RMK AO2 RAB2357E44 SLP030 P0004
                        T01610122=
201605142352 METAR KBDR 142352Z 24015G25KT 10SM FEW065 BKN080 BKN090 18/12
                        A2961 RMK AO2 PK WND 21026/2337 SLP027
                        T01780117 10222 20172 55012=
201605142252 METAR KBDR 142252Z 19013G18KT 10SM CLR 18/11 A2960 RMK AO2
                        SLP022 T01780111=
201605142152 METAR KBDR 142152Z 18010KT 10SM CLR 18/12 A2962 RMK AO2 SLP029
                        T01830122=
201605142052 METAR KBDR 142052Z 20008KT 10SM OVC060 19/11 A2964 RMK AO2
                        SLP038 T01890111 57019=
201605141952 METAR KBDR 141952Z 20013KT 10SM FEW060 19/12 A2966 RMK AO2
                        SLP044 T01940117=
201605141852 METAR KBDR 141852Z 20015KT 10SM CLR 22/11 A2968 RMK AO2 SLP052
                        T02170111=
201605141752 METAR KBDR 141752Z 15008KT 10SM FEW070 21/11 A2970 RMK AO2
                        SLP057 T02060111 10217 20161 58019=
201605141652 METAR KBDR 141652Z 19005KT 10SM CLR 21/12 A2972 RMK AO2 SLP064
                        T02110117=
201605141552 METAR KBDR 141552Z 23006KT 10SM CLR 21/12 A2974 RMK AO2 SLP071
                        T02060117 $=
201605141452 METAR KBDR 141452Z 22007KT 10SM CLR 18/13 A2976 RMK AO2 SLP076
                        T01830128 58010 $=
201605141352 METAR KBDR 141352Z 22008KT 10SM CLR 18/13 A2976 RMK AO2 SLP078
                        T01780133 $=
201605141252 METAR KBDR 141252Z 22005KT 10SM CLR 17/14 A2978 RMK AO2 SLP085
                        T01670139 $=
201605141152 METAR KBDR 141152Z 00000KT 9SM CLR 17/14 A2978 RMK AO2 SLP086
                        70017 T01670139 10167 20106 58001
                        $=
201605141052 METAR KBDR 141052Z 00000KT 6SM BR FEW002 14/13 A2979 RMK
                        AO2 SLP086 T01390133 $=
201605141047 SPECI KBDR 141047Z 00000KT 7SM FEW002 13/13 A2979 RMK AO2
                        $=
201605141040 SPECI KBDR 141040Z 00000KT 2 1/2SM BR SCT002 13/12 A2979
                        RMK AO2 T01330122 $=
201605141036 SPECI KBDR 141036Z 00000KT 1SM BR VV002 13/12 A2979 RMK AO2
                        T01280122 $=
201605141008 SPECI KBDR 141008Z AUTO 00000KT M1/4SM FG VV001 11/11 A2979
                        RMK AO2 T01110106 $=
201605140952 METAR KBDR 140952Z AUTO 00000KT 1/2SM FG 11/10 A2979 RMK
                        AO2 SLP087 T01060100 $=
201605140936 SPECI KBDR 140936Z AUTO 00000KT 1/4SM FG 12/11 A2978 RMK
                        AO2 T01170111 $=
201605140852 METAR KBDR 140852Z AUTO 00000KT 1/2SM FG VV002 12/12 A2979
                        RMK AO2 SLP087 T01220117 55000 $=
201605140752 METAR KBDR 140752Z AUTO 00000KT 1/2SM FG VV001 12/12 A2978
                        RMK AO2 SLP083 T01220117=
201605140731 SPECI KBDR 140731Z AUTO 00000KT 1/2SM FG VV001 12/12 A2977
                        RMK AO2 T01220117=
201605140720 SPECI KBDR 140720Z AUTO 00000KT 3/4SM BR VV001 13/12 A2978
                        RMK AO2 T01280122=
201605140652 METAR KBDR 140652Z AUTO 25003KT 1/2SM FG VV002 13/12 A2978
                        RMK AO2 SLP084 T01280122=
201605140643 SPECI KBDR 140643Z AUTO 23005KT 1/2SM FG VV002 13/12 A2978
                        RMK AO2 T01330122=
201605140626 SPECI KBDR 140626Z AUTO 23004KT 3/4SM BR VV002 13/13 A2979
                        RMK AO2 T01330128=
201605140552 METAR KBDR 140552Z AUTO 24003KT 1/2SM FG VV002 13/13 A2979
                        RMK AO2 SLP087 60000 T01330128 10150
                        20133 55002=
201605140452 METAR KBDR 140452Z AUTO 23005KT 1/4SM FG VV001 14/13 A2979
                        RMK AO2 SLP087 T01440133 401720117=
201605140352 METAR KBDR 140352Z AUTO 22003KT 1/4SM FG VV001 15/14 A2978
                        RMK AO2 SLP083 T01500139=
201605140258 SPECI KBDR 140258Z AUTO 23003KT 1/2SM FG OVC002 15/14 A2980
                        RMK AO2 T01500139=
201605140252 METAR KBDR 140252Z AUTO 23003KT 1 3/4SM BR OVC002 15/14 A2980
                        RMK AO2 SLP090 60000 T01500139 53010=
201605140245 SPECI KBDR 140245Z AUTO 00000KT 2 1/2SM BR OVC002 15/14 A2979
                        RMK AO2 T01500139=
201605140211 SPECI KBDR 140211Z AUTO 23005KT 4SM BR OVC004 15/14 A2980
                        RMK AO2 T01500139=
201605140152 METAR KBDR 140152Z 20005KT 4SM BR OVC005 14/14 A2978 RMK
                        AO2 RAB03E12 SLP084 P0000 T01440139=
201605140052 METAR KBDR 140052Z 00000KT 5SM BR OVC007 14/14 A2977 RMK
                        AO2 RAB01E52 CIG 002V008 SLP082 P0000
                        T01440139=
201605140001 SPECI KBDR 140001Z 22004KT 4SM -RA BR OVC009 15/14 A2977
                        RMK AO2 RAB01 P0000 T01500139=
201605132352 METAR KBDR 132352Z 21004KT 3SM BR OVC010 14/14 A2977 RMK
                        AO2 RAE30 SLP080 P0001 60017 T01440139
                        10161 20144 55005=
201605132327 SPECI KBDR 132327Z 21005KT 4SM -RA BR BKN011 BKN100 OVC120
                        15/14 A2976 RMK AO2 P0001 T01500139=
201605132252 METAR KBDR 132252Z 24003KT 3SM -RA BR OVC095 15/14 A2976
                        RMK AO2 SLP077 P0005 T01500139=
201605132224 SPECI KBDR 132224Z 25003KT 3SM -RA BR SCT011 SCT050 OVC090
                        14/13 A2977 RMK AO2 P0003 T01440133=
201605132209 SPECI KBDR 132209Z 23004KT 3SM -RA BR BKN010 BKN050 OVC095
                        15/13 A2978 RMK AO2 P0001 T01500133=
201605132152 METAR KBDR 132152Z 22005KT 5SM -RA BR OVC009 15/13 A2978
                        RMK AO2 SLP085 P0001 T01500133=
201605132130 SPECI KBDR 132130Z 21007KT 7SM -RA OVC009 15/13 A2978 RMK
                        AO2 P0000 T01500133=
201605132052 METAR KBDR 132052Z 21006KT 4SM -RA BR OVC010 15/14 A2978
                        RMK AO2 SLP085 P0007 60010 T01500139
                        56016=
201605132003 SPECI KBDR 132003Z 20008KT 5SM -RA BR OVC013 16/14 A2979
                        RMK AO2 P0000 T01560139=
201605131952 METAR KBDR 131952Z 19008KT 6SM -RA BR OVC015 16/14 A2979
                        RMK AO2 SLP087 P0003 T01610139=
201605131945 SPECI KBDR 131945Z 19007KT 6SM -RA BR OVC015 16/14 A2979
                        RMK AO2 P0002 T01610139=
201605131936 SPECI KBDR 131936Z 19007KT 2SM -RA BR OVC015 16/14 A2980
                        RMK AO2 P0002 T01610139=
201605131852 METAR KBDR 131852Z VRB05KT 10SM -RA OVC016 16/14 A2981 RMK
                        AO2 SLP096 P0000 T01610139=
201605131752 METAR KBDR 131752Z 10006KT 10SM -RA OVC020 16/13 A2983 RMK
                        AO2 RAB1655 SLP101 P0000 60000 T01560133
                        10172 20139 58021=
201605131652 METAR KBDR 131652Z 10007KT 10SM OVC027 16/13 A2985 RMK AO2
                        RAB01E36 SLP107 P0000 T01610128=
201605131608 SPECI KBDR 131608Z 11007KT 10SM -RA BKN029 BKN060 16/13 A2987
                        RMK AO2 RAB01 P0000 T01560128=
201605131552 METAR KBDR 131552Z 10007KT 10SM SCT037 BKN060 BKN100 16/12
                        A2988 RMK AO2 RAB41E52 SLP117 P0000
                        T01560122=
201605131452 METAR KBDR 131452Z 09004KT 10SM SCT020 17/12 A2989 RMK AO2
                        SLP122 T01670122 56007=
201605131450 SPECI KBDR 131450Z 10003KT 10SM SCT020 17/12 A2989 RMK AO2=
201605131433 SPECI KBDR 131433Z 10003KT 10SM BKN020 16/12 A2989 RMK AO2
                        T01560122=
201605131352 METAR KBDR 131352Z 08008KT 10SM CLR 15/12 A2989 RMK AO2 SLP123
                        T01500117=
201605131339 SPECI KBDR 131339Z 08007KT 10SM FEW013 SCT023 15/12 A2990
                        RMK AO2 T01500117=
201605131315 SPECI KBDR 131315Z 09005KT 10SM FEW014 BKN023 14/12 A2991
                        RMK AO2 T01440117 $=
201605131252 METAR KBDR 131252Z 09006KT 10SM FEW015 14/12 A2991 RMK AO2
                        SLP129 T01440117 $=
201605131152 METAR KBDR 131152Z 06005KT 10SM SCT024 14/12 A2993 RMK AO2
                        SLP133 T01390117 10139 20133 58004
                        $=
201605131133 SPECI KBDR 131133Z 08006KT 10SM BKN024 14/12 A2993 RMK AO2
                        T01390117 $=
201605131108 SPECI KBDR 131108Z 09005KT 10SM SCT023 13/11 A2993 RMK AO2
                        T01330111 $=
201605131052 METAR KBDR 131052Z 09006KT 10SM OVC022 13/11 A2994 RMK AO2
                        SLP137 T01330111 $=
201605130952 METAR KBDR 130952Z AUTO 09004KT 10SM OVC027 13/11 A2994 RMK
                        AO2 SLP137 T01330111 $=
201605130852 METAR KBDR 130852Z AUTO 06005KT 10SM OVC027 13/11 A2994 RMK
                        AO2 SLP137 T01330111 56021 $=
201605130838 SPECI KBDR 130838Z AUTO 07005KT 10SM OVC028 13/11 A2994 RMK
                        AO2 T01330111 $=
201605130752 METAR KBDR 130752Z AUTO 06003KT 8SM OVC032 13/11 A2995 RMK
                        AO2 SLP143 T01330111 $=
201605130701 SPECI KBDR 130701Z AUTO 00000KT 10SM OVC031 14/11 A2997 RMK
                        AO2 T01390106 $=
201605130652 METAR KBDR 130652Z AUTO 00000KT 10SM OVC029 14/11 A2998 RMK
                        AO2 SLP152 T01390106 $=
201605130552 METAR KBDR 130552Z AUTO 00000KT 9SM BKN022 13/11 A3000 RMK
                        AO2 SLP158 T01280106 10161 20117
                        56010 $=
201605130549 SPECI KBDR 130549Z AUTO 00000KT 8SM BKN022 12/10 A3000 RMK
                        AO2 $=
201605130452 METAR KBDR 130452Z AUTO 00000KT 10SM CLR 13/09 A3002 RMK
                        AO2 SLP166 T01280094 402110117 $=
201605130352 METAR KBDR 130352Z AUTO 00000KT 9SM CLR 12/10 A3003 RMK AO2
                        SLP168 T01220100 $=
201605130252 METAR KBDR 130252Z AUTO 00000KT 10SM CLR 13/10 A3005 RMK
                        AO2 SLP175 T01330100 51006=
201605130152 METAR KBDR 130152Z 19005KT 10SM CLR 15/11 A3005 RMK AO2 SLP174
                        T01500106=
201605130052 METAR KBDR 130052Z 00000KT 10SM CLR 16/11 A3004 RMK AO2 SLP173
                        T01560111=
201605122352 METAR KBDR 122352Z 06004KT 10SM CLR 16/11 A3003 RMK AO2 SLP168
                        T01610111 10206 20156 56011=
201605122252 METAR KBDR 122252Z 09007KT 10SM CLR 16/11 A3003 RMK AO2 SLP168
                        T01610111=
201605122152 METAR KBDR 122152Z 08007KT 10SM CLR 18/10 A3005 RMK AO2 SLP176
                        T01780100=
201605122052 METAR KBDR 122052Z 07007KT 10SM CLR 18/10 A3006 RMK AO2 SLP179
                        T01780100 56013=
201605121952 METAR KBDR 121952Z 07006KT 10SM CLR 19/09 A3007 RMK AO2 SLP182
                        T01890094=
201605121852 METAR KBDR 121852Z 08006KT 10SM CLR 21/07 A3008 RMK AO2 SLP187
                        T02060072=
201605121752 METAR KBDR 121752Z 08007KT 10SM CLR 21/05 A3010 RMK AO2 SLP192
                        T02060050 10211 20167 58015=
201605121652 METAR KBDR 121652Z 08009KT 10SM CLR 19/06 A3012 RMK AO2 SLP200
                        T01890056=
201605121552 METAR KBDR 121552Z 09009KT 10SM CLR 18/03 A3013 RMK AO2 SLP202
                        T01830033=
201605121452 METAR KBDR 121452Z 10008KT 10SM CLR 20/01 A3014 RMK AO2 SLP207
                        T02000011 58004=
201605121419 SPECI KBDR 121419Z 08009KT 10SM CLR 21/01 A3015 RMK AO2 T02060006=
201605121355 SPECI KBDR 121355Z 08008KT 1/2SM HZ CLR 20/01 A3016 RMK AO2
                        T02000011=
201605121352 METAR KBDR 121352Z 08008KT 10SM CLR 20/01 A3016 RMK AO2 SLP212
                        T02000011=
201605121252 METAR KBDR 121252Z 07006KT 10SM CLR 19/03 A3016 RMK AO2 SLP213
                        T01890028=
201605121152 METAR KBDR 121152Z 05003KT 10SM CLR 17/04 A3015 RMK AO2 SLP211
                        T01670039 10167 20117 51016=
201605121052 METAR KBDR 121052Z 02006KT 10SM CLR 14/03 A3015 RMK AO2 SLP210
                        T01390033=
201605120952 METAR KBDR 120952Z 03004KT 10SM CLR 12/04 A3013 RMK AO2 SLP202
                        T01220044=
201605120852 METAR KBDR 120852Z 02006KT 10SM CLR 12/05 A3011 RMK AO2 SLP195
                        T01220050 55004=
201605120752 METAR KBDR 120752Z 01007KT 10SM CLR 12/06 A3010 RMK AO2 SLP193
                        T01220061=
201605120652 METAR KBDR 120652Z 01006KT 10SM CLR 14/06 A3011 RMK AO2 SLP195
                        T01390056=
201605120552 METAR KBDR 120552Z 00000KT 10SM CLR 13/06 A3012 RMK AO2 SLP199
                        T01280061 10172 20122 50001=
201605120452 METAR KBDR 120452Z 00000KT 10SM CLR 14/07 A3012 RMK AO2 SLP200
                        T01390067 402280067=
201605120352 METAR KBDR 120352Z 00000KT 10SM CLR 14/08 A3012 RMK AO2 SLP200
                        T01440078=
201605120252 METAR KBDR 120252Z 23004KT 10SM CLR 15/09 A3012 RMK AO2 SLP198
                        T01500089 53007=
201605120152 METAR KBDR 120152Z 23005KT 10SM CLR 17/07 A3011 RMK AO2 SLP196
                        T01670072=
201605120052 METAR KBDR 120052Z 24005KT 10SM CLR 17/08 A3010 RMK AO2 SLP192
                        T01670078=
201605112352 METAR KBDR 112352Z 25004KT 10SM CLR 17/08 A3009 RMK AO2 SLP190
                        T01670083 10228 20167 53003=
201605112252 METAR KBDR 112252Z 24005KT 10SM CLR 19/08 A3008 RMK AO2 SLP186
                        T01890083=
201605112152 METAR KBDR 112152Z 22009KT 10SM CLR 20/08 A3008 RMK AO2 SLP187
                        T02000078=
201605112052 METAR KBDR 112052Z 22007KT 10SM CLR 21/04 A3009 RMK AO2 SLP187
                        T02060039 56019=
201605111952 METAR KBDR 111952Z 23006KT 10SM CLR 23/01 A3009 RMK AO2 SLP191
                        T02280006=
201605111852 METAR KBDR 111852Z 22007KT 10SM CLR 21/03 A3012 RMK AO2 SLP199
                        T02060033=
201605111842 SPECI KBDR 111842Z 22008KT 1 3/4SM HZ CLR 21/03 A3012 RMK
                        AO2 T02110028=
201605111752 METAR KBDR 111752Z 17007KT 10SM CLR 21/02 A3014 RMK AO2 SLP206
                        T02060017 10206 20150 58012=
201605111652 METAR KBDR 111652Z 16010KT 10SM CLR 19/03 A3016 RMK AO2 SLP212
                        T01940028=
201605111552 METAR KBDR 111552Z 15007KT 10SM CLR 19/05 A3017 RMK AO2 SLP215
                        T01890050=
201605111452 METAR KBDR 111452Z 10008KT 10SM CLR 19/03 A3018 RMK AO2 SLP218
                        T01890033 58004=
201605111352 METAR KBDR 111352Z VRB04KT 10SM CLR 19/03 A3018 RMK AO2 SLP221
                        T01940028=
201605111252 METAR KBDR 111252Z 01008KT 10SM CLR 17/02 A3019 RMK AO2 SLP223
                        T01720022=
201605111152 METAR KBDR 111152Z 01004KT 10SM CLR 15/04 A3019 RMK AO2 SLP222
                        T01500039 10150 20067 53008=
201605111052 METAR KBDR 111052Z 00000KT 10SM CLR 11/04 A3018 RMK AO2 SLP221
                        T01110039=
201605110952 METAR KBDR 110952Z 04005KT 10SM CLR 09/04 A3017 RMK AO2 SLP215
                        T00890044=
201605110852 METAR KBDR 110852Z 03003KT 10SM CLR 09/03 A3016 RMK AO2 SLP214
                        T00890033 53002=
201605110752 METAR KBDR 110752Z 30003KT 10SM CLR 09/04 A3016 RMK AO2 SLP213
                        T00890039=
201605110652 METAR KBDR 110652Z 26003KT 10SM CLR 09/04 A3016 RMK AO2 SLP213
                        T00940044=
201605110552 METAR KBDR 110552Z 25003KT 10SM CLR 11/04 A3016 RMK AO2 SLP212
                        T01110044 10139 20100 50001=
201605110452 METAR KBDR 110452Z 24003KT 10SM CLR 11/04 A3017 RMK AO2 SLP214
                        T01110044 401890067=
201605110352 METAR KBDR 110352Z 24004KT 10SM CLR 12/04 A3016 RMK AO2 SLP212
                        T01220044=
201605110252 METAR KBDR 110252Z 24006KT 10SM CLR 12/08 A3015 RMK AO2 SLP211
                        T01220078 50004=
201605110152 METAR KBDR 110152Z 22008KT 10SM CLR 13/07 A3016 RMK AO2 SLP211
                        T01280072=
201605110052 METAR KBDR 110052Z 21006KT 10SM CLR 12/07 A3015 RMK AO2 SLP211
                        T01220072=
201605102352 METAR KBDR 102352Z 23009KT 10SM CLR 14/07 A3014 RMK AO2 SLP207
                        T01390067 10189 20139 55002=
201605102252 METAR KBDR 102252Z 23009KT 10SM CLR 14/07 A3014 RMK AO2 SLP205
                        T01440067=
201605102152 METAR KBDR 102152Z 23010KT 10SM CLR 16/06 A3014 RMK AO2 SLP207
                        T01560056=
201605102052 METAR KBDR 102052Z 23010KT 10SM CLR 16/06 A3015 RMK AO2 SLP209
                        T01610056 56015=
201605101952 METAR KBDR 101952Z 23010KT 10SM CLR 17/06 A3016 RMK AO2 SLP213
                        T01720056=
201605101852 METAR KBDR 101852Z 22013KT 10SM CLR 18/00 A3018 RMK AO2 SLP218
                        T01830000=
201605101752 METAR KBDR 101752Z 21012KT 10SM CLR 17/M01 A3019 RMK AO2
                        SLP224 T01721011 10178 20111 58018=
201605101652 METAR KBDR 101652Z 21013KT 10SM CLR 16/00 A3022 RMK AO2 SLP232
                        T01610000=
201605101552 METAR KBDR 101552Z 21011KT 10SM CLR 16/01 A3023 RMK AO2 SLP237
                        T01560011=
201605101452 METAR KBDR 101452Z 22010KT 10SM CLR 14/01 A3025 RMK AO2 SLP242
                        T01390006 58002=
201605101352 METAR KBDR 101352Z 21008KT 10SM CLR 13/01 A3025 RMK AO2 SLP241
                        T01280006=
201605101252 METAR KBDR 101252Z 00000KT 10SM CLR 13/M02 A3026 RMK AO2
                        SLP245 T01331022=
201605101152 METAR KBDR 101152Z 30004KT 10SM CLR 11/M03 A3025 RMK AO2
                        SLP243 T01111028 10111 20067 53017=
201605101052 METAR KBDR 101052Z 00000KT 10SM CLR 09/M02 A3023 RMK AO2
                        SLP237 T00941022=
201605100952 METAR KBDR 100952Z AUTO 00000KT 10SM CLR 08/M03 A3021 RMK
                        AO2 SLP230 T00781028=
201605100852 METAR KBDR 100852Z AUTO 35004KT 10SM CLR 08/M03 A3020 RMK
                        AO2 SLP226 T00831028 53010=
201605100752 METAR KBDR 100752Z AUTO 35004KT 10SM CLR 09/M03 A3019 RMK
                        AO2 SLP222 T00891028=
201605100652 METAR KBDR 100652Z AUTO 01003KT 10SM CLR 09/M03 A3017 RMK
                        AO2 SLP216 T00941033=
201605100552 METAR KBDR 100552Z AUTO 02003KT 10SM CLR 11/M04 A3017 RMK
                        AO2 SLP216 T01111044 10200 20111
                        51023=
201605100452 METAR KBDR 100452Z AUTO 01006KT 10SM CLR 12/M03 A3015 RMK
                        AO2 SLP211 T01221033 402330094=
201605100352 METAR KBDR 100352Z AUTO 01009KT 10SM CLR 13/M03 A3014 RMK
                        AO2 SLP204 T01331033=
201605100252 METAR KBDR 100252Z AUTO 01012KT 10SM CLR 14/M01 A3010 RMK
                        AO2 SLP193 T01441011 51046=
201605100152 METAR KBDR 100152Z 36013G22KT 10SM CLR 16/M02 A3007 RMK AO2
                        SLP183 T01611017=
201605100052 METAR KBDR 100052Z 34009KT 10SM CLR 18/M03 A3001 RMK AO2
                        SLP161 T01831033=
201605092352 METAR KBDR 092352Z 31009KT 10SM CLR 19/M02 A2997 RMK AO2
                        SLP147 T01941022 10233 20183 53019=
201605092252 METAR KBDR 092252Z 33011G21KT 10SM CLR 21/M02 A2994 RMK AO2
                        SLP137 T02111017=
201605092152 METAR KBDR 092152Z 32014G21KT 10SM CLR 22/00 A2991 RMK AO2
                        SLP129 T02220000=
201605092052 METAR KBDR 092052Z AUTO 30014G19KT 10SM CLR 23/01 A2991 RMK
                        AO2 SLP128 T02280006 56018 TSNO=
201605091952 METAR KBDR 091952Z AUTO 23007KT 10SM BKN090 18/06 A2992 RMK
                        AO2 SLP131 T01830061 TSNO=
201605091852 METAR KBDR 091852Z 20010KT 10SM CLR 21/03 A2994 RMK AO2 SLP140
                        T02060028=
201605091752 METAR KBDR 091752Z 22012KT 10SM SCT080 21/04 A2996 RMK AO2
                        SLP146 T02060039 10206 20128 58005=
201605091652 METAR KBDR 091652Z 23013KT 10SM CLR 19/05 A2997 RMK AO2 SLP148
                        T01890050=
201605091552 METAR KBDR 091552Z 21014KT 10SM CLR 18/05 A2998 RMK AO2 SLP152
                        T01780050=
201605091452 METAR KBDR 091452Z 27010KT 10SM CLR 18/02 A2998 RMK AO2 SLP151
                        T01830022 50001=
201605091352 METAR KBDR 091352Z 22011KT 10SM FEW090 15/06 A2998 RMK AO2
                        SLP153 T01500056=
201605091252 METAR KBDR 091252Z 24007KT 10SM BKN100 15/04 A2998 RMK AO2
                        SLP152 T01500039=
201605091152 METAR KBDR 091152Z 25005KT 10SM OVC100 13/05 A2997 RMK AO2
                        SLP150 70021 T01280050 10128 20094
                        51014=
201605091052 METAR KBDR 091052Z 26005KT 10SM OVC100 11/04 A2997 RMK AO2
                        SLP148 T01060044=
201605090952 METAR KBDR 090952Z AUTO 27003KT 10SM BKN090 09/06 A2995 RMK
                        AO2 SLP142 T00940061=
201605090852 METAR KBDR 090852Z AUTO 25005KT 10SM FEW100 10/06 A2993 RMK
                        AO2 SLP136 T01000061 53001=
201605090752 METAR KBDR 090752Z AUTO 24004KT 10SM CLR 11/07 A2992 RMK
                        AO2 SLP132 T01060067=
201605090652 METAR KBDR 090652Z AUTO 22005KT 10SM CLR 11/06 A2993 RMK
                        AO2 SLP134 T01110056=
201605090552 METAR KBDR 090552Z AUTO 25004KT 10SM CLR 12/02 A2993 RMK
                        AO2 SLP135 T01170022 10156 20106
                        51017=
201605090452 METAR KBDR 090452Z AUTO 24005KT 10SM BKN100 12/03 A2993 RMK
                        AO2 SLP135 T01220028 401940083=
201605090352 METAR KBDR 090352Z AUTO 28008KT 10SM BKN110 13/00 A2991 RMK
                        AO2 SLP127 T01280000=
201605090252 METAR KBDR 090252Z AUTO 00000KT 10SM CLR 12/01 A2988 RMK
                        AO2 SLP118 T01170006 51024=
201605090152 METAR KBDR 090152Z 29003KT 10SM CLR 11/01 A2987 RMK AO2 SLP115
                        T01060006=
201605090052 METAR KBDR 090052Z 28003KT 10SM CLR 14/M02 A2985 RMK AO2
                        SLP107 T01391022=
201605082352 METAR KBDR 082352Z 29011G18KT 10SM CLR 16/M03 A2981 RMK AO2
                        PK WND 30026/2314 SLP094 T01561033
                        10194 20156 53039=
201605082252 METAR KBDR 082252Z 29018G23KT 10SM CLR 17/M04 A2977 RMK AO2
                        PK WND 30032/2214 SLP080 T01671039=
201605082152 METAR KBDR 082152Z 29017G28KT 10SM FEW090 18/M03 A2973 RMK
                        AO2 PK WND 30031/2104 SLP067 T01781033=
201605082052 METAR KBDR 082052Z 30020G30KT 10SM FEW085 18/M02 A2970 RMK
                        AO2 PK WND 32031/2027 SLP055 T01831022
                        53023=
201605081952 METAR KBDR 081952Z 30013G26KT 10SM FEW085 19/M01 A2967 RMK
                        AO2 PK WND 30034/1932 SLP046 T01891006=
201605081852 METAR KBDR 081852Z 30016G23KT 10SM FEW065 19/02 A2964 RMK
                        AO2 PK WND 31030/1836 WSHFT 1754
                        SLP037 T01890017=
201605081814 SPECI KBDR 081814Z 30019G29KT 10SM BKN060 19/04 A2963 RMK
                        AO2 PK WND 32029/1812 WSHFT 1754
                        T01890044=
201605081752 METAR KBDR 081752Z 23010KT 10SM SCT055 16/11 A2963 RMK AO2
                        SLP033 60021 T01560111 10156 20089
                        56003=
201605081719 SPECI KBDR 081719Z 22008KT 10SM SCT013 SCT019 14/11 A2963
                        RMK AO2 T01390111=
201605081652 METAR KBDR 081652Z 23007KT 10SM OVC013 13/11 A2963 RMK AO2
                        SLP033 T01280106=
201605081626 SPECI KBDR 081626Z 24006KT 10SM BKN013 OVC065 13/11 A2963
                        RMK AO2 T01280106=
201605081552 METAR KBDR 081552Z 22008KT 10SM FEW023 OVC060 12/11 A2964
                        RMK AO2 SLP035 P0001 T01220106=
201605081547 SPECI KBDR 081547Z 22008KT 10SM FEW012 SCT023 OVC060 12/11
                        A2964 RMK AO2 P0001=
201605081539 SPECI KBDR 081539Z 22008KT 10SM SCT012 BKN023 OVC060 12/11
                        A2964 RMK AO2 P0001 T01170106=
201605081517 SPECI KBDR 081517Z 22007KT 10SM BKN012 BKN024 OVC028 11/10
                        A2964 RMK AO2 P0001 T01110100=
201605081452 METAR KBDR 081452Z 21007KT 10SM SCT006 OVC029 11/10 A2964
                        RMK AO2 RAB07E52 SLP037 P0001 60020
                        T01060100 56012=
201605081403 SPECI KBDR 081403Z 20009KT 10SM BKN006 OVC010 10/09 A2965
                        RMK AO2 CIG 004V008 T01000089=
201605081352 METAR KBDR 081352Z 20009KT 10SM BKN004 OVC008 10/09 A2965
                        RMK AO2 RAE52 SLP039 P0009 T01000089=
201605081341 SPECI KBDR 081341Z 20009KT 6SM -RA BR OVC004 10/09 A2965
                        RMK AO2 CIG 003V009 P0009 T01000089=
201605081318 SPECI KBDR 081318Z 21009KT 6SM -RA BR BKN005 OVC020 09/09
                        A2965 RMK AO2 P0008 T00940089=
201605081252 METAR KBDR 081252Z 20007KT 3SM RA BR BKN004 OVC016 09/08
                        A2966 RMK AO2 RAB00 SLP043 P0010
                        T00940083=
201605081152 METAR KBDR 081152Z 21008KT 10SM OVC003 09/08 A2968 RMK AO2
                        SLP048 70002 T00890078 10100 20083
                        51006=
201605081139 SPECI KBDR 081139Z 22006KT 7SM OVC002 09/08 A2967 RMK AO2
                        T00890078=
201605081112 SPECI KBDR 081112Z 22008KT 9SM OVC003 09/08 A2968 RMK AO2
                        T00890078=
201605081052 METAR KBDR 081052Z 22007KT 7SM OVC002 09/08 A2967 RMK AO2
                        SLP046 T00890078=
201605081048 SPECI KBDR 081048Z 22007KT 3SM BR OVC002 09/08 A2967 RMK
                        AO2=
201605081047 SPECI KBDR 081047Z 22007KT 2SM BR OVC002 09/08 A2967 RMK
                        AO2=
201605081037 SPECI KBDR 081037Z 19006KT 3/4SM BR VV002 09/08 A2965 RMK
                        AO2 T00890078=
201605081021 SPECI KBDR 081021Z AUTO 22007KT 1 1/2SM BR OVC002 09/08 A2966
                        RMK AO2 T00890078=
201605080959 SPECI KBDR 080959Z AUTO 23005KT 2 1/2SM BR OVC002 09/08 A2966
                        RMK AO2 VIS 1 3/4V3 T00890078=
201605080952 METAR KBDR 080952Z AUTO 22007KT 3SM BR OVC002 09/08 A2966
                        RMK AO2 SLP042 T00890078=
201605080942 SPECI KBDR 080942Z AUTO 21005KT 3SM BR OVC002 09/08 A2965
                        RMK AO2 T00890078=
201605080917 SPECI KBDR 080917Z AUTO 22007KT 7SM OVC004 09/08 A2966 RMK
                        AO2 T00890078=
201605080852 METAR KBDR 080852Z AUTO 23007KT 10SM OVC005 09/08 A2967 RMK
                        AO2 SLP047 T00940083 58016=
201605080752 METAR KBDR 080752Z AUTO 24006KT 8SM OVC005 10/09 A2969 RMK
                        AO2 SLP052 T01000089=
201605080652 METAR KBDR 080652Z AUTO 23006KT 6SM BR OVC004 10/09 A2970
                        RMK AO2 SLP058 T01000089=
201605080633 SPECI KBDR 080633Z AUTO 22006KT 7SM OVC003 10/09 A2971 RMK
                        AO2 T01000089=
201605080619 SPECI KBDR 080619Z AUTO 23006KT 5SM BR OVC002 10/09 A2971
                        RMK AO2 T01000094=
201605080602 SPECI KBDR 080602Z AUTO 21007KT 2SM BR OVC002 10/09 A2971
                        RMK AO2 T01000089=
201605080552 METAR KBDR 080552Z AUTO 23007KT 1 1/4SM BR OVC002 10/09 A2972
                        RMK AO2 SLP063 T01000089 10117 20094
                        58007=
201605080542 SPECI KBDR 080542Z AUTO 22008KT 3/4SM BR VV002 09/09 A2972
                        RMK AO2 T00940089=
201605080517 SPECI KBDR 080517Z AUTO 22008KT 1 1/2SM BR OVC002 10/09 A2972
                        RMK AO2 T01000089=
201605080507 SPECI KBDR 080507Z AUTO 21006KT 1 3/4SM BR OVC003 10/09 A2972
                        RMK AO2 T01000094=
201605080452 METAR KBDR 080452Z AUTO 21009KT 5SM BR BKN003 OVC007 10/09
                        A2973 RMK AO2 SLP066 T01000094 401280094=
201605080438 SPECI KBDR 080438Z AUTO 20008KT 5SM BR BKN006 OVC035 11/09
                        A2972 RMK AO2 CIG 003V010 T01060094=
201605080431 SPECI KBDR 080431Z AUTO 19007KT 5SM BR FEW003 BKN011 OVC035
                        10/09 A2972 RMK AO2 T01000094=
201605080418 SPECI KBDR 080418Z AUTO 19007KT 6SM BR FEW003 SCT011 OVC033
                        11/09 A2973 RMK AO2 T01060094=
201605080352 METAR KBDR 080352Z AUTO 22006KT 9SM BKN012 OVC031 11/09 A2973
                        RMK AO2 SLP068 T01110094=
201605080320 SPECI KBDR 080320Z AUTO 25003KT 10SM OVC013 11/10 A2974 RMK
                        AO2 T01110100=
201605080252 METAR KBDR 080252Z AUTO 00000KT 8SM FEW005 OVC019 11/10 A2974
                        RMK AO2 SLP070 T01060100 51001=
201605080208 SPECI KBDR 080208Z AUTO 23003KT 8SM FEW010 BKN020 11/10 A2974
                        RMK AO2 T01060100=
201605080152 METAR KBDR 080152Z 21003KT 10SM FEW012 BKN031 11/10 A2974
                        RMK AO2 SLP070 T01110100=
201605080143 SPECI KBDR 080143Z 00000KT 10SM FEW008 FEW012 OVC031 11/10
                        A2973 RMK AO2 T01110100=
201605080052 METAR KBDR 080052Z 22003KT 10SM OVC028 12/11 A2974 RMK AO2
                        SLP070 T01170106=
201605072352 METAR KBDR 072352Z 00000KT 7SM OVC025 12/11 A2973 RMK AO2
                        SLP069 T01170106 10122 20111 51001=
201605072325 SPECI KBDR 072325Z 26003KT 10SM FEW003 SCT018 OVC025 11/11
                        A2973 RMK AO2 T01110106=
201605072252 METAR KBDR 072252Z 24004KT 3SM BR OVC003 11/11 A2973 RMK
                        AO2 SLP068 T01110106=
201605072241 SPECI KBDR 072241Z 23004KT 2 1/2SM BR OVC003 11/11 A2973
                        RMK AO2 T01110106=
201605072224 SPECI KBDR 072224Z 23005KT 2 1/2SM BR OVC002 11/11 A2974
                        RMK AO2 T01110106=
201605072217 SPECI KBDR 072217Z 23006KT 3SM BR OVC003 11/11 A2974=
201605072152 METAR KBDR 072152Z 22004KT 2SM BR OVC003 12/11 A2974 RMK
                        AO2 SLP069 T01170106=
201605072113 SPECI KBDR 072113Z 22005KT 2SM BR OVC003 12/11 A2974 RMK
                        AO2 CIG 002V009 T01170106=
201605072100 SPECI KBDR 072100Z 22004KT 2 1/2SM BR BKN006 OVC010 12/11
                        A2974 RMK AO2 CIG 003V008 T01170111=
201605072052 METAR KBDR 072052Z 22003KT 3SM BR BKN006 OVC012 12/11 A2973
                        RMK AO2 SLP068 T01170106 56014=
201605071952 METAR KBDR 071952Z 00000KT 4SM BR BKN006 OVC012 12/11 A2974
                        RMK AO2 CIG 003V008 SLP070 T01220111=
201605071921 SPECI KBDR 071921Z 07004KT 3SM BR BKN006 OVC012 12/11 A2975
                        RMK AO2 T01220111=
201605071908 SPECI KBDR 071908Z 09004KT 2 1/2SM BR BKN006 OVC012 12/11
                        A2975 RMK AO2 T01170111=
201605071852 METAR KBDR 071852Z 08003KT 1 1/4SM BR BKN007 OVC012 12/11
                        A2977 RMK AO2 SLP079 T01170106=
201605071832 SPECI KBDR 071832Z 07004KT 1 1/2SM BR BKN006 OVC011 12/11
                        A2978 RMK AO2 T01170106=
201605071823 SPECI KBDR 071823Z 08003KT 1 1/2SM BR OVC010 12/11 A2978
                        RMK AO2 T01170106=
201605071811 SPECI KBDR 071811Z 09004KT 2SM BR OVC010 12/11 A2978 RMK
                        AO2 T01170106=
201605071752 METAR KBDR 071752Z 09005KT 7SM OVC010 12/10 A2977 RMK AO2
                        SLP082 60002 T01170100 10128 20100
                        55009=
201605071652 METAR KBDR 071652Z 04008KT 10SM OVC010 12/09 A2977 RMK AO2
                        SLP082 T01220094=
201605071600 SPECI KBDR 071600Z 04008KT 10SM OVC013 12/10 A2979 RMK AO2
                        T01220100=
201605071552 METAR KBDR 071552Z 05008KT 10SM BKN009 OVC017 12/09 A2979
                        RMK AO2 RAE03 SLP089 P0000 T01170094=
201605071452 METAR KBDR 071452Z 04007KT 6SM -RA BR OVC009 11/09 A2980
                        RMK AO2 SLP091 P0002 60002 T01060094
                        56005=
201605071352 METAR KBDR 071352Z 04008KT 7SM -RA BKN009 OVC014 11/09 A2980
                        RMK AO2 RAB10E27B47 CIG 008V013 SLP092
                        P0000 T01060089=
201605071252 METAR KBDR 071252Z 03007KT 10SM OVC008 11/09 A2981 RMK AO2
                        SLP093 T01060089=
201605071152 METAR KBDR 071152Z 02009KT 10SM OVC007 10/08 A2982 RMK AO2
                        SLP096 70025 T01000083 10100 20094
                        50001=
201605071052 METAR KBDR 071052Z 06007KT 10SM OVC006 09/08 A2982 RMK AO2
                        CIG 005V009 SLP099 T00940083=
201605070952 METAR KBDR 070952Z AUTO 04008KT 10SM OVC006 10/09 A2982 RMK
                        AO2 SLP097 T01000089=
201605070919 SPECI KBDR 070919Z AUTO 06007KT 10SM OVC005 10/08 A2981 RMK
                        AO2 CIG 004V008 T01000083=
201605070852 METAR KBDR 070852Z AUTO 04008KT 7SM OVC004 10/09 A2981 RMK
                        AO2 SLP095 T01000089 56008=
201605070814 SPECI KBDR 070814Z AUTO 07007KT 7SM OVC004 10/09 A2982 RMK
                        AO2 CIG 003V007 T01000089=
201605070752 METAR KBDR 070752Z AUTO 07009KT 9SM OVC006 10/09 A2982 RMK
                        AO2 CIG 004V010 SLP098 T01000089=
201605070703 SPECI KBDR 070703Z AUTO 07009KT 9SM OVC005 10/09 A2982 RMK
                        AO2 T01000089=
201605070652 METAR KBDR 070652Z AUTO 07010KT 7SM OVC004 09/09 A2982 RMK
                        AO2 CIG 003V008 SLP099 T00940089=
201605070625 SPECI KBDR 070625Z AUTO 08013KT 3SM BR OVC003 09/09 A2982
                        RMK AO2 CIG 003V007 T00940089=
201605070552 METAR KBDR 070552Z AUTO 08014KT 2SM BR OVC003 09/08 A2984
                        RMK AO2 SLP104 60000 T00940083 10100
                        20094 58004=
201605070515 SPECI KBDR 070515Z AUTO 09017KT 2SM BR OVC004 09/08 A2984
                        RMK AO2 T00940083=
201605070452 METAR KBDR 070452Z AUTO 09020KT 4SM BR OVC004 09/08 A2985
                        RMK AO2 SLP106 T00940083 401170089=
201605070403 SPECI KBDR 070403Z AUTO 08016KT 3SM BR OVC004 09/08 A2985
                        RMK AO2 T00940083=
201605070352 METAR KBDR 070352Z AUTO 09017KT 2 1/2SM BR OVC004 09/08 A2985
                        RMK AO2 SLP109 T00940083=
201605070345 SPECI KBDR 070345Z AUTO 09013KT 2SM BR OVC004 09/08 A2986
                        RMK AO2 T00940083=
201605070252 METAR KBDR 070252Z AUTO 09015KT 10SM OVC006 09/08 A2985 RMK
                        AO2 SLP108 60000 T00940078 50010=
201605070152 METAR KBDR 070152Z 09016KT 10SM OVC008 09/08 A2986 RMK AO2
                        SLP110 T00940078=
201605070052 METAR KBDR 070052Z 08021G25KT 10SM OVC007 10/08 A2984 RMK
                        AO2 RAE03 SLP104 P0000 T01000078=
201605062352 METAR KBDR 062352Z 07017KT 8SM -RA OVC006 10/08 A2982 RMK
                        AO2 SLP097 P0003 60003 T01000083
                        10117 20100 51009=
201605062252 METAR KBDR 062252Z 08014KT 5SM -RA BR OVC008 10/08 A2982
                        RMK AO2 RAB42 CIG 006V011 SLP096
                        P0000 T01000083=
201605062218 SPECI KBDR 062218Z 09016G22KT 10SM OVC010 10/08 A2983 RMK
                        AO2 T01000078=
201605062152 METAR KBDR 062152Z 10014KT 10SM OVC009 11/08 A2982 RMK AO2
                        CIG 006V012 SLP097 T01060083=
201605062119 SPECI KBDR 062119Z 09016KT 10SM OVC009 11/08 A2981 RMK AO2
                        T01060083=
201605062052 METAR KBDR 062052Z 09014KT 10SM OVC011 11/08 A2979 RMK AO2
                        CIG 009V013 SLP089 T01060083 50011=
201605061952 METAR KBDR 061952Z 09014G22KT 10SM BKN012 OVC020 11/08 A2980
                        RMK AO2 SLP090 T01110083=
201605061852 METAR KBDR 061852Z 09014KT 10SM OVC022 11/08 A2978 RMK AO2
                        SLP086 T01110083=
201605061752 METAR KBDR 061752Z 11013G20KT 10SM OVC025 12/08 A2976 RMK
                        AO2 RAB00E16 SLP078 P0000 60022 T01170083
                        10117 20094 51008=
201605061652 METAR KBDR 061652Z 10016KT 10SM OVC024 11/08 A2975 RMK AO2
                        RAB19E34 SLP075 P0000 T01110083=
201605061559 SPECI KBDR 061559Z 10013KT 10SM BKN020 OVC024 12/09 A2976
                        RMK AO2 T01170089=
201605061552 METAR KBDR 061552Z 09013KT 10SM SCT008 BKN014 OVC039 12/09
                        A2975 RMK AO2 SLP075 T01170089=
201605061459 SPECI KBDR 061459Z 09013KT 10SM SCT008 BKN014 OVC039 11/09
                        A2974 RMK AO2 T01060089=
201605061452 METAR KBDR 061452Z 09013KT 10SM BKN011 BKN016 OVC039 11/09
                        A2974 RMK AO2 RAE50 CIG 007V012 SLP070
                        P0008 60022 T01060089 53006=
201605061444 SPECI KBDR 061444Z 08012KT 6SM -RA BR BKN011 BKN016 OVC039
                        11/09 A2974 RMK AO2 P0008 T01110094=
201605061428 SPECI KBDR 061428Z 07011KT 2 1/2SM +RA BR BKN014 OVC019 10/08
                        A2973 RMK AO2 P0003 T01000083=
201605061352 METAR KBDR 061352Z 06012KT 10SM -RA OVC017 11/08 A2973 RMK
                        AO2 RAE33B51 CIG 010V022 SLP065 P0001
                        T01060083=
201605061252 METAR KBDR 061252Z 06011KT 6SM RA BR FEW009 BKN019 OVC034
                        10/08 A2972 RMK AO2 SLP064 P0013
                        T01000078=
201605061240 SPECI KBDR 061240Z 06011KT 4SM RA BR FEW008 BKN013 OVC021
                        09/08 A2973 RMK AO2 P0011 T00940078=
201605061218 SPECI KBDR 061218Z 06009KT 3SM RA BR BKN008 BKN015 OVC024
                        09/08 A2972 RMK AO2 P0009 T00940078=
201605061200 SPECI KBDR 061200Z 06011KT 2SM +RA BR FEW008 BKN012 OVC019
                        09/08 A2972 RMK AO2 P0002 T00940078=
201605061157 SPECI KBDR 061157Z 06012KT 2 1/2SM -RA BR SCT012 BKN017 OVC026
                        09/08 A2972 RMK AO2 P0001 T00940078=
201605061152 METAR KBDR 061152Z 06013KT 3SM RA BR BKN012 BKN017 OVC026
                        09/08 A2972 RMK AO2 SLP064 P0007
                        60028 70028 T00940078 10106 20089
                        53013=
201605061052 METAR KBDR 061052Z 05010KT 5SM RA BR BKN014 BKN024 OVC029
                        09/07 A2971 RMK AO2 SLP062 P0003
                        T00940072=
201605061038 SPECI KBDR 061038Z 06009KT 10SM -RA BKN014 OVC030 09/07 A2971
                        RMK AO2 P0001 T00940072=
201605060952 METAR KBDR 060952Z AUTO 05010KT 6SM -RA BR OVC041 09/07 A2968
                        RMK AO2 SLP052 P0007 T00940072=
201605060852 METAR KBDR 060852Z AUTO 03009KT 8SM -RA FEW022 BKN080 OVC090
                        09/07 A2968 RMK AO2 SLP051 P0011
                        60011 T00940067 50005=
201605060843 SPECI KBDR 060843Z AUTO 03010KT 7SM -RA SCT022 BKN043 OVC080
                        09/07 A2968 RMK AO2 P0010 T00940067=
201605060752 METAR KBDR 060752Z AUTO 04006KT 10SM -RA OVC019 10/06 A2970
                        RMK AO2 RAB39 SLP056 P0000 T01000061=
201605060652 METAR KBDR 060652Z AUTO 04010KT 10SM OVC020 11/06 A2968 RMK
                        AO2 SLP050 T01060061=
201605060552 METAR KBDR 060552Z AUTO 03011KT 10SM OVC021 11/06 A2967 RMK
                        AO2 SLP046 T01060056 10117 20100
                        56006=
201605060452 METAR KBDR 060452Z AUTO 03012KT 10SM BKN024 BKN028 OVC034
                        11/06 A2967 RMK AO2 SLP047 T01060061
                        401280083=
201605060352 METAR KBDR 060352Z AUTO 03009G18KT 10SM OVC027 11/06 A2968
                        RMK AO2 SLP049 T01110056=
201605060252 METAR KBDR 060252Z AUTO 03009KT 10SM BKN029 OVC036 11/06
                        A2969 RMK AO2 SLP052 T01110056 50007=
201605060227 SPECI KBDR 060227Z AUTO 03010KT 10SM FEW024 BKN031 OVC038
                        11/06 A2968 RMK AO2 T01110061=
201605060152 METAR KBDR 060152Z 04011KT 10SM BKN023 BKN028 OVC033 11/06
                        A2969 RMK AO2 SLP053 T01110061=
201605060052 METAR KBDR 060052Z 03012G19KT 10SM OVC023 11/07 A2967 RMK
                        AO2 SLP046 T01110067=
201605052352 METAR KBDR 052352Z 04013KT 10SM OVC023 12/06 A2967 RMK AO2
                        SLP045 T01170061 10128 20117 53006=
201605052252 METAR KBDR 052252Z 02013G21KT 10SM OVC024 12/07 A2965 RMK
                        AO2 SLP040 T01170067=
201605052152 METAR KBDR 052152Z 03014KT 10SM OVC026 13/06 A2964 RMK AO2
                        PK WND 02026/2116 SLP038 T01280061=
201605052052 METAR KBDR 052052Z 03015G21KT 10SM OVC026 13/07 A2965 RMK
                        AO2 SLP039 T01280067 56010=
201605051952 METAR KBDR 051952Z 04015G24KT 10SM OVC027 13/06 A2965 RMK
                        AO2 SLP040 T01280061=
201605051852 METAR KBDR 051852Z 03015G21KT 10SM OVC027 13/06 A2966 RMK
                        AO2 SLP043 T01280061=
201605051752 METAR KBDR 051752Z 03013KT 10SM OVC027 13/06 A2968 RMK AO2
                        SLP050 T01280056 10128 20089 58012=
201605051652 METAR KBDR 051652Z 04018G23KT 10SM OVC026 12/06 A2969 RMK
                        AO2 SLP053 T01220056=
201605051552 METAR KBDR 051552Z 04014G21KT 10SM OVC024 12/06 A2970 RMK
                        AO2 SLP058 T01170056=
201605051452 METAR KBDR 051452Z 03013KT 10SM OVC020 11/06 A2971 RMK AO2
                        SLP061 T01060056 50000=
201605051352 METAR KBDR 051352Z 03014G20KT 10SM OVC018 10/05 A2972 RMK
                        AO2 SLP063 T01000050=
201605051252 METAR KBDR 051252Z 03014G20KT 10SM OVC017 09/05 A2972 RMK
                        AO2 SLP065 T00940050=
201605051152 METAR KBDR 051152Z 02012KT 10SM OVC016 09/04 A2971 RMK AO2
                        SLP061 70012 T00890044 10089 20083
                        55000=
201605051052 METAR KBDR 051052Z 03012KT 10SM OVC016 08/04 A2971 RMK AO2
                        SLP061 T00830044=
201605050952 METAR KBDR 050952Z 02010KT 10SM OVC017 08/04 A2969 RMK AO2
                        SLP054 T00830044=
201605050852 METAR KBDR 050852Z 03011KT 10SM SCT018 OVC029 08/04 A2971
                        RMK AO2 SLP061 T00830044 55008=
201605050752 METAR KBDR 050752Z 02012G19KT 10SM OVC017 08/04 A2970 RMK
                        AO2 SLP058 T00830044=
201605050652 METAR KBDR 050652Z 03009KT 10SM BKN018 OVC024 08/05 A2972
                        RMK AO2 SLP065 T00830050=
201605050552 METAR KBDR 050552Z 03011KT 10SM BKN023 OVC028 08/05 A2973
                        RMK AO2 SLP069 60000 T00830050 10094
                        20083 58006=
201605050452 METAR KBDR 050452Z 02009KT 10SM OVC026 09/06 A2976 RMK AO2
                        SLP076 T00890056 401110089=
201605050410 SPECI KBDR 050410Z 03011KT 10SM SCT014 OVC026 09/06 A2976
                        RMK AO2 T00890056=
201605050400 SPECI KBDR 050400Z 03008KT 10SM BKN014 BKN026 OVC034 09/06
                        A2975 RMK AO2 T00890061=
201605050352 METAR KBDR 050352Z 03012KT 10SM SCT013 BKN026 OVC034 09/06
                        A2975 RMK AO2 SLP075 T00890061=
201605050252 METAR KBDR 050252Z 04012KT 10SM BKN020 OVC025 09/06 A2975
                        RMK AO2 SLP075 60000 T00890061 58001=
201605050152 METAR KBDR 050152Z 05006KT 10SM OVC020 09/07 A2978 RMK AO2
                        SLP083 T00890067=
201605050052 METAR KBDR 050052Z 02005KT 10SM OVC023 09/07 A2978 RMK AO2
                        RAE16 SLP083 P0000 T00940067=
201605042352 METAR KBDR 042352Z 05008KT 9SM -RA BKN016 OVC022 09/07 A2976
                        RMK AO2 SLP076 P0002 60012 T00940072
                        10106 20094 53009=
201605042252 METAR KBDR 042252Z 02011KT 10SM -RA BKN015 OVC024 10/08 A2972
                        RMK AO2 SLP063 P0004 T01000078=
201605042152 METAR KBDR 042152Z 05009KT 8SM -RA OVC024 11/08 A2974 RMK
                        AO2 SLP070 P0004 T01060078=
201605042052 METAR KBDR 042052Z 06011KT 10SM -RA OVC025 11/08 A2973 RMK
                        AO2 SLP067 P0002 60002 T01060083
                        56010=
201605041952 METAR KBDR 041952Z 08008KT 9SM -RA OVC025 10/08 A2974 RMK
                        AO2 RAB12 SLP070 P0000 T01000083=
201605041852 METAR KBDR 041852Z 09010KT 10SM BKN024 OVC029 11/08 A2975
                        RMK AO2 SLP074 T01060078=
201605041752 METAR KBDR 041752Z 08014KT 10SM OVC028 11/07 A2976 RMK AO2
                        SLP078 60000 T01060072 10111 20100
                        58023=
201605041652 METAR KBDR 041652Z 10017G22KT 10SM OVC029 10/07 A2979 RMK
                        AO2 SLP089 T01000067=
201605041645 SPECI KBDR 041645Z 10016G22KT 10SM OVC028 11/07 A2980 RMK
                        AO2 T01060067=
201605041623 SPECI KBDR 041623Z 10015KT 10SM OVC030 11/07 A2980 RMK AO2
                        T01110072=
201605041552 METAR KBDR 041552Z 10013KT 10SM OVC028 11/07 A2981 RMK AO2
                        SLP095 T01060072=
201605041517 SPECI KBDR 041517Z 09010KT 10SM FEW020 OVC028 11/07 A2982
                        RMK AO2 T01060067=
201605041452 METAR KBDR 041452Z 08011KT 10SM SCT021 OVC032 11/06 A2983
                        RMK AO2 SLP101 60000 T01060061 55000=
201605041402 SPECI KBDR 041402Z 09010KT 10SM OVC031 11/06 A2983 RMK AO2
                        T01060061=
201605041352 METAR KBDR 041352Z 08009KT 10SM OVC029 11/07 A2982 RMK AO2
                        SLP099 T01060067=
201605041330 SPECI KBDR 041330Z 08010KT 10SM BKN028 OVC033 11/06 A2981
                        RMK AO2 T01060061=
201605041252 METAR KBDR 041252Z 08010KT 10SM OVC033 11/06 A2981 RMK AO2
                        RAB1159E22 SLP095 P0000 T01060061=
201605041152 METAR KBDR 041152Z 08009KT 10SM OVC035 10/06 A2983 RMK AO2
                        SLP101 70012 T01000056 10106 20100
                        50005=
201605041052 METAR KBDR 041052Z 07007KT 10SM OVC033 10/06 A2983 RMK AO2
                        SLP101 T01000056=
201605040952 METAR KBDR 040952Z AUTO 05005KT 10SM OVC035 10/07 A2982 RMK
                        AO2 SLP096 T01000067=
201605040852 METAR KBDR 040852Z AUTO 03003KT 10SM OVC038 10/08 A2981 RMK
                        AO2 SLP096 T01000083 56005=
201605040811 SPECI KBDR 040811Z AUTO 04004KT 10SM FEW008 SCT012 OVC038
                        10/08 A2982 RMK AO2 T01000083=
201605040752 METAR KBDR 040752Z AUTO 01003KT 10SM BKN008 OVC012 10/08
                        A2982 RMK AO2 CIG 006V010 SLP097
                        T01000083=
201605040652 METAR KBDR 040652Z AUTO 08009KT 10SM BKN008 OVC012 10/08
                        A2982 RMK AO2 CIG 006V010 SLP097
                        T01000083=
201605040552 METAR KBDR 040552Z AUTO 09005KT 10SM OVC009 10/08 A2983 RMK
                        AO2 CIG 007V012 SLP101 T01000083
                        10100 20100 56009=
201605040500 METAR KBDR NIL=
201605040452 METAR KBDR 040452Z AUTO 10007KT 10SM OVC008 10/09 A2983 RMK
                        AO2 CIG 005V011 SLP103 T01000089
                        401170100=
201605040352 METAR KBDR 040352Z AUTO 09006KT 8SM OVC005 10/09 A2984 RMK
                        AO2 SLP104 T01000089=
201605040252 METAR KBDR 040252Z AUTO 07004KT 6SM BR OVC005 10/09 A2986
                        RMK AO2 SLP109 T01000089 50003=
201605040220 SPECI KBDR 040220Z AUTO 05003KT 3SM BR OVC006 10/09 A2986
                        RMK AO2 T01000089=
201605040211 SPECI KBDR 040211Z AUTO 05003KT 2 1/2SM BR OVC006 10/09 A2986
                        RMK AO2 T01000089=
201605040152 METAR KBDR 040152Z 00000KT 3SM BR OVC006 10/09 A2987 RMK
                        AO2 SLP115 T01000089=
201605040052 METAR KBDR 040052Z 11003KT 9SM OVC006 10/09 A2986 RMK AO2
                        SLP111 T01000089=
201605032352 METAR KBDR 032352Z 11003KT 10SM OVC006 10/09 A2985 RMK AO2
                        SLP107 T01000089 10106 20100 53006=
201605032252 METAR KBDR 032252Z 09004KT 10SM OVC006 10/09 A2984 RMK AO2
                        SLP104 T01000089=
201605032152 METAR KBDR 032152Z 09008KT 10SM OVC006 10/09 A2982 RMK AO2
                        SLP099 T01000089=
201605032052 METAR KBDR 032052Z 09007KT 10SM OVC006 10/09 A2983 RMK AO2
                        SLP101 T01000089 55003=
201605031952 METAR KBDR 031952Z 08009KT 10SM OVC005 10/09 A2982 RMK AO2
                        SLP097 T01000089=
201605031852 METAR KBDR 031852Z 11009KT 10SM OVC006 10/09 A2983 RMK AO2
                        CIG 004V008 SLP102 T01000089=
201605031814 SPECI KBDR 031814Z 10010KT 9SM OVC004 10/09 A2984 RMK AO2
                        T01000094=
201605031759 SPECI KBDR 031759Z 10010KT 7SM BKN005 OVC008 11/09 A2984
                        RMK AO2 T01060094=
201605031752 METAR KBDR 031752Z 10009KT 2 1/2SM BR OVC005 11/09 A2984
                        RMK AO2 CIG 003V009 SLP104 60012
                        T01060094 10111 20106 58014=
201605031652 METAR KBDR 031652Z 09010KT 2 1/2SM BR BKN008 BKN022 OVC027
                        11/09 A2985 RMK AO2 RAE49 SLP108
                        P0002 T01060094=
201605031646 SPECI KBDR 031646Z 10011KT 2 1/2SM -RA BR BKN008 BKN022 OVC027
                        11/09 A2985 RMK AO2 P0002=
201605031623 SPECI KBDR 031623Z 09010KT 2 1/2SM -RA BR SCT014 BKN029 OVC037
                        11/09 A2986 RMK AO2 P0001 T01060094=
201605031614 SPECI KBDR 031614Z 09011KT 2 1/2SM -RA BR FEW010 BKN013 OVC042
                        11/09 A2987 RMK AO2 P0001 T01060094=
201605031607 SPECI KBDR 031607Z 09010KT 4SM -RA BR FEW009 BKN015 OVC028
                        11/09 A2987=
201605031556 SPECI KBDR 031556Z 09009KT 3SM -RA BR BKN011 OVC021 11/09
                        A2987 RMK AO2 P0000 T01060094=
201605031552 METAR KBDR 031552Z 09009KT 2 1/2SM -RA BR BKN004 OVC014 11/09
                        A2988 RMK AO2 SLP116 P0001 T01060094=
201605031452 METAR KBDR 031452Z 07009KT 9SM -RA BKN004 OVC012 11/09 A2988
                        RMK AO2 SLP117 P0003 60009 T01060094
                        57005=
201605031405 SPECI KBDR 031405Z 08011KT 8SM -RA SCT005 BKN012 OVC018 11/09
                        A2988 RMK AO2 P0000 T01060094=
201605031352 METAR KBDR 031352Z 07011KT 8SM -RA BKN005 BKN010 OVC018 11/09
                        A2988 RMK AO2 SLP119 P0004 T01060094=
201605031342 SPECI KBDR 031342Z 07011KT 7SM -RA SCT005 BKN010 OVC016 11/09
                        A2988 RMK AO2 CIG 008V012 P0004 T01060094=
201605031335 SPECI KBDR 031335Z 07013KT 5SM RA BR BKN005 BKN010 OVC016
                        11/09 A2988 RMK AO2 CIG 004V009 P0003
                        T01060094=
201605031252 METAR KBDR 031252Z 08012KT 8SM -RA BKN004 OVC010 11/09 A2989
                        RMK AO2 SLP121 P0002 T01060094=
201605031234 SPECI KBDR 031234Z 08008KT 10SM -RA BKN004 OVC009 11/09 A2990
                        RMK AO2 P0002 T01060094=
201605031152 METAR KBDR 031152Z 07007KT 5SM -RA BR BKN005 BKN055 OVC075
                        11/10 A2989 RMK AO2 SLP122 P0010
                        60052 70052 T01110100 10117 20106
                        51003=
201605031111 SPECI KBDR 031111Z 06006KT 3SM RA BR BKN006 OVC036 11/10
                        A2989 RMK AO2 P0005 T01110100=
201605031103 SPECI KBDR 031103Z 07005KT 2 1/2SM RA BR BKN006 BKN046 OVC055
                        11/10 A2990 RMK AO2 P0003 T01110100=
201605031052 METAR KBDR 031052Z 07006KT 2 1/2SM RA BR SCT004 BKN044 OVC055
                        11/10 A2989 RMK AO2 SLP122 P0016
                        T01110100=
201605031048 SPECI KBDR 031048Z 07005KT 2 1/2SM RA BR SCT006 BKN044 OVC060
                        11/10 A2989 RMK AO2 P0014=
201605031036 SPECI KBDR 031036Z 06006KT 3SM RA BR FEW007 BKN040 OVC055
                        11/10 A2989 RMK AO2 P0011 T01110100=
201605031028 SPECI KBDR 031028Z 05006KT 2 1/2SM RA BR SCT005 BKN016 OVC040
                        11/10 A2989 RMK AO2 P0009 T01110100=
201605031015 SPECI KBDR 031015Z 06005KT 3SM RA BR FEW005 BKN015 OVC040
                        11/10 A2989 RMK AO2 P0006 T01110100=
201605030952 METAR KBDR 030952Z 07006KT 3SM RA BR SCT005 BKN035 OVC055
                        11/10 A2988 RMK AO2 SLP119 P0008
                        T01110100=
201605030909 SPECI KBDR 030909Z 06007KT 4SM -RA BR FEW008 SCT018 OVC055
                        11/10 A2987 RMK AO2 P0001 T01110100=
201605030852 METAR KBDR 030852Z 04007KT 4SM -RA BR SCT007 BKN017 OVC060
                        11/10 A2987 RMK AO2 SLP115 P0010
                        60018 T01110100 58019=
201605030833 SPECI KBDR 030833Z 04006KT 3SM RA BR FEW006 SCT040 OVC060
                        11/10 A2988 RMK AO2 P0008 T01110100=
201605030752 METAR KBDR 030752Z 05005KT 3SM -RA BR BKN070 OVC090 11/11
                        A2989 RMK AO2 SLP121 P0007 T01110106=
201605030652 METAR KBDR 030652Z 16003KT 4SM -RA BR FEW031 BKN070 OVC095
                        11/10 A2992 RMK AO2 RAB12 SLP130
                        P0001 T01110100=
201605030621 SPECI KBDR 030621Z 00000KT 4SM -RA BR BKN030 BKN037 OVC055
                        11/11 A2991 RMK AO2 RAB12 P0000 T01110106=
201605030610 SPECI KBDR 030610Z 00000KT 4SM BR BKN029 11/10 A2992 RMK
                        AO2 T01110100=
201605030552 METAR KBDR 030552Z 00000KT 5SM BR FEW120 12/11 A2993 RMK
                        AO2 SLP134 T01170106 10122 20106
                        58006=
201605030452 METAR KBDR 030452Z 00000KT 5SM BR BKN065 11/10 A2994 RMK
                        AO2 SLP137 T01110100 401330072=
201605030352 METAR KBDR 030352Z 00000KT 5SM BR BKN075 11/09 A2995 RMK
                        AO2 SLP141 T01110094=
201605030252 METAR KBDR 030252Z 00000KT 5SM BR CLR 11/09 A2995 RMK AO2
                        SLP140 T01110094 51009=
201605030152 METAR KBDR 030152Z 02003KT 7SM CLR 11/09 A2993 RMK AO2 SLP136
                        T01110094=
201605030052 METAR KBDR 030052Z 21003KT 8SM CLR 12/10 A2994 RMK AO2 SLP138
                        T01170100=
201605022352 METAR KBDR 022352Z 23004KT 7SM CLR 12/10 A2992 RMK AO2 SLP132
                        T01220100 10133 20111 53008=
201605022324 SPECI KBDR 022324Z 22005KT 9SM SCT023 12/10 A2991 RMK AO2
                        T01220100=
201605022252 METAR KBDR 022252Z 21004KT 9SM BKN019 OVC023 13/09 A2989
                        RMK AO2 SLP121 T01280094=
201605022152 METAR KBDR 022152Z 23006KT 10SM OVC019 13/10 A2991 RMK AO2
                        SLP127 T01330100=
201605022052 METAR KBDR 022052Z 23004KT 8SM OVC016 12/09 A2990 RMK AO2
                        SLP124 T01220094 56002=
201605021952 METAR KBDR 021952Z 21007KT 9SM OVC012 12/09 A2990 RMK AO2
                        SLP125 T01170089=
201605021925 SPECI KBDR 021925Z 21005KT 10SM OVC010 11/09 A2991 RMK AO2
                        CIG 007V012 T01110089=
201605021852 METAR KBDR 021852Z 20006KT 10SM OVC008 12/09 A2990 RMK AO2
                        PRESFR SLP126 T01170089=
201605021752 METAR KBDR 021752Z 22003KT 10SM OVC009 11/08 A2993 RMK AO2
                        SLP136 60000 T01110083 10111 20083
                        58005=
201605021744 SPECI KBDR 021744Z 00000KT 10SM OVC009 11/09 A2994 RMK AO2
                        T01110089=
201605021652 METAR KBDR 021652Z 12004KT 10SM FEW007 OVC012 10/08 A2994
                        RMK AO2 SLP139 T01000083=
201605021649 SPECI KBDR 021649Z 11004KT 10SM SCT007 OVC014 10/08 A2994
                        RMK AO2=
201605021552 METAR KBDR 021552Z 06007KT 10SM OVC005 11/08 A2995 RMK AO2
                        RAE42 SLP141 P0000 T01060083=
201605021516 SPECI KBDR 021516Z 00000KT 10SM -RA OVC005 09/08 A2999 RMK
                        AO2 P0000 T00940078=
201605021459 SPECI KBDR 021459Z 22005KT 9SM -RA OVC004 09/08 A3001 RMK
                        AO2 P0000 T00940078=
201605021452 METAR KBDR 021452Z 21008KT 8SM -RA OVC005 09/08 A3001 RMK
                        AO2 RAB51 PRESRR SLP161 P0000 60000
                        T00940078 53001=
201605021352 METAR KBDR 021352Z 09006KT 10SM OVC007 10/08 A2999 RMK AO2
                        SLP153 T01000078 $=
201605021252 METAR KBDR 021252Z 05006KT 10SM OVC005 09/07 A3000 RMK AO2
                        SLP160 T00890072 $=
201605021240 SPECI KBDR 021240Z 05007KT 10SM OVC004 09/07 A3000 RMK AO2
                        T00890072 $=
201605021152 METAR KBDR 021152Z 03005KT 10SM OVC005 08/07 A3002 RMK AO2
                        SLP166 70013 T00830067 10083 20072
                        53001 $=
201605021052 METAR KBDR 021052Z 06007KT 10SM OVC006 08/06 A3001 RMK AO2
                        SLP161 T00780061 $=
201605020952 METAR KBDR 020952Z AUTO 03009KT 10SM BKN006 OVC014 07/06
                        A3001 RMK AO2 SLP160 T00720061 $=
201605020852 METAR KBDR 020852Z AUTO 02005KT 4SM BR OVC006 08/06 A3002
                        RMK AO2 SLP164 T00780061 58010 $=
201605020752 METAR KBDR 020752Z AUTO 33004KT 10SM OVC008 08/06 A3004 RMK
                        AO2 CIG 005V010 SLP172 T00780061
                        $=
201605020652 METAR KBDR 020652Z AUTO 02008KT 10SM OVC007 07/06 A3004 RMK
                        AO2 SLP171 T00720061 $=
201605020552 METAR KBDR 020552Z AUTO 04006KT 10SM OVC006 07/06 A3005 RMK
                        AO2 CIG 004V008 SLP174 60000 T00720061
                        10072 20061 58016 $=
201605020452 METAR KBDR 020452Z AUTO 04005KT 5SM BR OVC006 07/06 A3008
                        RMK AO2 CIG 003V008 SLP186 T00670056
                        401000061 $=
201605020352 METAR KBDR 020352Z AUTO 03008KT 4SM BR OVC007 07/06 A3009
                        RMK AO2 CIG 004V008 SLP188 T00670056
                        $=
201605020252 METAR KBDR 020252Z AUTO 03008KT 5SM BR OVC005 07/06 A3010
                        RMK AO2 CIG 004V008 SLP191 60000
                        T00670056 58013 $=
201605020152 METAR KBDR 020152Z 04006KT 5SM BR OVC006 07/05 A3013 RMK
                        AO2 SLP201 T00670050 $=
201605020052 METAR KBDR 020052Z 04009KT 7SM OVC006 07/06 A3013 RMK AO2
                        RAE20 CIG 004V009 SLP203 P0000 T00670056
                        $=
201605012352 METAR KBDR 012352Z 08014KT 6SM -RA BR OVC006 07/05 A3013
                        RMK AO2 CIG 005V009 SLP203 P0003
                        60008 T00670050 10094 20061 57012
                        $=
201605012323 SPECI KBDR 012323Z 07014KT 4SM -RA BR BKN006 OVC010 07/05
                        A3014 RMK AO2 P0002 T00670050 $=
201605012308 SPECI KBDR 012308Z 07014KT 2SM -RA BR BKN008 OVC014 07/05
                        A3014 RMK AO2 P0001 T00670050 $=
201605012252 METAR KBDR 012252Z 08014KT 3SM -RA BR OVC009 07/05 A3014
                        RMK AO2 RAE02B21 CIG 006V012 SLP207
                        P0001 T00670050 $=
201605012214 SPECI KBDR 012214Z 08014KT 4SM BR BKN008 BKN015 OVC031 07/05
                        A3016 RMK AO2 RAE02 P0000 T00670050
                        $=
201605012207 SPECI KBDR 012207Z 08012KT 4SM BR SCT008 BKN015 OVC031 07/05
                        A3016 RMK AO2 RAE02 P0000 T00720050
                        $=
201605012152 METAR KBDR 012152Z 08013KT 4SM -RA BR SCT010 OVC015 07/05
                        A3015 RMK AO2 RAE16B29 SLP211 P0001
                        T00720050 $=
201605012139 SPECI KBDR 012139Z 08013KT 3SM -RA BR SCT008 OVC013 07/05
                        A3016 RMK AO2 RAE16B29 P0001 T00720050
                        $=
201605012127 SPECI KBDR 012127Z 08012KT 4SM BR BKN013 OVC018 07/05 A3017
                        RMK AO2 RAE16 P0001 T00720050 $=
201605012052 METAR KBDR 012052Z 09010KT 5SM -RA BKN017 OVC021 07/04 A3017
                        RMK AO2 SLP215 P0002 60003 T00720044
                        55007 $=
201605011952 METAR KBDR 011952Z 10012KT 4SM -RA BKN015 BKN027 OVC033 08/06
                        A3017 RMK AO2 SLP214 P0001 T00830056
                        $=
201605011852 METAR KBDR 011852Z 12009KT 7SM -RA BKN020 OVC027 09/05 A3018
                        RMK AO2 SLP218 P0000 T00890050 $=
201605011810 SPECI KBDR 011810Z 11010KT 9SM -RA FEW010 BKN028 OVC035 09/06
                        A3018 RMK AO2 P0000 T00940061 $=
201605011801 SPECI KBDR 011801Z 12009KT 10SM -RA SCT012 SCT019 OVC032
                        09/07 A3018 RMK AO2 P0000 T00940067
                        $=
201605011752 METAR KBDR 011752Z 11009KT 9SM -RA SCT010 BKN014 OVC039 09/07
                        A3019 RMK AO2 SLP222 P0002 60005
                        T00940072 10100 20089 56015 $=
201605011743 SPECI KBDR 011743Z 13008KT 10SM -RA FEW010 BKN020 OVC042
                        09/07 A3019 RMK AO2 P0001 T00940072
                        $=
201605011729 SPECI KBDR 011729Z 12007KT 10SM -RA SCT012 SCT023 OVC042
                        09/07 A3019 RMK AO2 P0001 T00940072
                        $=
201605011710 SPECI KBDR 011710Z 13009KT 5SM -RA BKN012 OVC045 09/07 A3019
                        RMK AO2 P0001 T00940067 $=
201605011652 METAR KBDR 011652Z 12007KT 10SM -RA FEW012 OVC047 10/07 A3020
                        RMK AO2 RAB10 SLP225 P0000 T01000072
                        $=
201605011552 METAR KBDR 011552Z 12009KT 10SM FEW012 OVC055 09/06 A3022
                        RMK AO2 RAE46 SLP233 P0001 T00940061
                        $=
201605011452 METAR KBDR 011452Z 11006KT 10SM -RA OVC060 09/06 A3023 RMK
                        AO2 RAE23B43 SLP237 P0001 60002 T00940061
                        50000 $=
201605011352 METAR KBDR 011352Z 13009KT 9SM -RA BKN070 OVC090 09/05 A3024
                        RMK AO2 SLP239 P0001 T00890050 $=
201605011252 METAR KBDR 011252Z 13005KT 10SM -RA 09/06 A3025 RMK AO2 RAB1156E07B50
                        SLP242 P0000 T00940056 $=
201605011152 METAR KBDR 011152Z 12008KT 10SM OVC080 09/04 A3023 RMK AO2
                        SLP237 T00940039 10100 20089 53005=
201605011052 METAR KBDR 011052Z 10008KT 10SM OVC090 09/04 A3022 RMK AO2
                        SLP231 T00940039=
201605010952 METAR KBDR 010952Z AUTO 12004KT 10SM OVC100 09/04 A3022 RMK
                        AO2 SLP233 T00940044=
201605010852 METAR KBDR 010852Z AUTO 13004KT 10SM BKN120 09/04 A3022 RMK
                        AO2 SLP232 T00890039 55003=
201605010752 METAR KBDR 010752Z AUTO 12003KT 10SM CLR 09/03 A3021 RMK
                        AO2 SLP230 T00940033=
201605010652 METAR KBDR 010652Z AUTO 00000KT 10SM CLR 09/03 A3021 RMK
                        AO2 SLP230 T00940028=
201605010552 METAR KBDR 010552Z AUTO 20003KT 10SM CLR 09/03 A3022 RMK
                        AO2 SLP234 T00940028 10117 20089
                        58012=
201605010452 METAR KBDR 010452Z AUTO 20003KT 10SM CLR 09/03 A3025 RMK
                        AO2 SLP243 T00940028 401670072=
201605010352 METAR KBDR 010352Z AUTO 20003KT 10SM CLR 09/03 A3025 RMK
                        AO2 SLP244 T00940033=
201605010252 METAR KBDR 010252Z AUTO 18005KT 10SM CLR 09/03 A3026 RMK
                        AO2 SLP247 T00890033 51003=
201605010152 METAR KBDR 010152Z 20006KT 10SM CLR 10/04 A3026 RMK AO2 SLP247
                        T01000039=
201605010052 METAR KBDR 010052Z 19007KT 10SM CLR 11/03 A3026 RMK AO2 SLP245
                        T01060033=

# No short TAF reports from KBDR in databse.

###################################
#  large TAF from KBDR
###################################
201605312323 TAF KBDR 312323Z 0100/0124 23005KT P6SM SKC FM010100 VRB03KT P6SM
                       SKC FM011200 04006KT P6SM FEW250 FM011500
                       07007KT P6SM FEW250 FM011700 12012KT P6SM
                       SCT250=
201605312134 TAF AMD KBDR 312134Z 3122/0118 21008KT P6SM SKC FM010000 VRB04KT
                       P6SM FEW080 FM010400 02004KT P6SM FEW080
                       FM011200 03007KT P6SM BKN080 BKN250 FM011600
                       10009KT P6SM BKN250=
201605312040 TAF AMD KBDR 312040Z 3121/0118 21008KT P6SM FEW060 FM312300 VRB04KT
                       P6SM FEW080 FM010400 02004KT P6SM FEW080
                       FM011200 03007KT P6SM BKN080 BKN250 FM011600
                       10009KT P6SM BKN250=
201605311934 TAF AMD KBDR 311934Z 3120/0118 22008KT P6SM SCT060 FM312300 VRB04KT
                       P6SM FEW080 FM010400 02004KT P6SM FEW080
                       FM011200 03007KT P6SM BKN080 BKN250 FM011600
                       10009KT P6SM BKN250=
201605311733 TAF KBDR 311733Z 3118/0118 22008KT P6SM SCT060 FM312300 VRB04KT
                       P6SM FEW080 FM010400 02004KT P6SM FEW080
                       FM011200 03007KT P6SM BKN080 BKN250 FM011600
                       10009KT P6SM BKN250=
201605311540 TAF AMD KBDR 311540Z 3116/0112 23008KT P6SM SCT050 FM311800 22008KT
                       P6SM SCT060 FM312300 VRB04KT P6SM FEW080
                       FM010400 02004KT P6SM FEW080=
201605311321 TAF AMD KBDR 311321Z 3113/0112 22004KT P6SM VCFG SCT008 BKN200
                       FM311500 23008KT P6SM SCT050 FM311800 22008KT
                       P6SM SCT060 FM312300 VRB04KT P6SM FEW080
                       FM010400 02004KT P6SM FEW080=
201605311143 TAF KBDR 311143Z 3112/0112 24004KT P6SM VCFG SCT008 BKN200 FM311500
                       23008KT P6SM SCT050 FM311800 22008KT P6SM
                       SCT060 FM312300 VRB04KT P6SM FEW080 FM010400
                       02004KT P6SM FEW080=
201605310846 TAF AMD KBDR 310846Z 3109/0106 VRB04KT P6SM SCT015 SCT250 FM311400
                       28006KT P6SM BKN025 FM311500 22008KT P6SM
                       SCT060 FM312300 VRB04KT P6SM FEW080=
201605310721 TAF AMD KBDR 310721Z 3107/0106 24005KT P6SM OVC010
                      TEMPO 3109/3112 OVC009 FM311300 28006KT P6SM
                       BKN025 FM311500 22008KT P6SM SCT060 FM312300
                       VRB04KT P6SM FEW080=
201605310547 TAF KBDR 310547Z 3106/0106 23006KT P6SM SCT015 SCT120 BKN250 FM310800
                       24004KT P6SM BKN015
                      TEMPO 3110/3112 OVC009 FM311300 28006KT P6SM
                       BKN025 FM311500 22008KT P6SM SCT060 FM312300
                       VRB04KT P6SM FEW080=
201605310223 TAF AMD KBDR 310223Z 3102/3124 22006KT P6SM OVC009
                      TEMPO 3103/3106 SCT009 BKN150 FM310600 VRB04KT
                       4SM BR SCT010 BKN090
                      TEMPO 3108/3111 2SM BR BKN010 FM311200 34006KT
                       P6SM SCT090 BKN250 FM311600 22008KT P6SM
                       FEW040 SCT250=
201605310015 TAF KBDR 310015Z 3100/3124 21008KT P6SM SCT009 BKN130
                      TEMPO 3100/3102 BKN009 FM310300 VRB04KT 4SM
                       BR SCT010 BKN040
                      TEMPO 3108/3111 2SM BR BKN010 FM311200 34006KT
                       P6SM SCT090 BKN250 FM311600 22008KT P6SM
                       FEW040 SCT250=
201605302152 TAF AMD KBDR 302152Z 3022/3118 19009KT P6SM FEW030 BKN130 FM310300
                       VRB04KT 4SM BR VCSH SCT010 BKN040
                      TEMPO 3108/3112 2SM BR BKN010 FM311200 34006KT
                       P6SM SCT040 BKN250 FM311600 22007KT P6SM
                       FEW040 SCT250=
201605301943 TAF AMD KBDR 301943Z 3020/3118 19009KT P6SM FEW025 BKN040 FM310100
                       20006KT P6SM VCSH BKN040 FM310300 VRB04KT
                       4SM BR SCT010 BKN040
                      TEMPO 3108/3112 2SM BR BKN010 FM311200 34006KT
                       P6SM SCT040 BKN250 FM311600 22007KT P6SM
                       FEW040 SCT250=
201605301740 TAF KBDR 301740Z 3018/3118 17006KT P6SM FEW007 BKN025 BKN050 FM302000
                       19009KT P6SM FEW025 BKN040 FM310100 20006KT
                       P6SM VCSH BKN040 FM310300 VRB04KT 4SM BR
                       SCT010 BKN040
                      TEMPO 3108/3112 2SM BR BKN010 FM311200 34006KT
                       P6SM SCT040 BKN250 FM311600 22007KT P6SM
                       FEW040 SCT250=
201605301504 TAF AMD KBDR 301504Z 3015/3112 VRB06KT P6SM VCSH OVC005 FM301600
                       19006KT P6SM VCSH SCT002 OVC007 FM301800
                       17006KT P6SM SCT007 BKN050
                      TEMPO 3018/3019 OVC025 FM302100 19008KT P6SM
                       VCSH BKN040 FM310100 20007KT P6SM VCSH BKN040
                       FM310300 23004KT 4SM BR BKN040=
201605301346 TAF AMD KBDR 301346Z 3014/3112 VRB06KT 2SM -SHRA BR OVC002 FM301500
                       19006KT 4SM BR VCSH SCT002 OVC007 FM301700
                       17006KT P6SM SCT007 BKN050
                      TEMPO 3017/3018 4SM -SHRA OVC025 FM302100
                       19008KT P6SM VCSH BKN040 FM310100 20007KT
                       P6SM VCSH BKN040 FM310300 23004KT 4SM BR
                       BKN040=
201605301208 TAF KBDR 301208Z 3012/3112 08005KT 1SM -SHRA BR OVC002 FM301400
                       18006KT 4SM -SHRA BR OVC007 FM301600 17006KT
                       P6SM BKN050
                      TEMPO 3016/3017 4SM -SHRA OVC025 FM302100
                       19008KT P6SM VCSH BKN040 FM310100 20007KT
                       P6SM VCSH BKN040 FM310300 23004KT 4SM BR
                       BKN040=
201605300920 TAF AMD KBDR 300920Z 3009/3106 09007KT 4SM SHRA BR SCT007 BKN015
                       TEMPO 3009/3010 2SM +SHRA BR BKN007 FM301100
                       VRB05KT 4SM -SHRA BR SCT007 BKN015 FM301400
                       19007KT 4SM BR VCSH BKN015 FM302300 20008KT
                       2SM BR BKN005 FM310300 VRB03KT 1SM BR OVC002=
201605300600 TAF KBDR 300600Z 3006/3106 09004KT 1SM BR OVC002 FM300800 12005KT
                       2SM SHRA BR OVC002
                      TEMPO 3010/3012 1SM +SHRA BR FM301200 18006KT
                       2SM SHRA BR OVC005
                      TEMPO 3012/3014 1SM +SHRA BR FM301400 20007KT
                       2SM SHRA BR BKN005 OVC010 FM301800 18008KT
                       3SM SHRA BR SCT005 BKN010 FM302300 20008KT
                       2SM BR BKN005 FM310300 VRB03KT 1SM BR OVC002=
201605300309 TAF AMD KBDR 300309Z 3003/3024 14006KT P6SM OVC009
                      TEMPO 3003/3006 1 1/2SM BR BKN004 FM300600
                       15005KT 4SM -SHRA BR BKN007 BKN015
                      TEMPO 3006/3008 2SM SHRA BR FM300800 18005KT
                       2SM SHRA BR BKN007 OVC015
                      TEMPO 3010/3014 1SM +SHRA BR FM301400 20008KT
                       2SM SHRA BR BKN005 OVC010 FM301800 22008KT
                       3SM SHRA BR SCT005 BKN010=
201605300236 TAF AMD KBDR 300236Z 3003/3024 14006KT P6SM OVC009 FM300600 15005KT
                       4SM -SHRA BR BKN007 BKN015
                      TEMPO 3006/3008 2SM SHRA BR FM300800 18005KT
                       2SM SHRA BR BKN007 OVC015
                      TEMPO 3010/3014 1SM +SHRA BR FM301400 20008KT
                       2SM SHRA BR BKN005 OVC010 FM301800 22008KT
                       3SM SHRA BR SCT005 BKN010=
201605292341 TAF KBDR 292341Z 3000/3024 19009KT P6SM FEW009 BKN050 FM300200
                       17007KT 3SM -SHRA BR BKN007 BKN015 FM300700
                       18005KT 2SM SHRA BR BKN007 OVC015
                      TEMPO 3010/3014 1SM +SHRA BR FM301400 20008KT
                       2SM SHRA BR BKN005 OVC010 FM301800 22008KT
                       3SM SHRA BR SCT005 BKN010=
201605292340 TAF KBDR 292340Z 3000/3024 19009KT 1SM BR FEW009 BKN050 FM300200
                       17007KT 3SM -SHRA BR BKN007 BKN015 FM300700
                       18005KT 2SM SHRA BR BKN007 OVC015
                      TEMPO 3010/3014 1SM +SHRA BR FM301400 20008KT
                       2SM SHRA BR BKN005 OVC010 FM301800 22008KT
                       3SM SHRA BR SCT005 BKN010=
201605292005 TAF AMD KBDR 292005Z 2920/3018 17011KT P6SM FEW010 BKN200 FM292200
                       17008KT 3SM BR BKN010 BKN150 FM300000 17006KT
                       1SM BR BKN009 BKN040 FM300200 17005KT 1SM
                       -SHRA BR BKN007 BKN015 FM300700 18005KT
                       1SM SHRA BR BKN007 OVC015 FM301200 20008KT
                       1SM SHRA BR BKN005 OVC010=
201605291914 TAF AMD KBDR 291914Z 2919/3018 12008KT P6SM SCT250 FM292000 15011KT
                       P6SM BKN200 FM300000 17007KT 5SM BR SCT010
                       BKN150 FM300100 17006KT 1SM BR BKN010 BKN040
                       FM300200 17005KT 1SM -SHRA BR BKN007 BKN015
                       FM300700 18005KT 1SM SHRA BR BKN007 OVC015
                       FM301200 20008KT 1SM SHRA BR BKN005 OVC010=
201605291741 TAF KBDR 291741Z 2918/3018 12008KT P6SM SCT250 FM292000 15011KT
                       P6SM BKN200 FM292300 17007KT P6SM SCT015
                       BKN150 FM300000 17006KT P6SM VCSH BKN020
                       BKN040 FM300100 17005KT 4SM -SHRA BR BKN007
                       BKN015 FM300700 18005KT 2SM SHRA BR BKN007
                       OVC015 FM301200 20008KT 1SM SHRA BR BKN005
                       OVC010=
201605291440 TAF AMD KBDR 291440Z 2915/3012 18008KT P6SM SCT250 FM292000 15011KT
                       P6SM BKN200 FM300200 VRB05KT P6SM VCSH SCT015
                       BKN150 FM300400 VRB04KT 4SM -SHRA BR BKN007
                       BKN015 FM300700 VRB03KT 2SM SHRA BR BKN007
                       OVC015=
201605291120 TAF KBDR 291120Z 2912/3012 21006KT P6SM SKC FM291500 18008KT P6SM
                       SCT250 FM292000 15011KT P6SM BKN200 FM300200
                       VRB05KT P6SM VCSH SCT015 BKN150 FM300400
                       VRB04KT 4SM -SHRA BR BKN007 BKN015 FM300700
                       VRB03KT 2SM SHRA BR BKN007 OVC015=
201605290833 TAF AMD KBDR 290833Z 2909/3006 VRB03KT P6SM SKC FM291300 20006KT
                       P6SM SKC FM291600 18007KT P6SM SCT250 FM292000
                       15009KT P6SM BKN200 FM300200 VRB05KT P6SM
                       VCSH SCT015 BKN150 FM300400 VRB04KT 4SM
                       -SHRA BR BKN007 BKN015=
201605290547 TAF KBDR 290547Z 2906/3006 VRB03KT P6SM SKC FM291300 20006KT P6SM
                       SKC FM291600 18007KT P6SM SCT250 FM292000
                       15009KT P6SM BKN200 FM300200 VRB05KT P6SM
                       VCSH SCT015 BKN150 FM300400 VRB04KT 4SM
                       -SHRA BR BKN007 BKN015=
201605290212 TAF AMD KBDR 290212Z 2902/2924 22006KT P6SM BKN110 FM291400 21007KT
                       P6SM FEW250 FM291900 19009KT P6SM SCT250=
201605282339 TAF KBDR 282339Z 2900/2924 23008KT P6SM SCT250 FM290100 23004KT
                       P6SM SKC FM291400 21007KT P6SM FEW250 FM291900
                       19009KT P6SM SCT250=
201605282023 TAF AMD KBDR 282023Z 2820/2918 19011KT P6SM FEW060 SCT250 FM290100
                       23004KT P6SM SKC FM291400 21007KT P6SM FEW250=
201605281740 TAF KBDR 281740Z 2818/2918 21010KT P6SM SCT250 FM290100 23004KT
                       P6SM SKC FM291400 21007KT P6SM FEW250=
201605281441 TAF AMD KBDR 281441Z 2815/2912 22008KT P6SM SCT250 FM281700 18010KT
                       P6SM FEW050 SCT250 FM290000 22007KT P6SM
                       SCT250 FM290300 VRB03KT P6SM SKC=
201605281120 TAF KBDR 281120Z 2812/2912 22008KT P6SM SCT250 FM281700 18010KT
                       P6SM FEW050 SCT250 FM290000 22007KT P6SM
                       SCT250 FM290300 VRB03KT P6SM SKC=
201605280825 TAF AMD KBDR 280825Z 2808/2906 VRB04KT P6SM SCT250 FM281300 22007KT
                       P6SM SCT250 FM281700 18010KT P6SM FEW050
                       SCT250 FM282300 21008KT P6SM SCT250 FM290200
                       VRB03KT P6SM SKC=
201605280556 TAF KBDR 280556Z 2806/2906 VRB04KT P6SM SCT250 FM281300 22007KT
                       P6SM SCT250 FM281700 18010KT P6SM FEW050
                       SCT250 FM282300 21008KT P6SM SCT250 FM290200
                       VRB03KT P6SM SKC=
201605280239 TAF AMD KBDR 280239Z 2803/2824 20005KT P6SM SCT060 SCT250 FM280400
                       22005KT 6SM BR SCT250 FM280800 21004KT 5SM
                       BR SCT250 FM281300 21006KT 6SM HZ SCT250
                       FM281500 22009KT P6SM SCT250=
201605272355 TAF KBDR 272355Z 2800/2824 20005KT P6SM SCT060 SCT250 FM280400
                       22005KT 6SM BR SCT250 FM280800 21004KT 5SM
                       BR SCT250 FM281400 22009KT P6SM SCT250=
201605272141 TAF AMD KBDR 272141Z 2722/2818 13005KT P6SM FEW070 SCT150 FM272300
                       17009KT P6SM SCT250 FM280100 20008KT P6SM
                       SCT250 FM280400 22005KT P6SM SCT250 FM281500
                       22008KT P6SM SCT250=
201605271945 TAF AMD KBDR 271945Z 2720/2818 09008KT P6SM SCT150 FM272100 17009KT
                       P6SM SCT250 FM272300 20008KT P6SM SCT250
                       FM280400 22005KT P6SM SCT250 FM281500 22008KT
                       P6SM SCT250=
201605271740 TAF KBDR 271740Z 2718/2818 09008KT P6SM SCT150 FM272100 17009KT
                       P6SM SCT250 FM272300 20008KT P6SM SCT250
                       FM280400 22005KT P6SM SCT250 FM281500 22008KT
                       P6SM SCT250=
201605271543 TAF AMD KBDR 271543Z 2716/2812 09008KT P6SM SCT150 FM272100 17009KT
                       P6SM SCT250 FM272300 20008KT P6SM FEW100
                       BKN250 FM280400 VRB05KT P6SM FEW050 BKN250
                       FM280800 VRB03KT 5SM BR BKN250=
201605271343 TAF AMD KBDR 271343Z 2714/2812 09008KT P6SM SCT150 FM271700 17009KT
                       P6SM SCT150 SCT250 FM272300 20008KT P6SM
                       FEW100 BKN250 FM280400 VRB05KT P6SM FEW050
                       BKN250 FM280800 VRB03KT 5SM BR BKN250=
201605271127 TAF KBDR 271127Z 2712/2812 VRB04KT P6SM SCT080 BKN250 FM271300
                       17009KT P6SM SCT150 SCT250 FM272300 20008KT
                       P6SM FEW100 BKN250 FM280400 VRB05KT P6SM
                       FEW050 BKN250 FM280800 VRB03KT 5SM BR BKN250=
201605270835 TAF AMD KBDR 270835Z 2709/2806 VRB03KT P6SM BKN250 FM271300 16008KT
                       P6SM SCT150 SCT250 FM272300 20008KT P6SM
                       FEW100 BKN250 FM280400 VRB04KT P6SM FEW050
                       BKN250=
201605270550 TAF KBDR 270550Z 2706/2806 VRB04KT P6SM SCT250 FM271000 VRB04KT
                       6SM HZ BKN250 FM271300 16008KT P6SM SCT150
                       SCT250 FM272300 20008KT P6SM FEW100 BKN250
                       FM280400 VRB04KT P6SM FEW050 BKN250=
201605270250 TAF AMD KBDR 270250Z 2703/2724 VRB04KT P6SM SCT150 SCT250 FM270800
                       VRB03KT 6SM BR SCT090 BKN120 FM271000 VRB04KT
                       5SM HZ BKN080 FM271300 VRB04KT 6SM HZ BKN080
                       FM271500 20008KT P6SM SCT060 SCT100 FM272000
                       21010KT 6SM HZ SCT100 SCT250=
201605262350 TAF KBDR 262350Z 2700/2724 21004KT P6SM SCT250 FM270400 VRB04KT
                       P6SM SCT150 SCT250 FM270800 VRB03KT 5SM
                       BR SCT090 BKN120 FM271000 VRB04KT 5SM HZ
                       BKN080 FM271300 VRB04KT 6SM HZ BKN080 FM271500
                       20008KT P6SM SCT060 SCT100 FM272000 21010KT
                       6SM HZ SCT100 SCT250=
201605261942 TAF AMD KBDR 261942Z 2620/2718 11008KT P6SM SCT250 FM262100 19007KT
                       P6SM SCT250 FM270300 18004KT P6SM FEW120
                       SCT250 FM271400 19008KT P6SM SCT100 SCT250=
201605261740 TAF KBDR 261740Z 2618/2718 21009KT P6SM FEW150 SCT250 FM270300
                       18004KT P6SM FEW120 SCT250 FM271400 19008KT
                       P6SM SCT100 SCT250=
201605261552 TAF AMD KBDR 261552Z 2616/2712 21009KT P6SM SCT250 FM270000 VRB04KT
                       P6SM BKN250=
201605261343 TAF AMD KBDR 261343Z 2614/2712 21004KT P6SM SCT250 FM261500 21009KT
                       P6SM SCT100 SCT250 FM270000 VRB04KT P6SM
                       BKN250=
201605261130 TAF KBDR 261130Z 2612/2712 VRB04KT P6SM SCT250 FM261500 21009KT
                       P6SM SCT100 SCT250 FM270000 VRB04KT P6SM
                       BKN250=
201605260833 TAF AMD KBDR 260833Z 2609/2706 VRB04KT P6SM SCT250 FM261500 21009KT
                       P6SM SCT100 SCT250=
201605260532 TAF KBDR 260532Z 2606/2706 VRB04KT P6SM FEW250 FM261500 21009KT
                       P6SM SCT100 SCT250=
201605260230 TAF AMD KBDR 260230Z 2603/2624 VRB04KT P6SM FEW250 FM261500 21006KT
                       P6SM SCT100 SCT250 FM261800 20010KT P6SM
                       SCT100 SCT250=
201605252323 TAF KBDR 252323Z 2600/2624 23006KT P6SM FEW250 FM260300 VRB04KT
                       P6SM FEW250 FM261500 21006KT P6SM SCT100
                       SCT250 FM261800 20010KT P6SM SCT100 SCT250=
201605252106 TAF AMD KBDR 252106Z 2521/2618 22012KT P6SM FEW250 FM252300 25009KT
                       P6SM FEW250 FM260200 VRB05KT P6SM FEW080
                       FEW250=
201605251933 TAF AMD KBDR 251933Z 2520/2618 22012KT P6SM FEW250 FM252300 25009KT
                       P6SM FEW250 FM260200 VRB05KT P6SM FEW080
                       FEW250=
201605251720 TAF KBDR 251720Z 2518/2618 22012KT P6SM FEW250 FM252300 25009KT
                       P6SM FEW250 FM260200 VRB05KT P6SM FEW080
                       FEW250=
201605251529 TAF AMD KBDR 251529Z 2515/2612 24007KT P6SM FEW250 FM251600 24011KT
                       P6SM FEW250 FM252300 26006KT P6SM FEW080
                       FM260500 00000KT P6SM SCT080=
201605251333 TAF AMD KBDR 251333Z 2514/2612 24007KT P6SM FEW250 FM251600 24011KT
                       P6SM FEW250 FM252300 26006KT P6SM FEW080
                       FM260500 00000KT P6SM SCT080=
201605251131 TAF KBDR 251131Z 2512/2612 26007KT P6SM FEW250 FM251600 24011KT
                       P6SM FEW250 FM252300 26006KT P6SM FEW080
                       FM260500 00000KT P6SM SCT080=
201605250837 TAF AMD KBDR 250837Z 2509/2606 00000KT 3/4SM BR VV002 FM251200
                       26007KT P6SM FEW250
                      TEMPO 2512/2513 4SM HZ FM251600 24011KT P6SM
                       FEW250 FM252300 26006KT P6SM FEW080 FM260500
                       00000KT P6SM SCT080=
201605250706 TAF AMD KBDR 250706Z 2507/2606 00000KT 1/4SM FG VV002 FM251100
                       VRB03KT 1SM BR SCT002 FM251200 26007KT P6SM
                       FEW250
                      TEMPO 2512/2513 4SM HZ FM251600 24011KT P6SM
                       FEW250 FM252300 26006KT P6SM FEW080 FM260500
                       00000KT P6SM SCT080=
201605250534 TAF KBDR 250534Z 2506/2606 00000KT P6SM SKC FM250800 00000KT 4SM
                       BR SKC FM251200 26007KT P6SM FEW250 FM251600
                       24011KT P6SM FEW250 FM252300 26006KT P6SM
                       FEW080 FM260500 00000KT P6SM SCT080=
201605250231 TAF AMD KBDR 250231Z 2503/2524 VRB03KT P6SM BKN100 FM251200 26007KT
                       P6SM FEW250 FM251600 25009KT P6SM FEW250=
201605242327 TAF KBDR 242327Z 2500/2524 VRB03KT P6SM BKN100 FM251200 26007KT
                       P6SM FEW250 FM251600 25009KT P6SM FEW250=
201605242055 TAF AMD KBDR 242055Z 2421/2518 23005KT P6SM VCTS SCT050CB BKN120
                       FM242300 VRB04KT P6SM BKN050 FM250700 VRB04KT
                       P6SM SCT250 FM251700 25008KT P6SM FEW250=
201605241929 TAF AMD KBDR 241929Z 2419/2518 22007KT P6SM VCTS SCT050CB BKN120
                       FM242300 VRB04KT P6SM BKN050 FM250700 VRB04KT
                       P6SM SCT250 FM251700 25008KT P6SM FEW250=
201605241730 TAF KBDR 241730Z 2418/2518 35006KT P6SM VCSH OVC035 FM241900 35005KT
                       P6SM VCTS SCT050CB BKN120 FM242300 VRB04KT
                       P6SM BKN050 FM250700 VRB04KT P6SM SCT250
                       FM251700 25008KT P6SM FEW250=
201605241534 TAF AMD KBDR 241534Z 2416/2512 VRB04KT P6SM VCSH BKN020 BKN040
                       FM242000 19006KT P6SM VCSH FEW040 BKN080
                       FM250000 VRB04KT P6SM SCT120=
201605241325 TAF AMD KBDR 241325Z 2413/2512 02005KT 6SM -SHRA BKN035 FM241500
                       VRB04KT P6SM VCSH BKN040 FM242000 19006KT
                       P6SM VCSH FEW040 BKN080 FM250000 VRB04KT
                       P6SM SCT120=
201605241133 TAF KBDR 241133Z 2412/2512 02005KT 6SM -SHRA BKN035 FM241500 VRB04KT
                       P6SM VCSH BKN040 FM242000 19006KT P6SM VCSH
                       FEW040 BKN080 FM250000 VRB04KT P6SM SCT120=
201605240846 TAF AMD KBDR 240846Z 2409/2506 34004KT 5SM -SHRA BR OVC050 FM241100
                       02005KT 6SM -SHRA BKN025 FM241400 VRB04KT
                       P6SM VCSH BKN035 FM241900 16006KT P6SM VCSH
                       FEW040 BKN080 FM250000 VRB04KT P6SM SCT120=
201605240535 TAF KBDR 240535Z 2406/2506 34004KT 5SM -RA BR OVC060 FM241000 05005KT
                       4SM -RA BR BKN015 FM241600 12006KT P6SM
                       VCSH BKN025 FM241900 13006KT P6SM VCSH FEW030
                       BKN080 FM250000 VRB04KT P6SM SCT120=
201605240149 TAF AMD KBDR 240149Z 2402/2424 21006KT P6SM BKN100 FM240230 22005KT
                       6SM -RA SCT050 OVC100 FM240500 VRB03KT 5SM
                       -RA BKN050 FM240800 36004KT 5SM -RA BR BKN020
                       FM241300 36006KT P6SM BKN010 FM241600 30008KT
                       P6SM VCSH BKN020 FM242000 22007KT P6SM VCSH
                       FEW020 BKN060=
201605232346 TAF KBDR 232346Z 2400/2424 21006KT P6SM BKN100 FM240400 VRB03KT
                       5SM -RA BKN050 FM240800 36004KT 5SM -RA
                       BR BKN020 FM241300 36006KT P6SM BKN010 FM241600
                       30008KT P6SM VCSH BKN020 FM242000 22007KT
                       P6SM VCSH FEW020 BKN060=
201605232134 TAF AMD KBDR 232134Z 2322/2418 13008KT P6SM SCT050 SCT100 FM240100
                       VRB05KT P6SM BKN050 OVC150 FM240400 36005KT
                       5SM -RA BKN020 OVC050 FM241400 36006KT P6SM
                       BKN020 FM241600 27006KT P6SM BKN020=
201605231933 TAF AMD KBDR 231933Z 2320/2418 19008KT P6SM SCT050 SCT150 FM240100
                       VRB05KT P6SM BKN050 OVC150 FM240400 36005KT
                       5SM -RA BKN020 OVC050 FM241400 36006KT P6SM
                       BKN020 FM241600 27006KT P6SM BKN020=
201605231732 TAF KBDR 231732Z 2318/2418 17008KT P6SM SCT050 SCT150 FM240100
                       VRB05KT P6SM BKN050 OVC150 FM240400 36005KT
                       5SM -RA BKN020 OVC050 FM241400 36006KT P6SM
                       BKN020 FM241600 27006KT P6SM BKN020=
201605231532 TAF AMD KBDR 231532Z 2316/2412 17008KT P6SM SCT050 SCT150 FM240100
                       VRB05KT P6SM BKN050 OVC150 FM240500 VRB05KT
                       6SM -RA BKN020 OVC050=
201605231333 TAF AMD KBDR 231333Z 2314/2412 VRB06KT P6SM FEW050 SCT150 FM231600
                       17008KT P6SM SCT050 SCT150 FM240100 VRB05KT
                       P6SM BKN050 OVC150 FM240600 VRB05KT 6SM
                       -RA BKN020 OVC050=
201605231120 TAF KBDR 231120Z 2312/2412 VRB06KT P6SM FEW050 SCT150 FM231600
                       17008KT P6SM SCT050 SCT150 FM240100 VRB05KT
                       P6SM BKN050 OVC150 FM240600 VRB05KT 6SM
                       -RA BKN020 OVC050=
201605231000 TAF AMD KBDR 231000Z 2310/2406 VRB03KT P6SM BKN100 FM231400 VRB06KT
                       P6SM FEW050 SCT150 FM231600 17008KT P6SM
                       SCT050 SCT150 FM240100 VRB05KT P6SM BKN050
                       OVC150=
201605230835 TAF AMD KBDR 230835Z 2309/2406 VRB03KT P6SM BKN100
                      TEMPO 2309/2311 5SM BR FM231400 VRB06KT P6SM
                       FEW050 SCT150 FM231600 17008KT P6SM SCT050
                       SCT150 FM240100 VRB05KT P6SM BKN050 OVC150=
201605230520 TAF KBDR 230520Z 2306/2406 VRB03KT P6SM BKN100
                      TEMPO 2309/2311 5SM BR FM231400 VRB06KT P6SM
                       FEW050 SCT150 FM231600 17008KT P6SM SCT050
                       SCT150 FM240100 VRB05KT P6SM BKN050 OVC150=
201605230208 TAF AMD KBDR 230208Z 2302/2324 29006KT P6SM FEW120 FM230500 VRB03KT
                       P6SM BKN120
                      TEMPO 2309/2311 5SM BR FM231400 VRB05KT P6SM
                       FEW050 SCT120 FM231600 17008KT P6SM SCT050
                       SCT120 FM231800 22007KT P6SM SCT060 SCT150=
201605222348 TAF KBDR 222348Z 2300/2324 00000KT P6SM BKN120 FM230700 VRB03KT
                       6SM BR BKN120
                      TEMPO 2309/2311 4SM BR FM231200 03006KT P6SM
                       FEW050 SCT120 FM231600 17008KT P6SM SCT050
                       SCT120 FM231800 22007KT P6SM SCT060 SCT150=
201605221926 TAF AMD KBDR 221926Z 2219/2318 20008KT P6SM SCT050 BKN080 FM230000
                       22005KT P6SM BKN100 FM230300 VRB03KT P6SM
                       BKN120 FM231200 03005KT P6SM SCT050 BKN100
                       FM231500 09006KT P6SM SCT050 BKN100=
201605221730 TAF KBDR 221730Z 2218/2318 16006KT P6SM FEW050 BKN100 FM230000
                       20005KT P6SM BKN120 FM230300 VRB03KT P6SM
                       BKN120 FM231200 03005KT P6SM SCT050 BKN100
                       FM231500 09006KT P6SM SCT050 BKN100=
201605221406 TAF AMD KBDR 221406Z 2214/2312 03006KT P6SM SCT040 BKN060 FM221600
                       17005KT P6SM FEW040 BKN080 FM230200 36005KT
                       P6SM BKN080=
201605221308 TAF AMD KBDR 221308Z 2213/2312 03007KT P6SM SCT035 BKN060 FM221600
                       17005KT P6SM FEW040 BKN080 FM230200 36005KT
                       P6SM BKN080=
201605221120 TAF KBDR 221120Z 2212/2312 01009KT P6SM -RA SCT025 OVC070 FM221500
                       03007KT P6SM SCT035 BKN080 FM221600 21005KT
                       P6SM FEW040 BKN080 FM230200 36005KT P6SM
                       BKN080=
201605221012 TAF AMD KBDR 221012Z 2210/2306 01009KT P6SM -RA SCT025 OVC050 FM221500
                       03007KT P6SM FEW040 BKN090 FM221600 21005KT
                       P6SM FEW040 BKN090 FM230000 VRB04KT P6SM
                       BKN090=
201605220805 TAF AMD KBDR 220805Z 2208/2306 01007KT P6SM SCT025 OVC060
                      TEMPO 2208/2212 -RA BKN025 FM221200 03007KT
                       P6SM FEW040 BKN090 FM221600 21005KT P6SM
                       FEW040 BKN090 FM230000 VRB04KT P6SM BKN090=
201605220536 TAF KBDR 220536Z 2206/2306 02006KT P6SM -RA OVC050
                      TEMPO 2206/2209 -RA BKN020 FM220900 02007KT
                       P6SM SCT020 OVC050
                      TEMPO 2209/2212 BKN020 FM221200 03007KT P6SM
                       FEW040 BKN090 FM221600 21005KT P6SM FEW040
                       BKN090 FM230000 VRB04KT P6SM BKN090=
201605220206 TAF AMD KBDR 220206Z 2202/2224 04006KT P6SM VCSH OVC070 FM220400
                       04006KT 6SM -RA BKN030
                      TEMPO 2205/2207 BKN020 FM220800 02006KT P6SM
                       VCSH SCT025 OVC050 FM221200 03007KT P6SM
                       SCT040 BKN090 FM221600 05008KT P6SM SCT050
                       BKN100=
201605212355 TAF KBDR 212355Z 2200/2224 06006KT P6SM VCSH OVC090 FM220400 04006KT
                       P6SM VCSH OVC090 FM220900 02008KT P6SM OVC050
                       FM221900 05008KT P6SM BKN070=
201605212055 TAF AMD KBDR 212055Z 2121/2218 10008KT P6SM VCSH FEW050 BKN100
                       FM220200 06006KT 6SM -RA BKN035 OVC070 FM220700
                       03008KT P6SM BKN030 OVC050
                      TEMPO 2207/2211 6SM -SHRA FM221200 02009KT
                       P6SM SCT040 BKN080=
201605211738 TAF KBDR 211738Z 2118/2218 13010KT P6SM BKN120 FM212300 10008KT
                       6SM -RA FEW040 OVC090 FM220200 06006KT 6SM
                       -RA BKN035 OVC070 FM220700 03008KT P6SM
                       BKN030 OVC050
                      TEMPO 2207/2211 6SM -SHRA FM221200 02009KT
                       P6SM SCT040 BKN080=
201605211332 TAF AMD KBDR 211332Z 2114/2212 12005KT P6SM FEW150 BKN250 FM212100
                       13007KT 6SM -RA FEW040 OVC120 FM220100 07006KT
                       5SM -RA BKN035 OVC090 FM220600 02008KT 5SM
                       -RA FEW020 BKN030 OVC060=
201605211123 TAF KBDR 211123Z 2112/2212 VRB03KT P6SM FEW150 BKN250 FM211400
                       14008KT P6SM BKN150 FM212100 13007KT 6SM
                       -RA FEW040 OVC120 FM220100 07006KT 5SM -RA
                       BKN035 OVC090 FM220600 02008KT 5SM -RA FEW020
                       BKN030 OVC060=
201605210834 TAF AMD KBDR 210834Z 2109/2206 VRB03KT P6SM BKN250 FM211500 14008KT
                       P6SM BKN150 FM212100 10008KT 6SM -RA SCT040
                       OVC080 FM220000 05007KT 5SM -RA BKN030 OVC070=
201605210524 TAF KBDR 210524Z 2106/2206 VRB03KT P6SM BKN250 FM211500 14008KT
                       P6SM BKN150 FM212100 10008KT 6SM -RA SCT040
                       OVC080 FM220000 05007KT 5SM -RA BKN030 OVC070=
201605210232 TAF AMD KBDR 210232Z 2103/2124 VRB05KT P6SM FEW250 FM211400 14008KT
                       P6SM OVC100
                      PROB30 2118/2120 4SM -RA OVC040 FM212000
                       09008KT 4SM -RA OVC080 FM212200 07010KT
                       3SM -RA BKN025 OVC050=
201605202330 TAF KBDR 202330Z 2100/2124 18010KT P6SM SKC FM210100 VRB05KT P6SM
                       FEW250 FM211400 14008KT P6SM OVC100
                      PROB30 2118/2120 4SM -RA OVC040 FM212000
                       09008KT 4SM -RA OVC080 FM212200 07010KT
                       3SM -RA BKN025 OVC050=
201605202131 TAF AMD KBDR 202131Z 2022/2118 19007KT P6SM SCT250 FM210100 VRB03KT
                       P6SM SCT250 FM211000 VRB03KT P6SM SCT150
                       FM211600 16008KT 6SM -SHRA BKN060=
201605201931 TAF AMD KBDR 201931Z 2020/2118 19007KT P6SM SCT250 FM210100 VRB03KT
                       P6SM SCT250 FM211000 VRB03KT P6SM SCT150
                       FM211600 16008KT 6SM -SHRA BKN060=
201605201739 TAF KBDR 201739Z 2018/2118 20007KT P6SM SCT250 FM210100 VRB03KT
                       P6SM SCT250 FM211000 VRB03KT P6SM SCT150
                       FM211600 16008KT 6SM -SHRA BKN060=
201605201532 TAF AMD KBDR 201532Z 2016/2112 01010KT P6SM BKN250 FM201800 20007KT
                       P6SM SCT250 FM210100 VRB03KT P6SM SCT250
                       FM211000 VRB03KT P6SM BKN150=
201605201334 TAF AMD KBDR 201334Z 2014/2112 36010KT P6SM BKN250 FM201800 20007KT
                       P6SM SCT250 FM210100 VRB03KT P6SM SCT250
                       FM211000 VRB03KT P6SM BKN150=
201605201120 TAF KBDR 201120Z 2012/2112 36005KT P6SM SCT250 FM201800 20007KT
                       P6SM SCT250 FM210100 VRB03KT P6SM SCT250
                       FM211000 VRB03KT P6SM BKN150=
201605200833 TAF AMD KBDR 200833Z 2009/2106 VRB02KT P6SM SKC FM201200 36005KT
                       P6SM SKC FM201800 20007KT P6SM FEW250 FM210100
                       VRB03KT P6SM SCT250=
201605200529 TAF KBDR 200529Z 2006/2106 VRB02KT P6SM SKC FM201300 36005KT P6SM
                       SKC FM201800 20007KT P6SM FEW250 FM210100
                       VRB03KT P6SM SCT250=
201605200234 TAF AMD KBDR 200234Z 2003/2024 18008KT P6SM SCT250 FM200400 VRB03KT
                       P6SM FEW250 FM201500 30007KT P6SM SKC FM201700
                       23007KT P6SM FEW250 FM201900 19007KT P6SM
                       FEW250=
201605192327 TAF KBDR 192327Z 2000/2024 18008KT P6SM SCT250 FM200200 VRB05KT
                       P6SM FEW250 FM201500 30007KT P6SM SKC FM201700
                       23007KT P6SM FEW250 FM201900 19007KT P6SM
                       FEW250=
201605192132 TAF AMD KBDR 192132Z 1922/2018 16008KT P6SM BKN080 FM200100 VRB05KT
                       P6SM SCT250 FM201300 33006KT P6SM SKC=
201605191930 TAF AMD KBDR 191930Z 1920/2018 16008KT P6SM BKN080 FM200100 VRB05KT
                       P6SM SCT250 FM201300 33006KT P6SM SKC=
201605191731 TAF KBDR 191731Z 1918/2018 16008KT P6SM BKN050 FM200100 VRB05KT
                       P6SM SCT250 FM201300 33006KT P6SM SKC=
201605191531 TAF AMD KBDR 191531Z 1916/2012 15007KT P6SM OVC090 FM191700 16008KT
                       P6SM BKN050 FM200100 VRB05KT P6SM SCT250=
201605191331 TAF AMD KBDR 191331Z 1914/2012 VRB05KT P6SM BKN060 BKN100 FM191600
                       16008KT P6SM BKN050 FM200100 VRB05KT P6SM
                       SCT250=
201605191127 TAF KBDR 191127Z 1912/2012 VRB05KT P6SM BKN060 BKN100 FM191600
                       16008KT P6SM BKN050 FM200100 VRB05KT P6SM
                       SCT250=
201605190830 TAF AMD KBDR 190830Z 1909/2006 VRB03KT P6SM VCSH BKN070 FM191200
                       VRB05KT P6SM SCT050 BKN150 FM191600 16008KT
                       P6SM BKN050 FM200100 VRB05KT P6SM SCT250=
201605190527 TAF KBDR 190527Z 1906/2006 VRB03KT P6SM VCSH BKN070 FM191200 VRB05KT
                       P6SM SCT050 BKN150 FM191600 16008KT P6SM
                       BKN050 FM200100 VRB05KT P6SM SCT250=
201605190237 TAF AMD KBDR 190237Z 1903/1924 VRB03KT P6SM VCSH BKN070 FM191200
                       VRB05KT P6SM SCT050 BKN150 FM191600 16008KT
                       P6SM BKN050=
201605182335 TAF KBDR 182335Z 1900/1924 16006KT P6SM VCSH BKN080 BKN150 FM190300
                       VRB03KT P6SM BKN060 BKN120 FM191600 16008KT
                       P6SM BKN050=
201605182152 TAF AMD KBDR 182152Z 1822/1918 16007KT P6SM FEW100 SCT250 FM190200
                       VRB05KT P6SM BKN050 BKN150 FM191600 18007KT
                       P6SM BKN050=
201605181934 TAF AMD KBDR 181934Z 1820/1918 16008KT P6SM BKN060 BKN150 FM190200
                       VRB05KT P6SM BKN050 BKN150 FM191600 18007KT
                       P6SM BKN050=
201605181731 TAF KBDR 181731Z 1818/1918 16008KT P6SM BKN060 BKN150 FM190200
                       VRB05KT P6SM BKN050 BKN150 FM191600 18007KT
                       P6SM BKN050=
201605181539 TAF AMD KBDR 181539Z 1816/1912 16008KT P6SM BKN060 BKN150 FM190200
                       VRB05KT P6SM BKN050 BKN150=
201605181336 TAF AMD KBDR 181336Z 1814/1912 04007KT P6SM SCT080 BKN120 BKN180
                       FM181500 07008KT P6SM SCT060 BKN080 BKN150
                       FM181600 16008KT P6SM BKN060 BKN150 FM190200
                       VRB05KT P6SM BKN050 BKN150=
201605181125 TAF KBDR 181125Z 1812/1912 03007KT P6SM SCT080 BKN120 BKN180 FM181500
                       07008KT P6SM SCT060 BKN080 BKN150 FM181600
                       16008KT P6SM BKN060 BKN150 FM190200 VRB05KT
                       P6SM BKN050 BKN150=
201605180842 TAF AMD KBDR 180842Z 1809/1906 VRB04KT P6SM BKN180 BKN220 FM181200
                       03007KT P6SM SCT080 BKN120 BKN180 FM181500
                       07008KT P6SM SCT060 BKN080 BKN150 FM181700
                       13008KT P6SM BKN060 BKN150 FM190000 VRB05KT
                       P6SM BKN050 BKN150=
201605180540 TAF KBDR 180540Z 1806/1906 VRB04KT P6SM BKN120 FM181200 03007KT
                       P6SM SCT080 BKN120 FM181500 07008KT P6SM
                       SCT060 BKN100 FM181700 13008KT P6SM BKN060
                       FM190000 VRB05KT P6SM BKN050 BKN150=
201605180235 TAF AMD KBDR 180235Z 1803/1824 23006KT P6SM BKN150 FM180400 VRB04KT
                       P6SM BKN120 FM181200 03007KT P6SM SCT080
                       BKN120 FM181500 07008KT P6SM SCT060 BKN100
                       FM181700 13008KT P6SM BKN060=
201605172333 TAF KBDR 172333Z 1800/1824 22009KT P6SM OVC120 FM180200 VRB04KT
                       P6SM BKN120 FM181200 03007KT P6SM SCT080
                       BKN120 FM181500 07008KT P6SM SCT060 BKN100
                       FM181700 13008KT P6SM BKN060=
201605172136 TAF AMD KBDR 172136Z 1722/1818 22012KT P6SM BKN150 FM172300 24008KT
                       P6SM BKN150 FM180200 VRB04KT P6SM SCT040
                       BKN100 FM181200 04007KT P6SM SCT040 BKN100
                       FM181600 18008KT P6SM SCT070 BKN100=
201605171925 TAF AMD KBDR 171925Z 1719/1818 22011KT P6SM SCT070 BKN100 FM180000
                       22007KT P6SM SCT070 BKN100 FM180600 VRB04KT
                       P6SM SCT040 BKN100 FM181200 04007KT P6SM
                       SCT040 BKN100 FM181600 18008KT P6SM SCT070
                       BKN100=
201605171722 TAF KBDR 171722Z 1718/1818 22011KT P6SM SCT070 BKN100 FM180000
                       22007KT P6SM SCT070 BKN100 FM180600 VRB04KT
                       P6SM SCT040 BKN100 FM181200 04007KT P6SM
                       SCT040 BKN100 FM181600 18008KT P6SM SCT070
                       BKN100=
201605171531 TAF AMD KBDR 171531Z 1716/1812 24005KT P6SM OVC180 FM171700 23011G16KT
                       P6SM BKN070 FM172000 21008KT P6SM BKN040
                       TEMPO 1801/1805 6SM -RA BKN035 FM181000
                       34007KT P6SM FEW035 BKN060=
201605171348 TAF AMD KBDR 171348Z 1714/1812 24005KT P6SM OVC180 FM171700 23011G16KT
                       P6SM BKN070 FM172000 21008KT P6SM BKN040
                       TEMPO 1801/1805 6SM -RA BKN035 FM181000
                       34007KT P6SM FEW035 BKN060=
201605171140 TAF KBDR 171140Z 1712/1812 24005KT P6SM OVC180 FM171700 23011G16KT
                       P6SM BKN070 FM172000 21008KT P6SM BKN040
                       TEMPO 1801/1805 6SM -RA BKN035 FM181000
                       34007KT P6SM FEW035 BKN060=
201605170837 TAF AMD KBDR 170837Z 1709/1806 VRB05KT P6SM SCT120 BKN200 FM171200
                       24010KT P6SM SCT080 BKN120 FM171700 23011G16KT
                       P6SM BKN070 FM172000 21008KT P6SM BKN040
                       TEMPO 1801/1805 6SM -RA BKN035=
201605170542 TAF KBDR 170542Z 1706/1806 VRB05KT P6SM BKN200 FM171200 24010KT
                       P6SM SCT080 BKN120 FM171700 23011G16KT P6SM
                       BKN070 FM172000 21008KT P6SM BKN040
                      TEMPO 1801/1805 6SM -RA BKN035=
201605170235 TAF AMD KBDR 170235Z 1703/1724 VRB05KT P6SM BKN200 FM171200 25010KT
                       P6SM SCT080 BKN120 FM171700 26011KT P6SM
                       BKN070
                      TEMPO 1719/1722 6SM -RA BKN040 FM172200 21008KT
                       P6SM BKN040
                      TEMPO 1722/1724 6SM -RA BKN035=
201605170109 TAF AMD KBDR 170109Z 1701/1724 28006KT P6SM SKC FM170700 VRB05KT
                       P6SM BKN200 FM171200 25010KT P6SM SCT080
                       BKN120 FM171700 26011KT P6SM BKN070
                      TEMPO 1719/1722 6SM -RA BKN040 FM172200 21008KT
                       P6SM BKN040
                      TEMPO 1722/1724 6SM -RA BKN035=
201605170032 TAF AMD KBDR 170032Z 1701/1724 30010G18KT P6SM SCT250 FM170200
                       29008KT P6SM SKC FM170700 VRB05KT P6SM BKN200
                       FM171200 25010KT P6SM SCT080 BKN120 FM171700
                       26011KT P6SM BKN070
                      TEMPO 1719/1722 6SM -RA BKN040 FM172200 21008KT
                       P6SM BKN040
                      TEMPO 1722/1724 6SM -RA BKN035=
201605162353 TAF KBDR 162353Z 1700/1724 30020G29KT P6SM SCT250 FM170100 30014G21KT
                       P6SM SCT250 FM170300 28006KT P6SM SKC FM170700
                       VRB05KT P6SM BKN200 FM171200 25010KT P6SM
                       SCT080 BKN120 FM171700 26011KT P6SM BKN070
                       TEMPO 1719/1722 6SM -RA BKN040 FM172200
                       21008KT P6SM BKN040
                      TEMPO 1722/1724 6SM -RA BKN035=
201605162143 TAF AMD KBDR 162143Z 1622/1718 29017G28KT P6SM FEW070 FM162300
                       29014G22KT P6SM FEW250 FM170000 28008KT
                       P6SM FEW250 FM170200 VRB04KT P6SM SKC FM171200
                       24010KT P6SM BKN120=
201605161939 TAF AMD KBDR 161939Z 1620/1718 29018G28KT P6SM FEW070 FM170100
                       26008KT P6SM FEW250 FM171200 25010KT P6SM
                       BKN150 FM171600 24011KT P6SM BKN100=
201605161740 TAF KBDR 161740Z 1618/1718 29018G28KT P6SM FEW060 FM170100 26008KT
                       P6SM FEW250 FM171200 25010KT P6SM BKN150
                       FM171600 24011KT P6SM BKN100=
201605161550 TAF AMD KBDR 161550Z 1616/1712 29018G28KT P6SM FEW060 FM170100
                       26010KT P6SM FEW250 FM170300 25005KT P6SM
                       FEW250=
201605161340 TAF AMD KBDR 161340Z 1614/1712 28013G21KT P6SM SCT060 FM161500
                       28018G28KT P6SM FEW060 FM170100 26010KT
                       P6SM FEW250 FM170300 25005KT P6SM FEW250=
201605161123 TAF KBDR 161123Z 1612/1712 26013G21KT P6SM FEW050 FEW250 FM161500
                       27018G28KT P6SM FEW060 FM170100 26010KT
                       P6SM FEW250 FM170300 25005KT P6SM FEW250=
201605160835 TAF AMD KBDR 160835Z 1609/1706 27010KT P6SM FEW250 FM161200 29014G23KT
                       P6SM FEW250 FM161600 27018G28KT P6SM FEW060
                       FM170100 26010KT P6SM FEW250 FM170300 25007KT
                       P6SM FEW250=
201605160522 TAF KBDR 160522Z 1606/1706 29009KT P6SM FEW250 FM161200 29014G23KT
                       P6SM FEW250 FM161600 27018G28KT P6SM FEW060
                       FM170100 26010KT P6SM FEW250 FM170300 25007KT
                       P6SM FEW250=
201605160221 TAF AMD KBDR 160221Z 1602/1624 28009KT P6SM SCT090 FM161200 28018G28KT
                       P6SM SCT060=
201605152339 TAF KBDR 152339Z 1600/1624 28013G21KT P6SM SCT080 FM160200 28009KT
                       P6SM FEW050 FM161200 28018G28KT P6SM SCT060=
201605152037 TAF AMD KBDR 152037Z 1521/1618 28016G25KT P6SM SCT080 FM160100
                       28009KT P6SM FEW050 FM161200 28017G26KT
                       P6SM SCT060=
201605151727 TAF KBDR 151727Z 1518/1618 28016G25KT P6SM BKN070 FM160100 28009KT
                       P6SM FEW050 FM161200 28017G26KT P6SM SCT060=
201605151431 TAF AMD KBDR 151431Z 1515/1612 28017G25KT P6SM BKN060 FM151900
                       27020G30KT P6SM BKN070 FM160100 28015G23KT
                       P6SM SCT070 FM160300 28013G20KT P6SM FEW070=
201605151133 TAF KBDR 151133Z 1512/1612 27012G18KT P6SM FEW050 FM151400 27015G22KT
                       P6SM FEW050 FM151900 27020G30KT P6SM BKN070
                       FM160100 28015G23KT P6SM SCT070 FM160300
                       28013G20KT P6SM FEW070=
201605150831 TAF AMD KBDR 150831Z 1509/1606 29012G19KT P6SM SCT070 BKN100 FM151200
                       28015G24KT P6SM SCT050 FM151900 27020G30KT
                       P6SM BKN070 FM160200 28015G23KT P6SM SCT070=
201605150531 TAF KBDR 150531Z 1506/1606 29012G19KT P6SM SCT070 BKN100 FM151200
                       28015G24KT P6SM SCT050 FM151900 27020G30KT
                       P6SM BKN070 FM160200 28015G23KT P6SM SCT070=
201605150226 TAF AMD KBDR 150226Z 1502/1524 25009KT P6SM BKN070 FM150600 28010KT
                       P6SM SCT070 SCT100 FM151300 28018G27KT P6SM
                       BKN070=
201605142343 TAF KBDR 142343Z 1500/1524 20012G20KT 6SM -SHRA SCT020 BKN050 FM150100
                       22008KT P6SM SCT030 BKN070 FM150600 29011G18KT
                       P6SM SCT040 BKN250 FM151600 28018G28KT P6SM
                       BKN070=
201605142046 TAF AMD KBDR 142046Z 1421/1518 19012KT P6SM SCT050 SCT080 FM142300
                       19012G20KT 5SM -SHRA SCT020 BKN050 FM150100
                       19008KT P6SM SCT020 BKN030 FM150500 29011G18KT
                       P6SM SCT040 FM151600 28018G26KT P6SM BKN070=
201605141733 TAF KBDR 141733Z 1418/1518 17009KT P6SM SCT050 SCT250 FM142300
                       19012G20KT 5SM -SHRA SCT015 BKN040 BKN100
                       FM150200 19008KT P6SM SCT015 BKN030 BKN100
                       FM150500 29011G18KT P6SM SCT040 FM151600
                       28018G26KT P6SM BKN070=
201605141435 TAF AMD KBDR 141435Z 1415/1512 20010KT P6SM SCT050 SCT250 FM142300
                       21009KT 5SM -SHRA SCT015 BKN030 BKN100 FM150100
                       22008KT 5SM -SHRA SCT015 BKN030 BKN100 FM150300
                       25010KT P6SM SCT040 SCT250 FM150700 28013G20KT
                       P6SM FEW050 SCT250=
201605141126 TAF KBDR 141126Z 1412/1512 VRB03KT 6SM BR SCT003 FM141300 23004KT
                       P6SM FEW005 SCT250 FM141500 20011G17KT P6SM
                       SCT050 SCT250 FM142300 21009KT 5SM -SHRA
                       SCT015 BKN030 BKN100 FM150100 22008KT 5SM
                       -SHRA SCT015 BKN030 BKN100 FM150300 25010KT
                       P6SM SCT040 SCT250 FM150700 28013G20KT P6SM
                       FEW050 SCT250=
201605140834 TAF AMD KBDR 140834Z 1409/1506 VRB03KT 1SM BR BKN002
                      TEMPO 1409/1411 3/4SM BR FM141100 VRB05KT
                       3SM BR FEW004 SCT250 FM141300 23005KT 6SM
                       BR FEW250 FM141500 20011KT P6SM FEW250 FM141700
                       20011KT P6SM SCT050 SCT250 FM142300 21009KT
                       5SM -SHRA SCT015 BKN030 BKN100 FM150100
                       22008KT 4SM -SHRA SCT015 BKN030 BKN100 FM150300
                       28010KT P6SM SCT040 SCT250=
201605140726 TAF AMD KBDR 140726Z 1407/1506 VRB03KT 1SM BR BKN002
                      TEMPO 1408/1410 3/4SM BR FM141000 VRB05KT
                       3SM BR SCT250 FM141300 23005KT 6SM BR FEW250
                       FM141500 20011KT P6SM FEW250 FM141700 20011KT
                       P6SM SCT050 SCT250 FM142300 21009KT 5SM
                       -SHRA SCT015 BKN030 BKN100 FM150100 22008KT
                       4SM -SHRA SCT015 BKN030 BKN100 FM150300
                       28010KT P6SM SCT040 SCT250=
201605140539 TAF KBDR 140539Z 1406/1506 VRB05KT 2SM BR BKN100
                      TEMPO 1406/1410 3/4SM BR BKN001 BKN100 FM141000
                       VRB05KT 3SM BR SCT250 FM141300 23005KT 6SM
                       BR FEW250 FM141500 20011KT P6SM FEW250 FM141700
                       20011KT P6SM SCT050 SCT250 FM142300 21009KT
                       5SM -SHRA SCT015 BKN030 BKN100 FM150100
                       22008KT 4SM -SHRA SCT015 BKN030 BKN100 FM150300
                       28010KT P6SM SCT040 SCT250=
201605140231 TAF AMD KBDR 140231Z 1403/1424 27005KT 4SM BR OVC004 FM140400 27005KT
                       P6SM SCT004 BKN100 FM140600 VRB05KT P6SM
                       FEW100 FM141300 24008KT P6SM FEW250 FM141600
                       20011KT P6SM SCT050 SCT250 FM142200 21010KT
                       6SM -SHRA BKN040 BKN100=
201605140103 TAF AMD KBDR 140103Z 1401/1424 27005KT 4SM BR BKN007 BKN012 FM140300
                       VRB05KT 4SM BR SCT007 FM140500 VRB05KT P6SM
                       FEW050 FM141300 24008KT P6SM FEW250 FM141600
                       20011KT P6SM SCT050 SCT250 FM142200 21010KT
                       6SM -SHRA BKN040 BKN100=
201605132324 TAF KBDR 132324Z 1400/1424 27005KT 4SM BR SCT006 BKN012 FM140200
                       VRB05KT 4SM BR SCT012 FM140500 VRB05KT P6SM
                       FEW050 FM141300 24008KT P6SM FEW250 FM141600
                       20011KT P6SM SCT050 SCT250 FM142200 21010KT
                       6SM -SHRA BKN040 BKN100=
201605132130 TAF AMD KBDR 132130Z 1322/1418 21006KT 4SM -SHRA BKN008 FM140000
                       27005KT 6SM BR SCT008 BKN012 FM140400 VRB05KT
                       P6SM FEW250 FM141300 21010KT P6SM SCT250=
201605131941 TAF AMD KBDR 131941Z 1320/1418 17007KT P6SM -SHRA OVC016
                      TEMPO 1320/1321 4SM -SHRA BR BKN009 OVC012
                       FM132100 18006KT 4SM -SHRA BR SCT008 OVC010
                       TEMPO 1321/1323 2SM SHRA BR OVC005 FM140200
                       25005KT 3SM BR BKN010 FM140500 VRB03KT P6SM
                       FEW250 FM141300 21010KT P6SM SCT250=
201605131721 TAF KBDR 131721Z 1318/1418 15007KT P6SM VCSH BKN017 OVC025
                      TEMPO 1318/1320 4SM SHRA BR BKN012 OVC020
                       FM132000 18006KT 3SM -SHRA BR BKN008 OVC010
                       TEMPO 1320/1323 2SM SHRA BR OVC005 FM140200
                       25005KT 3SM BR BKN010 FM140500 VRB03KT P6SM
                       FEW250 FM141300 21010KT P6SM SCT250=
201605131551 TAF AMD KBDR 131551Z 1316/1412 VRB04KT P6SM VCSH SCT020 OVC120
                       TEMPO 1316/1318 -SHRA FEW010 BKN020 FM131800
                       16008KT 3SM -SHRA BR SCT006 OVC010
                      TEMPO 1318/1321 2SM SHRA BR OVC006 FM132100
                       19006KT 4SM -SHRA BR BKN008 OVC010 FM140100
                       23007KT P6SM BKN009 OVC050 FM140400 27007KT
                       P6SM BKN200=
201605131430 TAF AMD KBDR 131430Z 1315/1412 09006KT P6SM FEW015 FM131600 14007KT
                       P6SM VCSH SCT025 BKN050
                      TEMPO 1316/1319 -SHRA FEW010 BKN025 FM131900
                       15008KT 3SM SHRA BR OVC010
                      TEMPO 1319/1321 2SM SHRA BR OVC008 FM140000
                       25008KT P6SM OVC025 FM140200 27007KT P6SM
                       BKN200=
201605131312 TAF AMD KBDR 131312Z 1313/1412 09006KT P6SM FEW015 FM131600 12007KT
                       P6SM VCSH SCT025 BKN050
                      TEMPO 1316/1320 FEW010 BKN025 FM132000 14008KT
                       2SM SHRA BR OVC008 FM132200 17008KT 2SM
                       SHRA BR OVC008 FM140000 25008KT 6SM BR OVC008
                       FM140300 27007KT P6SM BKN150=
201605131156 TAF KBDR 131156Z 1312/1412 09006KT P6SM OVC025 FM131600 12007KT
                       6SM BR OVC025 FM132000 14008KT 2SM SHRA
                       BR OVC008 FM132200 17008KT 2SM SHRA BR OVC008
                       FM140000 25008KT 6SM BR OVC008 FM140300
                       27007KT P6SM BKN150=
201605130911 TAF AMD KBDR 130911Z 1309/1406 07005KT P6SM OVC025 FM131100 11006KT
                       P6SM OVC015 FM131600 12007KT 4SM -SHRA OVC015
                       FM131800 14007KT 4SM -SHRA OVC010 FM132100
                       14008KT 2SM SHRA BR OVC008 FM132200 17008KT
                       2SM SHRA BR OVC008 FM140000 25008KT 2SM
                       SHRA BR OVC008 FM140400 28007KT P6SM SCT090=
201605130606 TAF KBDR 130606Z 1306/1406 VRB04KT P6SM BKN025 FM131200 11006KT
                       P6SM VCSH OVC015 FM131500 12007KT 4SM -SHRA
                       BR OVC015 FM132000 14008KT 2SM -SHRA BR
                       OVC015 FM132200 17008KT 2SM -SHRA BR OVC010
                       FM140000 25008KT 2SM -SHRA BR OVC008 FM140300
                       27007KT P6SM BKN030 FM140400 28007KT P6SM
                       SCT100=
201605130304 TAF AMD KBDR 130304Z 1303/1324 VRB04KT P6SM BKN250 FM130700 VRB04KT
                       P6SM SCT008 BKN250 FM131000 VRB05KT P6SM
                       BKN008 FM131500 15008KT 2SM -SHRA BR OVC008
                       FM132200 VRB06KT 4SM BR BKN008=
201605122321 TAF KBDR 122321Z 1300/1324 VRB06KT P6SM BKN250 FM130700 VRB04KT
                       P6SM SCT008 BKN250 FM131000 VRB05KT P6SM
                       BKN008 FM131500 15008KT 2SM -SHRA BR OVC008
                       FM132200 VRB06KT 4SM BR BKN008=
201605122130 TAF AMD KBDR 122130Z 1222/1318 12007KT P6SM SCT250 FM130000 13006KT
                       P6SM SCT250 FM130700 VRB04KT P6SM SCT008
                       BKN250 FM131000 VRB05KT P6SM BKN008 FM131500
                       15008KT 2SM -SHRA BR OVC008=
201605121930 TAF AMD KBDR 121930Z 1220/1318 12007KT P6SM SCT250 FM130000 13006KT
                       P6SM SCT250 FM130700 VRB04KT P6SM SCT008
                       BKN250 FM131000 VRB05KT P6SM BKN008 FM131500
                       15008KT 2SM -SHRA BR OVC008=
201605121720 TAF KBDR 121720Z 1218/1318 15009KT P6SM SCT250 FM130000 13006KT
                       P6SM SCT250 FM130700 VRB04KT P6SM SCT008
                       BKN250 FM131000 VRB05KT P6SM BKN008 FM131500
                       15008KT 2SM -SHRA BR OVC008=
201605121530 TAF AMD KBDR 121530Z 1216/1312 14009KT P6SM FEW250 FM130000 12006KT
                       P6SM FEW250 FM131000 VRB04KT P6SM VCSH BKN030
                       BKN100=
201605121331 TAF AMD KBDR 121331Z 1214/1312 09005KT P6SM FEW250 FM121500 13007KT
                       P6SM FEW250 FM121800 14009KT P6SM FEW250
                       FM130000 12006KT P6SM FEW250 FM131000 VRB04KT
                       P6SM VCSH BKN030 BKN100=
201605121153 TAF KBDR 121153Z 1212/1312 03005KT P6SM FEW250 FM121500 13007KT
                       P6SM FEW250 FM121800 14009KT P6SM FEW250
                       FM130000 12006KT P6SM FEW250 FM130800 VRB04KT
                       P6SM BKN100 FM131000 VRB04KT P6SM VCSH BKN030=
201605120903 TAF AMD KBDR 120903Z 1209/1306 03006KT P6SM SKC FM121500 14008KT
                       P6SM FEW250 FM130000 14005KT P6SM FEW250
                       FM130400 VRB03KT P6SM SCT250=
201605120546 TAF KBDR 120546Z 1206/1306 VRB03KT P6SM SKC FM121500 14008KT P6SM
                       FEW250 FM130000 14005KT P6SM FEW250 FM130400
                       VRB03KT P6SM SCT250=
201605120238 TAF AMD KBDR 120238Z 1203/1224 VRB03KT P6SM BKN250 FM120900 05004KT
                       P6SM SCT250 FM121500 13007KT P6SM SCT250
                       FM121900 15008KT P6SM SCT060 SCT250=
201605112324 TAF KBDR 112324Z 1200/1224 24005KT P6SM BKN250 FM120100 VRB03KT
                       P6SM BKN250 FM120900 05004KT P6SM SCT250
                       FM121500 13007KT P6SM SCT250 FM121900 15008KT
                       P6SM SCT060 SCT250=
201605112130 TAF AMD KBDR 112130Z 1122/1218 21007KT P6SM SKC FM120100 VRB03KT
                       P6SM SKC FM120900 05004KT P6SM SKC FM121500
                       15008KT P6SM SKC=
201605111930 TAF AMD KBDR 111930Z 1120/1218 21007KT P6SM SKC FM120100 VRB03KT
                       P6SM SKC FM120900 05004KT P6SM SKC FM121500
                       15008KT P6SM SKC=
201605111732 TAF KBDR 111732Z 1118/1218 19007KT P6SM SKC FM120100 VRB03KT P6SM
                       SKC FM120900 05004KT P6SM SKC FM121500 15008KT
                       P6SM SKC=
201605111530 TAF AMD KBDR 111530Z 1116/1212 17007KT P6SM SKC FM111700 21007KT
                       P6SM SKC FM120100 VRB03KT P6SM SKC FM120600
                       03004KT P6SM SKC=
201605111322 TAF AMD KBDR 111322Z 1113/1212 01004KT P6SM SKC FM111500 21007KT
                       P6SM SKC FM120100 VRB03KT P6SM SKC FM120600
                       03004KT P6SM SKC=
201605111121 TAF KBDR 111121Z 1112/1212 01004KT P6SM SKC FM111500 21007KT P6SM
                       SKC FM120100 VRB03KT P6SM SKC FM120600 03004KT
                       P6SM SKC=
201605110830 TAF AMD KBDR 110830Z 1109/1206 33003KT P6SM SKC FM111200 01004KT
                       P6SM SKC FM111500 21007KT P6SM FEW250 FM120100
                       VRB03KT P6SM SKC=
201605110538 TAF KBDR 110538Z 1106/1206 VRB03KT P6SM SKC FM111200 01004KT P6SM
                       SKC FM111500 21007KT P6SM FEW250 FM120100
                       VRB03KT P6SM SKC=
201605110231 TAF AMD KBDR 110231Z 1103/1124 VRB04KT P6SM SKC FM111600 20007KT
                       P6SM FEW250=
201605102332 TAF KBDR 102332Z 1100/1124 24008KT P6SM FEW150 SCT250 FM110200
                       VRB04KT P6SM SKC FM111600 22007KT P6SM FEW250=
201605102131 TAF AMD KBDR 102131Z 1022/1118 24011KT P6SM FEW150 SCT250 FM110200
                       VRB04KT P6SM SKC FM111600 22007KT P6SM SCT250=
201605101942 TAF AMD KBDR 101942Z 1020/1118 24011KT P6SM FEW150 SCT250 FM110200
                       VRB04KT P6SM SKC FM111600 22007KT P6SM SCT250=
201605101732 TAF KBDR 101732Z 1018/1118 22011KT P6SM FEW150 SCT250 FM110100
                       VRB03KT P6SM SKC FM111600 22007KT P6SM SCT250=
201605101545 TAF AMD KBDR 101545Z 1015/1112 22009KT P6SM FEW150 SCT250 FM110200
                       VRB03KT P6SM FEW250=
201605101339 TAF AMD KBDR 101339Z 1014/1112 VRB03KT P6SM FEW250 FM101600 21007KT
                       P6SM FEW150 SCT250 FM110200 VRB03KT P6SM
                       FEW250=
201605101121 TAF KBDR 101121Z 1012/1112 VRB03KT P6SM FEW250 FM101400 25006KT
                       P6SM FEW150 SCT250 FM101600 22009KT P6SM
                       FEW150 SCT250 FM110200 VRB03KT P6SM FEW250=
201605100834 TAF AMD KBDR 100834Z 1009/1106 VRB05KT P6SM BKN250 FM101700 21010KT
                       P6SM BKN250 FM110200 VRB05KT P6SM FEW250=
201605100530 TAF KBDR 100530Z 1006/1106 02008KT P6SM BKN250 FM100900 VRB05KT
                       P6SM BKN250 FM101700 21010KT P6SM BKN250
                       FM110200 VRB05KT P6SM FEW250=
201605100204 TAF AMD KBDR 100204Z 1002/1024 35009KT P6SM BKN250 FM101500 23009KT
                       P6SM BKN250=
201605092336 TAF KBDR 092336Z 1000/1024 35009KT P6SM BKN250 FM101500 23009KT
                       P6SM BKN250=
201605092310 TAF AMD KBDR 092310Z 0923/1018 23010KT P6SM FEW040 SCT250 FM100000
                       31010KT P6SM SCT250 FM100200 02006KT P6SM
                       FEW070 FM101200 36009KT P6SM BKN100 FM101500
                       23009KT P6SM OVC100=
201605092104 TAF AMD KBDR 092104Z 0921/1018 30012G21KT P6SM FEW040 SCT250 FM092300
                       32009KT P6SM FEW070 SCT250 FM100200 01006KT
                       P6SM FEW070 FM101200 36009KT P6SM BKN100
                       FM101500 23009KT P6SM OVC100=
201605091931 TAF AMD KBDR 091931Z 0920/1018 26014G24KT P6SM SCT070 SCT250 FM092300
                       32009KT P6SM FEW070 SCT250 FM100200 01006KT
                       P6SM FEW070 FM101200 36009KT P6SM BKN100
                       FM101500 23009KT P6SM OVC100=
201605091720 TAF KBDR 091720Z 0918/1018 26014G24KT P6SM SCT070 SCT250 FM092300
                       32009KT P6SM FEW070 SCT250 FM100200 01006KT
                       P6SM FEW070 FM101200 36009KT P6SM BKN100
                       FM101500 23009KT P6SM OVC100=
201605091535 TAF AMD KBDR 091535Z 0916/1012 26011G20KT P6SM FEW070 SCT250 FM091800
                       26014G24KT P6SM SCT070 SCT250 FM092300 32009KT
                       P6SM FEW070 SCT250 FM100200 01006KT P6SM
                       FEW070=
201605091327 TAF AMD KBDR 091327Z 0913/1012 26008KT P6SM BKN100 FM091500 26011G20KT
                       P6SM FEW070 SCT250 FM091800 26014G24KT P6SM
                       SCT070 SCT250 FM092300 32009KT P6SM FEW070
                       SCT250 FM100200 01006KT P6SM FEW070=
201605091120 TAF KBDR 091120Z 0912/1012 26008KT P6SM BKN100 FM091500 26011G20KT
                       P6SM FEW070 SCT250 FM091800 26014G24KT P6SM
                       SCT070 SCT250 FM092300 32009KT P6SM FEW070
                       SCT250 FM100200 01006KT P6SM FEW070=
201605090830 TAF AMD KBDR 090830Z 0909/1006 25004KT P6SM SKC FM091500 26011G20KT
                       P6SM FEW060 SCT250 FM091800 26014G24KT P6SM
                       SCT060 SCT250 FM092300 32009KT P6SM FEW060
                       SCT250 FM100200 02005KT P6SM FEW060=
201605090527 TAF KBDR 090527Z 0906/1006 25007KT P6SM FEW100 FM091500 26011G20KT
                       P6SM FEW060 SCT250 FM091800 26014G24KT P6SM
                       SCT060 SCT250 FM092300 32009KT P6SM FEW060
                       SCT250 FM100200 02005KT P6SM FEW060=
201605090207 TAF AMD KBDR 090207Z 0902/0924 27004KT P6SM SKC FM091200 35007KT
                       P6SM SKC FM091500 27011G20KT P6SM FEW060
                       SCT250 FM091800 24014G24KT P6SM FEW060 SCT250
                       FM092100 30009KT P6SM SCT250=
201605082322 TAF KBDR 082322Z 0900/0924 29012G18KT P6SM SKC FM090100 27006KT
                       P6SM SKC FM091500 27011G20KT P6SM FEW060
                       SCT250 FM091800 24014G24KT P6SM FEW060 SCT250
                       FM092100 30009KT P6SM SCT250=
201605081933 TAF AMD KBDR 081933Z 0820/0918 30016G25KT P6SM SCT040 FM082300
                       29010KT P6SM SKC FM090100 27005KT P6SM SKC
                       FM091300 27013G20KT P6SM SCT250=
201605081727 TAF KBDR 081727Z 0818/0918 27012G20KT P6SM SCT030 BKN060 FM081900
                       30016G25KT P6SM SCT040 FM082300 29010KT
                       P6SM SKC FM090100 27005KT P6SM SKC FM091300
                       27013G20KT P6SM SCT250=
201605081432 TAF AMD KBDR 081432Z 0815/0912 21010KT P6SM BKN015
                      TEMPO 0815/0816 BKN008 FM081700 31016G26KT
                       P6SM SCT040 FM082300 30010G16KT P6SM SKC
                       FM090100 25004KT P6SM SKC=
201605081133 TAF KBDR 081133Z 0812/0912 21008KT 3SM -SHRA BR BKN007
                      TEMPO 0812/0814 2SM -SHRA BR OVC004 FM081400
                       24010KT P6SM BKN015 FM081600 31016G26KT
                       P6SM SCT040 FM082300 30010G16KT P6SM SKC
                       FM090100 25004KT P6SM SKC=
201605080829 TAF AMD KBDR 080829Z 0808/0906 VRB02KT 3SM BR OVC004
                      TEMPO 0808/0810 3/4SM BR VV002 FM081200 21007KT
                       3SM -SHRA BR BKN007 FM081400 24010KT P6SM
                       BKN015 FM081600 30016G26KT P6SM SCT040 FM082300
                       30010G16KT P6SM SKC FM090100 25004KT P6SM
                       SKC=
201605080521 TAF KBDR 080521Z 0806/0906 VRB02KT 1SM BR OVC003
                      TEMPO 0808/0812 1/2SM FG VV001 FM081200 21007KT
                       3SM -SHRA BR BKN007 FM081400 24010KT P6SM
                       BKN015 FM081600 30016G26KT P6SM SCT040 FM082300
                       30010G16KT P6SM SKC FM090100 25004KT P6SM
                       SKC=
201605080253 TAF AMD KBDR 080253Z 0803/0824 VRB03KT 4SM BR BKN010 FM080500 VRB02KT
                       1SM BR OVC003
                      TEMPO 0808/0812 1/2SM FG OVC001 FM081200
                       21007KT 1 1/2SM -SHRA BR BKN007 OVC012 FM081400
                       24010KT 5SM BR BKN020 OVC030 FM081600 30016G26KT
                       P6SM SCT035 BKN040=
201605072333 TAF KBDR 072333Z 0800/0824 VRB04KT 5SM BR FEW003 BKN025 FM080200
                       VRB02KT 1SM BR OVC003
                      TEMPO 0808/0812 1/2SM FG OVC001 FM081200
                       21007KT 1 1/2SM -SHRA BR BKN007 OVC012 FM081400
                       24010KT 5SM BR BKN020 OVC030 FM081600 30016G26KT
                       P6SM SCT035 BKN040=
201605071921 TAF AMD KBDR 071921Z 0719/0818 10005KT 2SM BR SCT006 OVC010
                      TEMPO 0720/0724 BKN006 FM080000 17005KT 2SM
                       BR BKN006 OVC010
                      TEMPO 0809/0813 1SM BR FM081400 23010KT 4SM
                       BR BKN015 FM081600 27015G23KT P6SM SCT025
                       BKN040=
201605071726 TAF KBDR 071726Z 0718/0818 07005KT P6SM OVC010 FM072000 13005KT
                       P6SM BKN012 FM072200 18005KT P6SM BKN015
                       FM080300 19005KT 4SM BR SCT007 BKN015 FM080600
                       20005KT 3SM BR BKN005 OVC010
                      TEMPO 0809/0813 1SM BR FM081400 23010KT 4SM
                       BR BKN015 FM081600 27015G23KT P6SM SCT025
                       BKN040=
201605071415 TAF AMD KBDR 071415Z 0714/0812 06009KT P6SM -DZ OVC009
                      TEMPO 0715/0716 6SM -SHRA BR FM071900 13005KT
                       P6SM BKN012 FM072100 18007KT P6SM BKN015
                       FM080300 20005KT P6SM SCT007 BKN015 FM080600
                       20005KT 5SM BR OVC007=
201605071257 TAF AMD KBDR 071257Z 0713/0812 05008KT 6SM -SHRA BR OVC008
                      TEMPO 0713/0715 4SM -SHRA BR FM071600 07010KT
                       6SM BR VCSH OVC010 FM071900 13005KT P6SM
                       BKN012 FM072100 18007KT P6SM BKN015 FM080300
                       20005KT P6SM SCT007 BKN015 FM080600 20005KT
                       5SM BR OVC007=
201605071140 TAF KBDR 071140Z 0712/0812 06008KT 4SM BR OVC004
                      TEMPO 0712/0715 2SM -SHRADZ BR FM071600 07010KT
                       5SM BR VCSH OVC007 FM071900 13005KT P6SM
                       BKN012 FM072100 18007KT P6SM BKN015 FM080300
                       20005KT P6SM SCT007 BKN015 FM080600 20005KT
                       5SM BR OVC007=
201605070823 TAF AMD KBDR 070823Z 0708/0806 08010KT 3SM -DZ BR OVC004
                      TEMPO 0710/0712 1SM -DZ BR FM071500 07010KT
                       5SM BR OVC007 FM071800 13005KT 6SM BR BKN012
                       FM072100 18007KT P6SM BKN015 FM080300 20005KT
                       P6SM SCT007 BKN015=
201605070535 TAF KBDR 070535Z 0706/0806 08015KT 3SM -DZ BR OVC004
                      TEMPO 0708/0712 1SM -DZ BR FM071500 07010KT
                       5SM BR OVC007 FM071800 13005KT 6SM BR BKN012
                       FM072100 18007KT P6SM BKN015 FM080300 20005KT
                       P6SM SCT007 BKN015=
201605070244 TAF AMD KBDR 070244Z 0703/0724 09012KT 3SM -RA BR OVC008 FM070400
                       08008KT 2SM -DZ BR OVC004 FM071500 07007KT
                       5SM BR OVC012 FM071800 13005KT P6SM BKN015
                       FM072100 18006KT P6SM BKN020=
201605062343 TAF KBDR 062343Z 0700/0724 09012KT 3SM -RA BR OVC008 FM070200 08008KT
                       2SM -DZ BR OVC004 FM071500 07007KT 5SM BR
                       OVC012 FM071800 13005KT P6SM BKN015 FM072100
                       18006KT P6SM BKN020=
201605062140 TAF AMD KBDR 062140Z 0622/0718 09015KT 6SM -RA OVC008 FM070000
                       08011KT 3SM -DZ BR OVC005 FM071200 08008KT
                       5SM BR OVC012=
201605061933 TAF AMD KBDR 061933Z 0620/0718 09015KT 6SM -DZ BR OVC012 FM070000
                       08011KT 3SM -DZ BR OVC005 FM071200 08008KT
                       5SM BR OVC012=
201605061739 TAF KBDR 061739Z 0618/0718 09015KT 6SM -SHRADZ BR OVC012 FM070000
                       08011KT 3SM -DZ BR OVC005 FM071200 08008KT
                       5SM BR OVC012=
201605061531 TAF AMD KBDR 061531Z 0616/0712 08015KT 5SM -SHRADZ BR OVC012 FM061800
                       07022G28KT 2SM -SHRADZ BR OVC007 FM070000
                       08016KT 3/4SM -DZ BR OVC004 FM070600 08010KT
                       2SM -DZ BR OVC004=
201605061421 TAF AMD KBDR 061421Z 0614/0712 05015G20KT 3SM RA BR OVC008 FM061500
                       05016G21KT 4SM -RA BR OVC008 FM061800 07022G28KT
                       1SM -SHRADZ BR OVC005 FM070000 08016KT 3/4SM
                       -DZ BR OVC004 FM070600 08010KT 2SM -DZ BR
                       OVC004=
201605061337 TAF AMD KBDR 061337Z 0614/0712 05015G20KT 6SM -RA BR OVC010 FM061500
                       05016G21KT 4SM -RA BR OVC008 FM061800 07022G28KT
                       1SM -SHRADZ BR OVC005 FM070000 08016KT 3/4SM
                       -DZ BR OVC004 FM070600 08010KT 2SM -DZ BR
                       OVC004=
201605061120 TAF KBDR 061120Z 0612/0712 04012G19KT 5SM RA BR SCT007 OVC014 FM061300
                       05017G23KT 3SM RA BR OVC008 FM061800 07022G28KT
                       1SM -SHRADZ BR OVC005 FM070000 08016KT 3/4SM
                       -DZ BR OVC004 FM070600 08010KT 2SM -DZ BR
                       OVC004=
201605060843 TAF AMD KBDR 060843Z 0609/0706 03012G18KT 6SM RA BR OVC015 FM061000
                       04012G19KT 5SM -RA BR SCT005 OVC009 FM061300
                       05017G23KT 3SM RA BR OVC008 FM061800 07022G28KT
                       1SM -SHRADZ BR OVC005 FM070000 08016KT 3/4SM
                       -DZ BR OVC004=
201605060533 TAF KBDR 060533Z 0606/0706 03012G18KT P6SM OVC025 FM060800 04012G19KT
                       5SM -RA BR SCT005 OVC009 FM061200 05017G23KT
                       3SM RA BR OVC008 FM061800 07022G28KT 1SM
                       -DZ BR OVC005 FM070000 08016KT 3/4SM -DZ
                       BR OVC004=
201605060239 TAF AMD KBDR 060239Z 0603/0624 03011G18KT P6SM OVC025 FM060800
                       04012G19KT 3SM -RA BR SCT005 OVC009 FM061200
                       05014G21KT 1SM -RA BR OVC008 FM061800 07014G21KT
                       1SM -DZ BR OVC005=
201605052345 TAF KBDR 052345Z 0600/0624 03011G18KT P6SM SCT010 OVC025 FM060800
                       04012G19KT 3SM -RA BR SCT005 OVC009 FM061200
                       05014G21KT 1SM -RA BR OVC008 FM061800 07014G21KT
                       1SM -DZ BR OVC005=
201605052142 TAF AMD KBDR 052142Z 0522/0618 03014G22KT P6SM OVC030 FM060000
                       03011KT P6SM SCT010 OVC025 FM060400 03009KT
                       P6SM -DZ SCT007 OVC010 FM060800 05008KT
                       3SM -RA BR SCT005 OVC009 FM061200 07012G19KT
                       1SM -RA BR OVC008=
201605051933 TAF AMD KBDR 051933Z 0520/0618 03014G22KT P6SM OVC030 FM060000
                       03011KT P6SM SCT010 OVC025 FM060400 03009KT
                       P6SM -DZ SCT007 OVC010 FM060800 05008KT
                       3SM -RA BR SCT005 OVC009 FM061200 07012G19KT
                       1SM -RA BR OVC008=
201605051903 TAF AMD KBDR 051903Z 0519/0618 03014G22KT P6SM BKN030 FM060000
                       03011KT P6SM SCT010 OVC025 FM060400 03009KT
                       P6SM -DZ SCT007 OVC010 FM060800 05008KT
                       3SM -RA BR SCT005 OVC009 FM061200 07012G19KT
                       1SM -RA BR OVC008=
201605051730 TAF KBDR 051730Z 0518/0618 04013G22KT P6SM OVC025 FM051900 03014G22KT
                       P6SM BKN030 FM060100 03010KT P6SM SCT010
                       BKN025 FM060400 03009KT P6SM -DZ SCT007
                       OVC010 FM060800 05008KT 3SM -RA BR SCT005
                       OVC009 FM061200 07012G19KT 1SM -RA BR OVC008=
201605051525 TAF AMD KBDR 051525Z 0515/0612 02014G19KT P6SM OVC020 FM051700
                       01014G22KT P6SM SCT015 OVC025
                      TEMPO 0521/0524 -RA BKN015 FM060000 03010KT
                       P6SM -RA SCT007 OVC012 FM060600 04008KT
                       5SM -RA BR BKN007 OVC010=
201605051334 TAF AMD KBDR 051334Z 0514/0612 02014G19KT P6SM OVC015 FM051700
                       01017G24KT P6SM SCT015 OVC025
                      TEMPO 0521/0524 -RA BKN015 FM060000 03010KT
                       P6SM -RA SCT007 OVC012 FM060600 04008KT
                       5SM -RA BR BKN007 OVC010=
201605051126 TAF KBDR 051126Z 0512/0612 02013KT P6SM SCT008 OVC015 FM051300
                       02014G19KT P6SM OVC015 FM051700 01017G24KT
                       P6SM OVC015
                      TEMPO 0521/0524 -RA BKN010 FM060000 03010KT
                       P6SM -RA SCT007 OVC012 FM060600 04008KT
                       5SM -RA BR BKN007 OVC010=
201605050831 TAF AMD KBDR 050831Z 0509/0606 02013KT P6SM SCT008 OVC015
                      TEMPO 0509/0512 BKN008 FM051300 02014G19KT
                       P6SM OVC015 FM051700 01017G24KT P6SM OVC015
                       FM060000 03014KT P6SM OVC015=
201605050529 TAF KBDR 050529Z 0506/0606 04014KT P6SM OVC015 FM050900 02013KT
                       P6SM SCT008 OVC015
                      TEMPO 0509/0512 BKN008 FM051300 02014G19KT
                       P6SM OVC015 FM051700 01017G24KT P6SM OVC015
                       FM060000 03014KT P6SM OVC015=
201605050248 TAF AMD KBDR 050248Z 0503/0524 05016G24KT P6SM OVC020 FM050400
                       04014KT 6SM -DZ BR OVC015 FM051000 02013G18KT
                       6SM -DZ BR BKN008 OVC015 FM051200 02014G19KT
                       P6SM -DZ SCT008 OVC015 FM051700 01017G24KT
                       P6SM -DZ FEW008 OVC020=
201605042344 TAF KBDR 042344Z 0500/0524 05009KT P6SM -RA BKN012 OVC024 FM050100
                       05016G24KT 6SM -DZ BR OVC010 FM050400 04014KT
                       6SM -DZ BR OVC008 FM051100 02013G18KT 6SM
                       -DZ BR BKN008 OVC015 FM051200 02014G19KT
                       P6SM -DZ SCT008 OVC015=
201605042340 TAF KBDR 042340Z 0500/0524 05009KT P6SM -RA OVC024 FM050100 05016G24KT
                       6SM BR OVC010 FM050400 04014KT 6SM -DZ OVC008
                       FM051000 02013G18KT 6SM -DZ OVC015=
201605042145 TAF AMD KBDR 042145Z 0422/0518 08012G20KT 4SM -RA BR OVC015 FM042300
                       05016G23KT 4SM -RA BR OVC015 FM050100 05016G24KT
                       6SM BR OVC010 FM050400 04014KT 6SM -DZ OVC008
                       FM051000 02013G18KT 6SM -DZ OVC015=
201605041935 TAF AMD KBDR 041935Z 0420/0518 08012G20KT 4SM -RA BR OVC015 FM042300
                       05016G23KT 4SM -RA BR VCTS OVC015CB FM050100
                       05016G24KT 6SM BR OVC010 FM050400 04014KT
                       6SM -DZ OVC008 FM051000 02013G18KT 6SM -DZ
                       OVC015=
201605041759 TAF AMD KBDR 041759Z 0418/0518 08014KT P6SM OVC030 FM041900 08014G20KT
                       4SM -RA BR OVC015 FM042200 05018G24KT P6SM
                       OVC015 FM050400 04014KT 6SM -DZ OVC008 FM051000
                       02013G18KT 6SM -DZ OVC015=
201605041612 TAF AMD KBDR 041612Z 0416/0512 09012KT P6SM OVC025 FM041900 08013G18KT
                       4SM -RA BR OVC015 FM042200 07016G22KT 4SM
                       -RA BR OVC009 FM042300 07017G23KT 3SM -DZ
                       SCT005 BKN008 FM050700 04013G18KT 3SM -DZ
                       SCT005 BKN008=
201605041358 TAF AMD KBDR 041358Z 0414/0512 08010KT P6SM BKN025 FM041900 08013G18KT
                       4SM -RA BR OVC015 FM042200 07016G22KT 4SM
                       -RA BR OVC009 FM042300 07017G23KT 3SM -DZ
                       SCT005 BKN008 FM050700 04013G18KT 3SM -DZ
                       SCT005 BKN008=
201605041126 TAF KBDR 041126Z 0412/0512 06008KT P6SM SCT010 BKN030 FM041500
                       07010G15KT 5SM -SHRA BR SCT008 OVC020 FM042300
                       05010G20KT 3SM -DZ SCT005 BKN008=
201605040830 TAF AMD KBDR 040830Z 0409/0506 06008KT 6SM BR SCT010 BKN030 FM041500
                       07010G15KT 4SM -SHRA BR SCT008 OVC020 FM042300
                       05010G20KT 3SM -DZ SCT005 BKN008=
201605040526 TAF KBDR 040526Z 0406/0506 06008KT 4SM BR OVC006 FM041500 07010G15KT
                       4SM -SHRA BR SCT008 OVC012 FM042300 05010G14KT
                       3SM -DZ SCT005 BKN008=
201605040235 TAF AMD KBDR 040235Z 0403/0424 06008KT 2SM BR OVC006 FM041500 07010G15KT
                       4SM -SHRA BR SCT008 OVC012=
201605032343 TAF KBDR 032343Z 0400/0424 09010KT P6SM OVC006 FM040300 06008KT
                       2SM BR OVC008 FM041500 07010KT 4SM -SHRA
                       BR SCT008 OVC012=
201605032340 TAF KBDR 032340Z 0400/0424 09010KT P6SM OVC006
                      TEMPO 0400/0402 SCT006 OVC010 FM040300 06008KT
                       4SM BR OVC008 FM041400 07010KT 4SM -SHRA
                       BR OVC008=
201605032140 TAF AMD KBDR 032140Z 0322/0418 09010KT P6SM OVC006
                      TEMPO 0322/0402 SCT006 OVC010 FM040300 06008KT
                       4SM BR OVC008 FM041400 07010KT 4SM -SHRA
                       BR OVC008=
201605031940 TAF AMD KBDR 031940Z 0320/0418 09010KT P6SM OVC008
                      TEMPO 0322/0402 OVC012 FM040300 06008KT 4SM
                       BR OVC008 FM041400 07010KT 4SM -SHRA BR
                       OVC008=
201605031758 TAF KBDR 031758Z 0318/0418 08010KT 2SM BR BKN008 FM032100 05009KT
                       4SM BR SCT008 BKN020 FM040300 05006KT 4SM
                       BR OVC008 FM041400 07010KT 4SM -SHRA BR
                       OVC008=
201605031524 TAF AMD KBDR 031524Z 0315/0412 08010KT 2SM -RA BR BKN004 FM031800
                       08009KT 2SM BR BKN007 FM032100 05007KT 4SM
                       BR BKN012 FM040100 VRB05KT P6SM BKN025 FM040700
                       05006KT 4SM BR BKN030=
201605031347 TAF AMD KBDR 031347Z 0314/0412 08012KT 5SM -RA BR BKN005 FM031600
                       08010KT 4SM BR OVC007 FM032000 05007KT 6SM
                       BR BKN012 FM040100 VRB05KT P6SM BKN025 FM040700
                       05006KT 4SM BR BKN030=
201605031131 TAF KBDR 031131Z 0312/0412 06006KT 4SM -RA BR BKN040 OVC060
                      TEMPO 0312/0314 2SM +RA BR BKN006 FM031400
                       05008KT 4SM -RA BR OVC008 FM031800 05007KT
                       6SM -DZ BR BKN010 OVC040 FM040000 VRB05KT
                       P6SM BKN025 FM040700 05006KT 4SM BR BKN030
                       OVC060=
201605030826 TAF AMD KBDR 030826Z 0308/0406 VRB03KT 4SM -RA BR SCT035 BKN070
                       TEMPO 0308/0309 BKN025 FM030900 VRB05KT
                       3SM RA BR SCT005 BKN015
                      TEMPO 0309/0313 2SM +RA BR BKN005 FM031300
                       06009KT 4SM -RA BR OVC015 FM031700 05010KT
                       6SM -DZ BR BKN010 OVC040 FM040000 VRB03KT
                       P6SM BKN025=
201605030550 TAF KBDR 030550Z 0306/0406 00000KT 6SM BR SCT035 BKN060
                      TEMPO 0306/0309 4SM -RA BR BKN025 FM030900
                       VRB05KT 3SM RA BR SCT005 BKN015
                      TEMPO 0309/0313 2SM +RA BR BKN005 FM031300
                       06009KT 4SM -RA BR OVC015 FM031700 05010KT
                       6SM -DZ BR BKN010 OVC040 FM040000 VRB03KT
                       P6SM BKN025=
201605030222 TAF AMD KBDR 030222Z 0302/0324 VRB05KT 6SM BR SCT015 BKN050 FM030600
                       VRB05KT 3SM RA BR SCT007 OVC015
                      TEMPO 0306/0309 BKN007 FM030900 06008KT 2SM
                       RA BR OVC005 FM031400 05008KT 4SM -SHRA
                       BR OVC005 FM031700 03008KT 3SM BR OVC008
                       FM032100 12008KT 6SM BR SCT008 BKN015=
201605022345 TAF KBDR 022345Z 0300/0324 23005KT P6SM SCT015 BKN250 FM030200
                       VRB05KT 6SM BR OVC015 FM030600 VRB05KT 3SM
                       RA BR BKN007 OVC015 FM030900 06008KT 2SM
                       RA BR OVC005 FM031300 05008KT 4SM -SHRA
                       BR OVC005 FM031700 03008KT 3SM BR OVC008
                       FM032100 12008KT 6SM BR SCT008 BKN015=
201605022204 TAF AMD KBDR 022204Z 0222/0318 23005KT P6SM OVC015 FM030000 VRB05KT
                       6SM BR OVC015 FM030600 VRB05KT 3SM RA BR
                       BKN007 OVC015 FM030900 06008KT 2SM RA BR
                       OVC005 FM031300 05008KT 4SM -SHRA BR OVC005
                       FM031700 03008KT 3SM BR OVC008=
201605021933 TAF AMD KBDR 021933Z 0220/0318 VRB05KT P6SM BKN010 OVC015 FM022300
                       VRB03KT P6SM OVC007 FM030100 VRB03KT 2SM
                       BR OVC005 FM031000 06008KT 2SM RA BR OVC005
                       FM031600 03008KT 3SM BR OVC008=
201605021734 TAF KBDR 021734Z 0218/0318 12005KT P6SM OVC015 FM022100 VRB05KT
                       P6SM BKN008 OVC015 FM030100 VRB03KT 2SM
                       BR OVC005 FM031000 06008KT 2SM RA BR OVC005
                       FM031600 03008KT 3SM BR OVC008=
201605021540 TAF AMD KBDR 021540Z 0216/0312 09007KT P6SM OVC005 FM022000 VRB05KT
                       6SM BR BKN012 FM030000 VRB03KT 3SM BR OVC008
                       FM030600 03005KT 2SM BR OVC006=
201605021335 TAF AMD KBDR 021335Z 0214/0312 07006KT P6SM OVC006 FM021500 09007KT
                       4SM -RA BR OVC008 FM022000 VRB05KT 6SM BR
                       BKN012 FM030000 VRB03KT 3SM BR OVC008 FM030600
                       03005KT 2SM BR OVC006=
201605021137 TAF KBDR 021137Z 0212/0312 07006KT P6SM OVC006 FM021500 09007KT
                       4SM -RA BR OVC008 FM022000 VRB05KT 6SM BR
                       BKN012 FM030000 VRB03KT 3SM BR OVC008 FM030600
                       03005KT 2SM BR OVC006=
201605020839 TAF AMD KBDR 020839Z 0209/0306 02006KT 6SM BR OVC006 FM021100 04005KT
                       2SM BR OVC004 FM021400 09007KT 3SM -RA BR
                       BKN008 FM022000 VRB05KT 6SM BR BKN012 FM022300
                       VRB03KT 4SM BR BKN012=
201605020608 TAF KBDR 020608Z 0206/0306 05006KT 6SM BR OVC006 FM020900 04005KT
                       2SM BR OVC004 FM021400 09005KT 3SM -RA BR
                       BKN008 FM022000 VRB05KT 6SM BR BKN012 FM022300
                       VRB03KT 4SM BR BKN012=
201605020129 TAF AMD KBDR 020129Z 0201/0224 05010KT 4SM -DZ BR OVC006 FM020400
                       05010KT 4SM BR OVC004 FM020600 05007KT 2SM
                       BR OVC004 FM021600 09008KT 2SM BR OVC006
                       FM021900 VRB06KT 4SM BR OVC008 FM022100
                       VRB05KT P6SM BKN015=
201605012357 TAF KBDR 012357Z 0200/0224 08013KT 4SM -RA BR BKN006 FM020400 06010KT
                       4SM BR OVC004 FM020500 06007KT 2SM -RADZ
                       BR OVC004 FM021600 09008KT 2SM -RA BR OVC006
                       FM021900 VRB06KT 4SM BR OVC008 FM022100
                       VRB05KT P6SM BKN015=
201605012240 TAF AMD KBDR 012240Z 0123/0218 09013KT 4SM BR BKN008 FM020200 08012KT
                       4SM BR OVC006 FM020500 05007KT 2SM -RADZ
                       BR OVC004 FM021500 08007KT 2SM -RA BR OVC006=
201605011909 TAF AMD KBDR 011909Z 0119/0218 12009KT 6SM -RA SCT012 OVC025 FM012100
                       11009KT 5SM -RA BR OVC012 FM012300 08009KT
                       2SM -RADZ BR OVC008 FM020300 05007KT 2SM
                       -RADZ BR OVC004 FM021300 08007KT 2SM -RA
                       BR OVC006=
201605011725 TAF KBDR 011725Z 0118/0218 12009KT 4SM -RA SCT015 BKN030 FM012000
                       11009KT 4SM -RA BR OVC015 FM012300 08009KT
                       2SM -RADZ BR OVC008 FM020400 05007KT 2SM
                       -RADZ BR OVC004 FM021300 08007KT 2SM -RA
                       BR OVC006=
201605011430 TAF AMD KBDR 011430Z 0115/0212 12008KT 6SM -RA OVC060 FM011700
                       11010KT 4SM -RA FEW020 OVC040 FM011900 09012KT
                       2SM -RA BR OVC015 FM012200 07011KT 2SM -SHRA
                       BR OVC007 FM020400 05007KT 2SM -SHRADZ BR
                       OVC004=
201605011126 TAF KBDR 011126Z 0112/0212 11008KT 6SM -SHRA OVC060 FM011700 11010KT
                       4SM -RA OVC040 FM011900 09012KT 2SM -RA
                       BR OVC015 FM012200 07011KT 2SM -SHRA BR
                       OVC007 FM020400 05007KT 2SM -SHRADZ BR OVC004=
201605010830 TAF AMD KBDR 010830Z 0108/0206 VRB04KT P6SM BKN090 FM011200 11008KT
                       6SM -SHRA OVC060 FM011700 11010KT 4SM -RA
                       OVC040 FM011900 09012KT 2SM -RA BR OVC015
                       FM012200 07011KT 2SM -SHRA BR OVC007 FM020400
                       05007KT 2SM -SHRADZ BR OVC004=
201605010530 TAF KBDR 010530Z 0106/0206 VRB04KT P6SM BKN090 FM011200 11008KT
                       6SM -SHRA OVC060 FM011700 11010KT 4SM -RA
                       OVC040 FM011900 09012KT 2SM -RA BR OVC015
                       FM012200 07011KT 2SM -SHRA BR OVC007 FM020400
                       05007KT 2SM -SHRADZ BR OVC004=
201605010312 TAF AMD KBDR 010312Z 0103/0124 18005KT P6SM SCT200 FM010500 VRB04KT
                       P6SM BKN120 FM010900 08005KT P6SM OVC100
                       FM011200 11008KT 6SM -RA OVC070 FM011700
                       09011KT 4SM -RA OVC040 FM012000 09013KT
                       2SM -RA BR OVC015=
